<?xml version="1.0" encoding="UTF-8"?>
<kml xmlns="http://www.opengis.net/kml/2.2" xmlns:gx="http://www.google.com/kml/ext/2.2" xmlns:kml="http://www.opengis.net/kml/2.2" xmlns:atom="http://www.w3.org/2005/Atom">
<Folder>
	<NetworkLink>
		<name>1M~t b~ng ~~n hi~u_modified_21_1107838_1654292</name>
		<Region>
			<LatLonAltBox>
				<north>10.17316818237305</north>
				<south>10.17299652099609</south>
				<east>103.978214263916</east>
				<west>103.9780426025391</west>
				<minAltitude>0</minAltitude>
				<maxAltitude>0</maxAltitude>
			</LatLonAltBox>
			<Lod>
				<minLodPixels>128</minLodPixels>
				<maxLodPixels>-1</maxLodPixels>
				<minFadeExtent>0</minFadeExtent>
				<maxFadeExtent>0</maxFadeExtent>
			</Lod>
		</Region>
		<Link>
			<href>1M~t b~ng ~~n hi~u_modified_21_1107838_1654292.kml</href>
		</Link>
	</NetworkLink>
	<NetworkLink>
		<name>1M~t b~ng ~~n hi~u_modified_21_1107838_1654293</name>
		<Region>
			<LatLonAltBox>
				<north>10.17316818237305</north>
				<south>10.17299652099609</south>
				<east>103.978385925293</east>
				<west>103.978214263916</west>
				<minAltitude>0</minAltitude>
				<maxAltitude>0</maxAltitude>
			</LatLonAltBox>
			<Lod>
				<minLodPixels>128</minLodPixels>
				<maxLodPixels>-1</maxLodPixels>
				<minFadeExtent>0</minFadeExtent>
				<maxFadeExtent>0</maxFadeExtent>
			</Lod>
		</Region>
		<Link>
			<href>1M~t b~ng ~~n hi~u_modified_21_1107838_1654293.kml</href>
		</Link>
	</NetworkLink>
	<GroundOverlay>
		<name>1M~t b~ng ~~n hi~u_modified_20_553919_827146</name>
		<drawOrder>20</drawOrder>
		<Icon>
			<href>files/1M~t b~ng ~~n hi~u_modified_20_553919_827146.png</href>
		</Icon>
		<LatLonBox>
			<north>10.17333984375</north>
			<south>10.17299652099609</south>
			<east>103.978385925293</east>
			<west>103.9780426025391</west>
		</LatLonBox>
	</GroundOverlay>
</Folder>
</kml>
