<?xml version="1.0" encoding="UTF-8"?>
<kml xmlns="http://www.opengis.net/kml/2.2" xmlns:gx="http://www.google.com/kml/ext/2.2" xmlns:kml="http://www.opengis.net/kml/2.2" xmlns:atom="http://www.w3.org/2005/Atom">
<Folder>
	<NetworkLink>
		<name>1M~t b~ng ~~n hi~u_modified_19_276958_413572</name>
		<Region>
			<LatLonAltBox>
				<north>10.17265319824219</north>
				<south>10.17196655273438</south>
				<east>103.9780426025391</east>
				<west>103.9773559570313</west>
				<minAltitude>0</minAltitude>
				<maxAltitude>0</maxAltitude>
			</LatLonAltBox>
			<Lod>
				<minLodPixels>128</minLodPixels>
				<maxLodPixels>-1</maxLodPixels>
				<minFadeExtent>0</minFadeExtent>
				<maxFadeExtent>0</maxFadeExtent>
			</Lod>
		</Region>
		<Link>
			<href>1M~t b~ng ~~n hi~u_modified_19_276958_413572.kml</href>
		</Link>
	</NetworkLink>
	<NetworkLink>
		<name>1M~t b~ng ~~n hi~u_modified_19_276958_413573</name>
		<Region>
			<LatLonAltBox>
				<north>10.17265319824219</north>
				<south>10.17196655273438</south>
				<east>103.9787292480469</east>
				<west>103.9780426025391</west>
				<minAltitude>0</minAltitude>
				<maxAltitude>0</maxAltitude>
			</LatLonAltBox>
			<Lod>
				<minLodPixels>128</minLodPixels>
				<maxLodPixels>-1</maxLodPixels>
				<minFadeExtent>0</minFadeExtent>
				<maxFadeExtent>0</maxFadeExtent>
			</Lod>
		</Region>
		<Link>
			<href>1M~t b~ng ~~n hi~u_modified_19_276958_413573.kml</href>
		</Link>
	</NetworkLink>
	<NetworkLink>
		<name>1M~t b~ng ~~n hi~u_modified_19_276959_413572</name>
		<Region>
			<LatLonAltBox>
				<north>10.17333984375</north>
				<south>10.17265319824219</south>
				<east>103.9780426025391</east>
				<west>103.9773559570313</west>
				<minAltitude>0</minAltitude>
				<maxAltitude>0</maxAltitude>
			</LatLonAltBox>
			<Lod>
				<minLodPixels>128</minLodPixels>
				<maxLodPixels>-1</maxLodPixels>
				<minFadeExtent>0</minFadeExtent>
				<maxFadeExtent>0</maxFadeExtent>
			</Lod>
		</Region>
		<Link>
			<href>1M~t b~ng ~~n hi~u_modified_19_276959_413572.kml</href>
		</Link>
	</NetworkLink>
	<NetworkLink>
		<name>1M~t b~ng ~~n hi~u_modified_19_276959_413573</name>
		<Region>
			<LatLonAltBox>
				<north>10.17333984375</north>
				<south>10.17265319824219</south>
				<east>103.9787292480469</east>
				<west>103.9780426025391</west>
				<minAltitude>0</minAltitude>
				<maxAltitude>0</maxAltitude>
			</LatLonAltBox>
			<Lod>
				<minLodPixels>128</minLodPixels>
				<maxLodPixels>-1</maxLodPixels>
				<minFadeExtent>0</minFadeExtent>
				<maxFadeExtent>0</maxFadeExtent>
			</Lod>
		</Region>
		<Link>
			<href>1M~t b~ng ~~n hi~u_modified_19_276959_413573.kml</href>
		</Link>
	</NetworkLink>
	<GroundOverlay>
		<name>1M~t b~ng ~~n hi~u_modified_18_138479_206786</name>
		<drawOrder>18</drawOrder>
		<Icon>
			<href>files/1M~t b~ng ~~n hi~u_modified_18_138479_206786.png</href>
		</Icon>
		<LatLonBox>
			<north>10.17333984375</north>
			<south>10.17196655273438</south>
			<east>103.9787292480469</east>
			<west>103.9773559570313</west>
		</LatLonBox>
	</GroundOverlay>
</Folder>
</kml>
