<?xml version="1.0" encoding="UTF-8"?>
<kml xmlns="http://www.opengis.net/kml/2.2" xmlns:gx="http://www.google.com/kml/ext/2.2" xmlns:kml="http://www.opengis.net/kml/2.2" xmlns:atom="http://www.w3.org/2005/Atom">
<Folder>
	<NetworkLink>
		<name>1M~t b~ng ~~n hi~u_modified_20_553926_827150</name>
		<Region>
			<LatLonAltBox>
				<north>10.17574310302734</north>
				<south>10.17539978027344</south>
				<east>103.9797592163086</east>
				<west>103.9794158935547</west>
				<minAltitude>0</minAltitude>
				<maxAltitude>0</maxAltitude>
			</LatLonAltBox>
			<Lod>
				<minLodPixels>128</minLodPixels>
				<maxLodPixels>-1</maxLodPixels>
				<minFadeExtent>0</minFadeExtent>
				<maxFadeExtent>0</maxFadeExtent>
			</Lod>
		</Region>
		<Link>
			<href>1M~t b~ng ~~n hi~u_modified_20_553926_827150.kml</href>
		</Link>
	</NetworkLink>
	<NetworkLink>
		<name>1M~t b~ng ~~n hi~u_modified_20_553926_827151</name>
		<Region>
			<LatLonAltBox>
				<north>10.17574310302734</north>
				<south>10.17539978027344</south>
				<east>103.9801025390625</east>
				<west>103.9797592163086</west>
				<minAltitude>0</minAltitude>
				<maxAltitude>0</maxAltitude>
			</LatLonAltBox>
			<Lod>
				<minLodPixels>128</minLodPixels>
				<maxLodPixels>-1</maxLodPixels>
				<minFadeExtent>0</minFadeExtent>
				<maxFadeExtent>0</maxFadeExtent>
			</Lod>
		</Region>
		<Link>
			<href>1M~t b~ng ~~n hi~u_modified_20_553926_827151.kml</href>
		</Link>
	</NetworkLink>
	<NetworkLink>
		<name>1M~t b~ng ~~n hi~u_modified_20_553927_827150</name>
		<Region>
			<LatLonAltBox>
				<north>10.17608642578125</north>
				<south>10.17574310302734</south>
				<east>103.9797592163086</east>
				<west>103.9794158935547</west>
				<minAltitude>0</minAltitude>
				<maxAltitude>0</maxAltitude>
			</LatLonAltBox>
			<Lod>
				<minLodPixels>128</minLodPixels>
				<maxLodPixels>-1</maxLodPixels>
				<minFadeExtent>0</minFadeExtent>
				<maxFadeExtent>0</maxFadeExtent>
			</Lod>
		</Region>
		<Link>
			<href>1M~t b~ng ~~n hi~u_modified_20_553927_827150.kml</href>
		</Link>
	</NetworkLink>
	<NetworkLink>
		<name>1M~t b~ng ~~n hi~u_modified_20_553927_827151</name>
		<Region>
			<LatLonAltBox>
				<north>10.17608642578125</north>
				<south>10.17574310302734</south>
				<east>103.9801025390625</east>
				<west>103.9797592163086</west>
				<minAltitude>0</minAltitude>
				<maxAltitude>0</maxAltitude>
			</LatLonAltBox>
			<Lod>
				<minLodPixels>128</minLodPixels>
				<maxLodPixels>-1</maxLodPixels>
				<minFadeExtent>0</minFadeExtent>
				<maxFadeExtent>0</maxFadeExtent>
			</Lod>
		</Region>
		<Link>
			<href>1M~t b~ng ~~n hi~u_modified_20_553927_827151.kml</href>
		</Link>
	</NetworkLink>
	<GroundOverlay>
		<name>1M~t b~ng ~~n hi~u_modified_19_276963_413575</name>
		<drawOrder>19</drawOrder>
		<Icon>
			<href>files/1M~t b~ng ~~n hi~u_modified_19_276963_413575.png</href>
		</Icon>
		<LatLonBox>
			<north>10.17608642578125</north>
			<south>10.17539978027344</south>
			<east>103.9801025390625</east>
			<west>103.9794158935547</west>
		</LatLonBox>
	</GroundOverlay>
</Folder>
</kml>
