<?xml version="1.0" encoding="UTF-8"?>
<kml xmlns="http://www.opengis.net/kml/2.2" xmlns:gx="http://www.google.com/kml/ext/2.2" xmlns:kml="http://www.opengis.net/kml/2.2" xmlns:atom="http://www.w3.org/2005/Atom">
<Folder>
	<GroundOverlay>
		<name>1M~t b~ng ~~n hi~u_modified_20_553926_827163</name>
		<drawOrder>20</drawOrder>
		<Icon>
			<href>files/1M~t b~ng ~~n hi~u_modified_20_553926_827163.png</href>
		</Icon>
		<LatLonBox>
			<north>10.17574310302734</north>
			<south>10.17539978027344</south>
			<east>103.9842224121094</east>
			<west>103.9838790893555</west>
		</LatLonBox>
	</GroundOverlay>
</Folder>
</kml>
