<?xml version="1.0" encoding="UTF-8"?>
<kml xmlns="http://www.opengis.net/kml/2.2" xmlns:gx="http://www.google.com/kml/ext/2.2" xmlns:kml="http://www.opengis.net/kml/2.2" xmlns:atom="http://www.w3.org/2005/Atom">
<GroundOverlay>
	<name>1M~t b~ng ~~n hi~u_modified_21_1107843_1654336</name>
	<drawOrder>21</drawOrder>
	<Icon>
		<href>files/1M~t b~ng ~~n hi~u_modified_21_1107843_1654336.png</href>
	</Icon>
	<LatLonBox>
		<north>10.17402648925781</north>
		<south>10.17385482788086</south>
		<east>103.985767364502</east>
		<west>103.985595703125</west>
	</LatLonBox>
</GroundOverlay>
</kml>
