<?xml version="1.0" encoding="UTF-8"?>
<kml xmlns="http://www.opengis.net/kml/2.2" xmlns:gx="http://www.google.com/kml/ext/2.2" xmlns:kml="http://www.opengis.net/kml/2.2" xmlns:atom="http://www.w3.org/2005/Atom">
<GroundOverlay>
	<name>1M~t b~ng ~~n hi~u_modified_21_1107834_1654317</name>
	<drawOrder>21</drawOrder>
	<Icon>
		<href>files/1M~t b~ng ~~n hi~u_modified_21_1107834_1654317.png</href>
	</Icon>
	<LatLonBox>
		<north>10.17248153686523</north>
		<south>10.17230987548828</south>
		<east>103.9825057983398</east>
		<west>103.9823341369629</west>
	</LatLonBox>
</GroundOverlay>
</kml>
