<?xml version="1.0" encoding="UTF-8"?>
<kml xmlns="http://www.opengis.net/kml/2.2" xmlns:gx="http://www.google.com/kml/ext/2.2" xmlns:kml="http://www.opengis.net/kml/2.2" xmlns:atom="http://www.w3.org/2005/Atom">
<Folder>
	<NetworkLink>
		<name>1M~t b~ng ~~n hi~u_modified_21_1107844_1654332</name>
		<Region>
			<LatLonAltBox>
				<north>10.17419815063477</north>
				<south>10.17402648925781</south>
				<east>103.9850807189941</east>
				<west>103.9849090576172</west>
				<minAltitude>0</minAltitude>
				<maxAltitude>0</maxAltitude>
			</LatLonAltBox>
			<Lod>
				<minLodPixels>128</minLodPixels>
				<maxLodPixels>-1</maxLodPixels>
				<minFadeExtent>0</minFadeExtent>
				<maxFadeExtent>0</maxFadeExtent>
			</Lod>
		</Region>
		<Link>
			<href>1M~t b~ng ~~n hi~u_modified_21_1107844_1654332.kml</href>
		</Link>
	</NetworkLink>
	<NetworkLink>
		<name>1M~t b~ng ~~n hi~u_modified_21_1107844_1654333</name>
		<Region>
			<LatLonAltBox>
				<north>10.17419815063477</north>
				<south>10.17402648925781</south>
				<east>103.9852523803711</east>
				<west>103.9850807189941</west>
				<minAltitude>0</minAltitude>
				<maxAltitude>0</maxAltitude>
			</LatLonAltBox>
			<Lod>
				<minLodPixels>128</minLodPixels>
				<maxLodPixels>-1</maxLodPixels>
				<minFadeExtent>0</minFadeExtent>
				<maxFadeExtent>0</maxFadeExtent>
			</Lod>
		</Region>
		<Link>
			<href>1M~t b~ng ~~n hi~u_modified_21_1107844_1654333.kml</href>
		</Link>
	</NetworkLink>
	<NetworkLink>
		<name>1M~t b~ng ~~n hi~u_modified_21_1107845_1654332</name>
		<Region>
			<LatLonAltBox>
				<north>10.17436981201172</north>
				<south>10.17419815063477</south>
				<east>103.9850807189941</east>
				<west>103.9849090576172</west>
				<minAltitude>0</minAltitude>
				<maxAltitude>0</maxAltitude>
			</LatLonAltBox>
			<Lod>
				<minLodPixels>128</minLodPixels>
				<maxLodPixels>-1</maxLodPixels>
				<minFadeExtent>0</minFadeExtent>
				<maxFadeExtent>0</maxFadeExtent>
			</Lod>
		</Region>
		<Link>
			<href>1M~t b~ng ~~n hi~u_modified_21_1107845_1654332.kml</href>
		</Link>
	</NetworkLink>
	<NetworkLink>
		<name>1M~t b~ng ~~n hi~u_modified_21_1107845_1654333</name>
		<Region>
			<LatLonAltBox>
				<north>10.17436981201172</north>
				<south>10.17419815063477</south>
				<east>103.9852523803711</east>
				<west>103.9850807189941</west>
				<minAltitude>0</minAltitude>
				<maxAltitude>0</maxAltitude>
			</LatLonAltBox>
			<Lod>
				<minLodPixels>128</minLodPixels>
				<maxLodPixels>-1</maxLodPixels>
				<minFadeExtent>0</minFadeExtent>
				<maxFadeExtent>0</maxFadeExtent>
			</Lod>
		</Region>
		<Link>
			<href>1M~t b~ng ~~n hi~u_modified_21_1107845_1654333.kml</href>
		</Link>
	</NetworkLink>
	<GroundOverlay>
		<name>1M~t b~ng ~~n hi~u_modified_20_553922_827166</name>
		<drawOrder>20</drawOrder>
		<Icon>
			<href>files/1M~t b~ng ~~n hi~u_modified_20_553922_827166.png</href>
		</Icon>
		<LatLonBox>
			<north>10.17436981201172</north>
			<south>10.17402648925781</south>
			<east>103.9852523803711</east>
			<west>103.9849090576172</west>
		</LatLonBox>
	</GroundOverlay>
</Folder>
</kml>
