<?xml version="1.0" encoding="UTF-8"?>
<kml xmlns="http://www.opengis.net/kml/2.2" xmlns:gx="http://www.google.com/kml/ext/2.2" xmlns:kml="http://www.opengis.net/kml/2.2" xmlns:atom="http://www.w3.org/2005/Atom">
<GroundOverlay>
	<name>1M~t b~ng ~~n hi~u_modified_21_1107841_1654329</name>
	<drawOrder>21</drawOrder>
	<Icon>
		<href>files/1M~t b~ng ~~n hi~u_modified_21_1107841_1654329.png</href>
	</Icon>
	<LatLonBox>
		<north>10.17368316650391</north>
		<south>10.17351150512695</south>
		<east>103.9845657348633</east>
		<west>103.9843940734863</west>
	</LatLonBox>
</GroundOverlay>
</kml>
