<?xml version="1.0" encoding="UTF-8"?>
<kml xmlns="http://www.opengis.net/kml/2.2" xmlns:gx="http://www.google.com/kml/ext/2.2" xmlns:kml="http://www.opengis.net/kml/2.2" xmlns:atom="http://www.w3.org/2005/Atom">
<Folder>
	<NetworkLink>
		<name>1M~t b~ng ~~n hi~u_modified_21_1107834_1654304</name>
		<Region>
			<LatLonAltBox>
				<north>10.17248153686523</north>
				<south>10.17230987548828</south>
				<east>103.9802742004395</east>
				<west>103.9801025390625</west>
				<minAltitude>0</minAltitude>
				<maxAltitude>0</maxAltitude>
			</LatLonAltBox>
			<Lod>
				<minLodPixels>128</minLodPixels>
				<maxLodPixels>-1</maxLodPixels>
				<minFadeExtent>0</minFadeExtent>
				<maxFadeExtent>0</maxFadeExtent>
			</Lod>
		</Region>
		<Link>
			<href>1M~t b~ng ~~n hi~u_modified_21_1107834_1654304.kml</href>
		</Link>
	</NetworkLink>
	<NetworkLink>
		<name>1M~t b~ng ~~n hi~u_modified_21_1107834_1654305</name>
		<Region>
			<LatLonAltBox>
				<north>10.17248153686523</north>
				<south>10.17230987548828</south>
				<east>103.9804458618164</east>
				<west>103.9802742004395</west>
				<minAltitude>0</minAltitude>
				<maxAltitude>0</maxAltitude>
			</LatLonAltBox>
			<Lod>
				<minLodPixels>128</minLodPixels>
				<maxLodPixels>-1</maxLodPixels>
				<minFadeExtent>0</minFadeExtent>
				<maxFadeExtent>0</maxFadeExtent>
			</Lod>
		</Region>
		<Link>
			<href>1M~t b~ng ~~n hi~u_modified_21_1107834_1654305.kml</href>
		</Link>
	</NetworkLink>
	<NetworkLink>
		<name>1M~t b~ng ~~n hi~u_modified_21_1107835_1654304</name>
		<Region>
			<LatLonAltBox>
				<north>10.17265319824219</north>
				<south>10.17248153686523</south>
				<east>103.9802742004395</east>
				<west>103.9801025390625</west>
				<minAltitude>0</minAltitude>
				<maxAltitude>0</maxAltitude>
			</LatLonAltBox>
			<Lod>
				<minLodPixels>128</minLodPixels>
				<maxLodPixels>-1</maxLodPixels>
				<minFadeExtent>0</minFadeExtent>
				<maxFadeExtent>0</maxFadeExtent>
			</Lod>
		</Region>
		<Link>
			<href>1M~t b~ng ~~n hi~u_modified_21_1107835_1654304.kml</href>
		</Link>
	</NetworkLink>
	<GroundOverlay>
		<name>1M~t b~ng ~~n hi~u_modified_20_553917_827152</name>
		<drawOrder>20</drawOrder>
		<Icon>
			<href>files/1M~t b~ng ~~n hi~u_modified_20_553917_827152.png</href>
		</Icon>
		<LatLonBox>
			<north>10.17265319824219</north>
			<south>10.17230987548828</south>
			<east>103.9804458618164</east>
			<west>103.9801025390625</west>
		</LatLonBox>
	</GroundOverlay>
</Folder>
</kml>
