<?xml version="1.0" encoding="UTF-8"?>
<kml xmlns="http://www.opengis.net/kml/2.2" xmlns:gx="http://www.google.com/kml/ext/2.2" xmlns:kml="http://www.opengis.net/kml/2.2" xmlns:atom="http://www.w3.org/2005/Atom">
<Folder>
	<NetworkLink>
		<name>1M~t b~ng ~~n hi~u_modified_21_1107854_1654300</name>
		<Region>
			<LatLonAltBox>
				<north>10.1759147644043</north>
				<south>10.17574310302734</south>
				<east>103.9795875549316</east>
				<west>103.9794158935547</west>
				<minAltitude>0</minAltitude>
				<maxAltitude>0</maxAltitude>
			</LatLonAltBox>
			<Lod>
				<minLodPixels>128</minLodPixels>
				<maxLodPixels>-1</maxLodPixels>
				<minFadeExtent>0</minFadeExtent>
				<maxFadeExtent>0</maxFadeExtent>
			</Lod>
		</Region>
		<Link>
			<href>1M~t b~ng ~~n hi~u_modified_21_1107854_1654300.kml</href>
		</Link>
	</NetworkLink>
	<GroundOverlay>
		<name>1M~t b~ng ~~n hi~u_modified_20_553927_827150</name>
		<drawOrder>20</drawOrder>
		<Icon>
			<href>files/1M~t b~ng ~~n hi~u_modified_20_553927_827150.png</href>
		</Icon>
		<LatLonBox>
			<north>10.17608642578125</north>
			<south>10.17574310302734</south>
			<east>103.9797592163086</east>
			<west>103.9794158935547</west>
		</LatLonBox>
	</GroundOverlay>
</Folder>
</kml>
