<?xml version="1.0" encoding="UTF-8"?>
<kml xmlns="http://www.opengis.net/kml/2.2" xmlns:gx="http://www.google.com/kml/ext/2.2" xmlns:kml="http://www.opengis.net/kml/2.2" xmlns:atom="http://www.w3.org/2005/Atom">
<Folder>
	<NetworkLink>
		<name>1M~t b~ng ~~n hi~u_modified_15_17310_25848</name>
		<Region>
			<LatLonAltBox>
				<north>10.184326171875</north>
				<south>10.17333984375</south>
				<east>103.985595703125</east>
				<west>103.974609375</west>
				<minAltitude>0</minAltitude>
				<maxAltitude>0</maxAltitude>
			</LatLonAltBox>
			<Lod>
				<minLodPixels>128</minLodPixels>
				<maxLodPixels>-1</maxLodPixels>
				<minFadeExtent>0</minFadeExtent>
				<maxFadeExtent>0</maxFadeExtent>
			</Lod>
		</Region>
		<Link>
			<href>1M~t b~ng ~~n hi~u_modified_15_17310_25848.kml</href>
		</Link>
	</NetworkLink>
	<NetworkLink>
		<name>1M~t b~ng ~~n hi~u_modified_15_17310_25849</name>
		<Region>
			<LatLonAltBox>
				<north>10.184326171875</north>
				<south>10.17333984375</south>
				<east>103.99658203125</east>
				<west>103.985595703125</west>
				<minAltitude>0</minAltitude>
				<maxAltitude>0</maxAltitude>
			</LatLonAltBox>
			<Lod>
				<minLodPixels>128</minLodPixels>
				<maxLodPixels>-1</maxLodPixels>
				<minFadeExtent>0</minFadeExtent>
				<maxFadeExtent>0</maxFadeExtent>
			</Lod>
		</Region>
		<Link>
			<href>1M~t b~ng ~~n hi~u_modified_15_17310_25849.kml</href>
		</Link>
	</NetworkLink>
	<GroundOverlay>
		<name>1M~t b~ng ~~n hi~u_modified_14_8655_12924</name>
		<drawOrder>14</drawOrder>
		<Icon>
			<href>files/1M~t b~ng ~~n hi~u_modified_14_8655_12924.png</href>
		</Icon>
		<LatLonBox>
			<north>10.1953125</north>
			<south>10.17333984375</south>
			<east>103.99658203125</east>
			<west>103.974609375</west>
		</LatLonBox>
	</GroundOverlay>
</Folder>
</kml>
