<?xml version="1.0" encoding="UTF-8"?>
<kml xmlns="http://www.opengis.net/kml/2.2" xmlns:gx="http://www.google.com/kml/ext/2.2" xmlns:kml="http://www.opengis.net/kml/2.2" xmlns:atom="http://www.w3.org/2005/Atom">
<Folder>
	<NetworkLink>
		<name>1M~t b~ng ~~n hi~u_modified_20_553918_827162</name>
		<Region>
			<LatLonAltBox>
				<north>10.17299652099609</north>
				<south>10.17265319824219</south>
				<east>103.9838790893555</east>
				<west>103.9835357666016</west>
				<minAltitude>0</minAltitude>
				<maxAltitude>0</maxAltitude>
			</LatLonAltBox>
			<Lod>
				<minLodPixels>128</minLodPixels>
				<maxLodPixels>-1</maxLodPixels>
				<minFadeExtent>0</minFadeExtent>
				<maxFadeExtent>0</maxFadeExtent>
			</Lod>
		</Region>
		<Link>
			<href>1M~t b~ng ~~n hi~u_modified_20_553918_827162.kml</href>
		</Link>
	</NetworkLink>
	<NetworkLink>
		<name>1M~t b~ng ~~n hi~u_modified_20_553918_827163</name>
		<Region>
			<LatLonAltBox>
				<north>10.17299652099609</north>
				<south>10.17265319824219</south>
				<east>103.9842224121094</east>
				<west>103.9838790893555</west>
				<minAltitude>0</minAltitude>
				<maxAltitude>0</maxAltitude>
			</LatLonAltBox>
			<Lod>
				<minLodPixels>128</minLodPixels>
				<maxLodPixels>-1</maxLodPixels>
				<minFadeExtent>0</minFadeExtent>
				<maxFadeExtent>0</maxFadeExtent>
			</Lod>
		</Region>
		<Link>
			<href>1M~t b~ng ~~n hi~u_modified_20_553918_827163.kml</href>
		</Link>
	</NetworkLink>
	<NetworkLink>
		<name>1M~t b~ng ~~n hi~u_modified_20_553919_827162</name>
		<Region>
			<LatLonAltBox>
				<north>10.17333984375</north>
				<south>10.17299652099609</south>
				<east>103.9838790893555</east>
				<west>103.9835357666016</west>
				<minAltitude>0</minAltitude>
				<maxAltitude>0</maxAltitude>
			</LatLonAltBox>
			<Lod>
				<minLodPixels>128</minLodPixels>
				<maxLodPixels>-1</maxLodPixels>
				<minFadeExtent>0</minFadeExtent>
				<maxFadeExtent>0</maxFadeExtent>
			</Lod>
		</Region>
		<Link>
			<href>1M~t b~ng ~~n hi~u_modified_20_553919_827162.kml</href>
		</Link>
	</NetworkLink>
	<NetworkLink>
		<name>1M~t b~ng ~~n hi~u_modified_20_553919_827163</name>
		<Region>
			<LatLonAltBox>
				<north>10.17333984375</north>
				<south>10.17299652099609</south>
				<east>103.9842224121094</east>
				<west>103.9838790893555</west>
				<minAltitude>0</minAltitude>
				<maxAltitude>0</maxAltitude>
			</LatLonAltBox>
			<Lod>
				<minLodPixels>128</minLodPixels>
				<maxLodPixels>-1</maxLodPixels>
				<minFadeExtent>0</minFadeExtent>
				<maxFadeExtent>0</maxFadeExtent>
			</Lod>
		</Region>
		<Link>
			<href>1M~t b~ng ~~n hi~u_modified_20_553919_827163.kml</href>
		</Link>
	</NetworkLink>
	<GroundOverlay>
		<name>1M~t b~ng ~~n hi~u_modified_19_276959_413581</name>
		<drawOrder>19</drawOrder>
		<Icon>
			<href>files/1M~t b~ng ~~n hi~u_modified_19_276959_413581.png</href>
		</Icon>
		<LatLonBox>
			<north>10.17333984375</north>
			<south>10.17265319824219</south>
			<east>103.9842224121094</east>
			<west>103.9835357666016</west>
		</LatLonBox>
	</GroundOverlay>
</Folder>
</kml>
