<?xml version="1.0" encoding="UTF-8"?>
<kml xmlns="http://www.opengis.net/kml/2.2" xmlns:gx="http://www.google.com/kml/ext/2.2" xmlns:kml="http://www.opengis.net/kml/2.2" xmlns:atom="http://www.w3.org/2005/Atom">
<Folder>
	<NetworkLink>
		<name>1M~t b~ng ~~n hi~u_modified_20_553924_827148</name>
		<Region>
			<LatLonAltBox>
				<north>10.17505645751953</north>
				<south>10.17471313476563</south>
				<east>103.9790725708008</east>
				<west>103.9787292480469</west>
				<minAltitude>0</minAltitude>
				<maxAltitude>0</maxAltitude>
			</LatLonAltBox>
			<Lod>
				<minLodPixels>128</minLodPixels>
				<maxLodPixels>-1</maxLodPixels>
				<minFadeExtent>0</minFadeExtent>
				<maxFadeExtent>0</maxFadeExtent>
			</Lod>
		</Region>
		<Link>
			<href>1M~t b~ng ~~n hi~u_modified_20_553924_827148.kml</href>
		</Link>
	</NetworkLink>
	<NetworkLink>
		<name>1M~t b~ng ~~n hi~u_modified_20_553924_827149</name>
		<Region>
			<LatLonAltBox>
				<north>10.17505645751953</north>
				<south>10.17471313476563</south>
				<east>103.9794158935547</east>
				<west>103.9790725708008</west>
				<minAltitude>0</minAltitude>
				<maxAltitude>0</maxAltitude>
			</LatLonAltBox>
			<Lod>
				<minLodPixels>128</minLodPixels>
				<maxLodPixels>-1</maxLodPixels>
				<minFadeExtent>0</minFadeExtent>
				<maxFadeExtent>0</maxFadeExtent>
			</Lod>
		</Region>
		<Link>
			<href>1M~t b~ng ~~n hi~u_modified_20_553924_827149.kml</href>
		</Link>
	</NetworkLink>
	<NetworkLink>
		<name>1M~t b~ng ~~n hi~u_modified_20_553925_827148</name>
		<Region>
			<LatLonAltBox>
				<north>10.17539978027344</north>
				<south>10.17505645751953</south>
				<east>103.9790725708008</east>
				<west>103.9787292480469</west>
				<minAltitude>0</minAltitude>
				<maxAltitude>0</maxAltitude>
			</LatLonAltBox>
			<Lod>
				<minLodPixels>128</minLodPixels>
				<maxLodPixels>-1</maxLodPixels>
				<minFadeExtent>0</minFadeExtent>
				<maxFadeExtent>0</maxFadeExtent>
			</Lod>
		</Region>
		<Link>
			<href>1M~t b~ng ~~n hi~u_modified_20_553925_827148.kml</href>
		</Link>
	</NetworkLink>
	<NetworkLink>
		<name>1M~t b~ng ~~n hi~u_modified_20_553925_827149</name>
		<Region>
			<LatLonAltBox>
				<north>10.17539978027344</north>
				<south>10.17505645751953</south>
				<east>103.9794158935547</east>
				<west>103.9790725708008</west>
				<minAltitude>0</minAltitude>
				<maxAltitude>0</maxAltitude>
			</LatLonAltBox>
			<Lod>
				<minLodPixels>128</minLodPixels>
				<maxLodPixels>-1</maxLodPixels>
				<minFadeExtent>0</minFadeExtent>
				<maxFadeExtent>0</maxFadeExtent>
			</Lod>
		</Region>
		<Link>
			<href>1M~t b~ng ~~n hi~u_modified_20_553925_827149.kml</href>
		</Link>
	</NetworkLink>
	<GroundOverlay>
		<name>1M~t b~ng ~~n hi~u_modified_19_276962_413574</name>
		<drawOrder>19</drawOrder>
		<Icon>
			<href>files/1M~t b~ng ~~n hi~u_modified_19_276962_413574.png</href>
		</Icon>
		<LatLonBox>
			<north>10.17539978027344</north>
			<south>10.17471313476563</south>
			<east>103.9794158935547</east>
			<west>103.9787292480469</west>
		</LatLonBox>
	</GroundOverlay>
</Folder>
</kml>
