<?xml version="1.0" encoding="UTF-8"?>
<kml xmlns="http://www.opengis.net/kml/2.2" xmlns:gx="http://www.google.com/kml/ext/2.2" xmlns:kml="http://www.opengis.net/kml/2.2" xmlns:atom="http://www.w3.org/2005/Atom">
<Folder>
	<GroundOverlay>
		<name>1M~t b~ng ~~n hi~u_modified_20_553923_827165</name>
		<drawOrder>20</drawOrder>
		<Icon>
			<href>files/1M~t b~ng ~~n hi~u_modified_20_553923_827165.png</href>
		</Icon>
		<LatLonBox>
			<north>10.17471313476563</north>
			<south>10.17436981201172</south>
			<east>103.9849090576172</east>
			<west>103.9845657348633</west>
		</LatLonBox>
	</GroundOverlay>
</Folder>
</kml>
