<?xml version="1.0" encoding="UTF-8"?>
<kml xmlns="http://www.opengis.net/kml/2.2" xmlns:gx="http://www.google.com/kml/ext/2.2" xmlns:kml="http://www.opengis.net/kml/2.2" xmlns:atom="http://www.w3.org/2005/Atom">
<Folder>
	<NetworkLink>
		<name>1M~t b~ng ~~n hi~u_modified_21_1107826_1654324</name>
		<Region>
			<LatLonAltBox>
				<north>10.17110824584961</north>
				<south>10.17093658447266</south>
				<east>103.9837074279785</east>
				<west>103.9835357666016</west>
				<minAltitude>0</minAltitude>
				<maxAltitude>0</maxAltitude>
			</LatLonAltBox>
			<Lod>
				<minLodPixels>128</minLodPixels>
				<maxLodPixels>-1</maxLodPixels>
				<minFadeExtent>0</minFadeExtent>
				<maxFadeExtent>0</maxFadeExtent>
			</Lod>
		</Region>
		<Link>
			<href>1M~t b~ng ~~n hi~u_modified_21_1107826_1654324.kml</href>
		</Link>
	</NetworkLink>
	<NetworkLink>
		<name>1M~t b~ng ~~n hi~u_modified_21_1107826_1654325</name>
		<Region>
			<LatLonAltBox>
				<north>10.17110824584961</north>
				<south>10.17093658447266</south>
				<east>103.9838790893555</east>
				<west>103.9837074279785</west>
				<minAltitude>0</minAltitude>
				<maxAltitude>0</maxAltitude>
			</LatLonAltBox>
			<Lod>
				<minLodPixels>128</minLodPixels>
				<maxLodPixels>-1</maxLodPixels>
				<minFadeExtent>0</minFadeExtent>
				<maxFadeExtent>0</maxFadeExtent>
			</Lod>
		</Region>
		<Link>
			<href>1M~t b~ng ~~n hi~u_modified_21_1107826_1654325.kml</href>
		</Link>
	</NetworkLink>
	<NetworkLink>
		<name>1M~t b~ng ~~n hi~u_modified_21_1107827_1654324</name>
		<Region>
			<LatLonAltBox>
				<north>10.17127990722656</north>
				<south>10.17110824584961</south>
				<east>103.9837074279785</east>
				<west>103.9835357666016</west>
				<minAltitude>0</minAltitude>
				<maxAltitude>0</maxAltitude>
			</LatLonAltBox>
			<Lod>
				<minLodPixels>128</minLodPixels>
				<maxLodPixels>-1</maxLodPixels>
				<minFadeExtent>0</minFadeExtent>
				<maxFadeExtent>0</maxFadeExtent>
			</Lod>
		</Region>
		<Link>
			<href>1M~t b~ng ~~n hi~u_modified_21_1107827_1654324.kml</href>
		</Link>
	</NetworkLink>
	<NetworkLink>
		<name>1M~t b~ng ~~n hi~u_modified_21_1107827_1654325</name>
		<Region>
			<LatLonAltBox>
				<north>10.17127990722656</north>
				<south>10.17110824584961</south>
				<east>103.9838790893555</east>
				<west>103.9837074279785</west>
				<minAltitude>0</minAltitude>
				<maxAltitude>0</maxAltitude>
			</LatLonAltBox>
			<Lod>
				<minLodPixels>128</minLodPixels>
				<maxLodPixels>-1</maxLodPixels>
				<minFadeExtent>0</minFadeExtent>
				<maxFadeExtent>0</maxFadeExtent>
			</Lod>
		</Region>
		<Link>
			<href>1M~t b~ng ~~n hi~u_modified_21_1107827_1654325.kml</href>
		</Link>
	</NetworkLink>
	<GroundOverlay>
		<name>1M~t b~ng ~~n hi~u_modified_20_553913_827162</name>
		<drawOrder>20</drawOrder>
		<Icon>
			<href>files/1M~t b~ng ~~n hi~u_modified_20_553913_827162.png</href>
		</Icon>
		<LatLonBox>
			<north>10.17127990722656</north>
			<south>10.17093658447266</south>
			<east>103.9838790893555</east>
			<west>103.9835357666016</west>
		</LatLonBox>
	</GroundOverlay>
</Folder>
</kml>
