<?xml version="1.0" encoding="UTF-8"?>
<kml xmlns="http://www.opengis.net/kml/2.2" xmlns:gx="http://www.google.com/kml/ext/2.2" xmlns:kml="http://www.opengis.net/kml/2.2" xmlns:atom="http://www.w3.org/2005/Atom">
<Folder>
	<GroundOverlay>
		<name>4M~t b~ng ~~n hi~u_modified_20_553917_827238</name>
		<drawOrder>20</drawOrder>
		<Icon>
			<href>files/4M~t b~ng ~~n hi~u_modified_20_553917_827238.png</href>
		</Icon>
		<LatLonBox>
			<north>10.17265319824219</north>
			<south>10.17230987548828</south>
			<east>104.0099716186523</east>
			<west>104.0096282958984</west>
		</LatLonBox>
	</GroundOverlay>
</Folder>
</kml>
