<?xml version="1.0" encoding="UTF-8"?>
<kml xmlns="http://www.opengis.net/kml/2.2" xmlns:gx="http://www.google.com/kml/ext/2.2" xmlns:kml="http://www.opengis.net/kml/2.2" xmlns:atom="http://www.w3.org/2005/Atom">
<GroundOverlay>
	<name>4M~t b~ng ~~n hi~u_modified_21_1107832_1654471</name>
	<drawOrder>21</drawOrder>
	<Icon>
		<href>files/4M~t b~ng ~~n hi~u_modified_21_1107832_1654471.png</href>
	</Icon>
	<LatLonBox>
		<north>10.17213821411133</north>
		<south>10.17196655273438</south>
		<east>104.0089416503906</east>
		<west>104.0087699890137</west>
	</LatLonBox>
</GroundOverlay>
</kml>
