<?xml version="1.0" encoding="UTF-8"?>
<kml xmlns="http://www.opengis.net/kml/2.2" xmlns:gx="http://www.google.com/kml/ext/2.2" xmlns:kml="http://www.opengis.net/kml/2.2" xmlns:atom="http://www.w3.org/2005/Atom">
<Folder>
	<NetworkLink>
		<name>4M~t b~ng ~~n hi~u_modified_21_1107827_1654482</name>
		<Region>
			<LatLonAltBox>
				<north>10.17127990722656</north>
				<south>10.17110824584961</south>
				<east>104.0108299255371</east>
				<west>104.0106582641602</west>
				<minAltitude>0</minAltitude>
				<maxAltitude>0</maxAltitude>
			</LatLonAltBox>
			<Lod>
				<minLodPixels>128</minLodPixels>
				<maxLodPixels>-1</maxLodPixels>
				<minFadeExtent>0</minFadeExtent>
				<maxFadeExtent>0</maxFadeExtent>
			</Lod>
		</Region>
		<Link>
			<href>4M~t b~ng ~~n hi~u_modified_21_1107827_1654482.kml</href>
		</Link>
	</NetworkLink>
	<GroundOverlay>
		<name>4M~t b~ng ~~n hi~u_modified_20_553913_827241</name>
		<drawOrder>20</drawOrder>
		<Icon>
			<href>files/4M~t b~ng ~~n hi~u_modified_20_553913_827241.png</href>
		</Icon>
		<LatLonBox>
			<north>10.17127990722656</north>
			<south>10.17093658447266</south>
			<east>104.0110015869141</east>
			<west>104.0106582641602</west>
		</LatLonBox>
	</GroundOverlay>
</Folder>
</kml>
