<?xml version="1.0" encoding="UTF-8"?>
<kml xmlns="http://www.opengis.net/kml/2.2" xmlns:gx="http://www.google.com/kml/ext/2.2" xmlns:kml="http://www.opengis.net/kml/2.2" xmlns:atom="http://www.w3.org/2005/Atom">
<GroundOverlay>
	<name>4M~t b~ng ~~n hi~u_modified_21_1107812_1654463</name>
	<drawOrder>21</drawOrder>
	<Icon>
		<href>files/4M~t b~ng ~~n hi~u_modified_21_1107812_1654463.png</href>
	</Icon>
	<LatLonBox>
		<north>10.16870498657227</north>
		<south>10.16853332519531</south>
		<east>104.007568359375</east>
		<west>104.007396697998</west>
	</LatLonBox>
</GroundOverlay>
</kml>
