<?xml version="1.0" encoding="UTF-8"?>
<kml xmlns="http://www.opengis.net/kml/2.2" xmlns:gx="http://www.google.com/kml/ext/2.2" xmlns:kml="http://www.opengis.net/kml/2.2" xmlns:atom="http://www.w3.org/2005/Atom">
<Folder>
	<NetworkLink>
		<name>4M~t b~ng ~~n hi~u_modified_21_1107837_1654470</name>
		<Region>
			<LatLonAltBox>
				<north>10.17299652099609</north>
				<south>10.17282485961914</south>
				<east>104.0087699890137</east>
				<west>104.0085983276367</west>
				<minAltitude>0</minAltitude>
				<maxAltitude>0</maxAltitude>
			</LatLonAltBox>
			<Lod>
				<minLodPixels>128</minLodPixels>
				<maxLodPixels>-1</maxLodPixels>
				<minFadeExtent>0</minFadeExtent>
				<maxFadeExtent>0</maxFadeExtent>
			</Lod>
		</Region>
		<Link>
			<href>4M~t b~ng ~~n hi~u_modified_21_1107837_1654470.kml</href>
		</Link>
	</NetworkLink>
	<NetworkLink>
		<name>4M~t b~ng ~~n hi~u_modified_21_1107837_1654471</name>
		<Region>
			<LatLonAltBox>
				<north>10.17299652099609</north>
				<south>10.17282485961914</south>
				<east>104.0089416503906</east>
				<west>104.0087699890137</west>
				<minAltitude>0</minAltitude>
				<maxAltitude>0</maxAltitude>
			</LatLonAltBox>
			<Lod>
				<minLodPixels>128</minLodPixels>
				<maxLodPixels>-1</maxLodPixels>
				<minFadeExtent>0</minFadeExtent>
				<maxFadeExtent>0</maxFadeExtent>
			</Lod>
		</Region>
		<Link>
			<href>4M~t b~ng ~~n hi~u_modified_21_1107837_1654471.kml</href>
		</Link>
	</NetworkLink>
	<GroundOverlay>
		<name>4M~t b~ng ~~n hi~u_modified_20_553918_827235</name>
		<drawOrder>20</drawOrder>
		<Icon>
			<href>files/4M~t b~ng ~~n hi~u_modified_20_553918_827235.png</href>
		</Icon>
		<LatLonBox>
			<north>10.17299652099609</north>
			<south>10.17265319824219</south>
			<east>104.0089416503906</east>
			<west>104.0085983276367</west>
		</LatLonBox>
	</GroundOverlay>
</Folder>
</kml>
