<?xml version="1.0" encoding="UTF-8"?>
<kml xmlns="http://www.opengis.net/kml/2.2" xmlns:gx="http://www.google.com/kml/ext/2.2" xmlns:kml="http://www.opengis.net/kml/2.2" xmlns:atom="http://www.w3.org/2005/Atom">
<GroundOverlay>
	<name>4M~t b~ng ~~n hi~u_modified_21_1107815_1654444</name>
	<drawOrder>21</drawOrder>
	<Icon>
		<href>files/4M~t b~ng ~~n hi~u_modified_21_1107815_1654444.png</href>
	</Icon>
	<LatLonBox>
		<north>10.16921997070313</north>
		<south>10.16904830932617</south>
		<east>104.0043067932129</east>
		<west>104.0041351318359</west>
	</LatLonBox>
</GroundOverlay>
</kml>
