<?xml version="1.0" encoding="UTF-8"?>
<kml xmlns="http://www.opengis.net/kml/2.2" xmlns:gx="http://www.google.com/kml/ext/2.2" xmlns:kml="http://www.opengis.net/kml/2.2" xmlns:atom="http://www.w3.org/2005/Atom">
<Folder>
	<NetworkLink>
		<name>4M~t b~ng ~~n hi~u_modified_19_276960_413618</name>
		<Region>
			<LatLonAltBox>
				<north>10.17402648925781</north>
				<south>10.17333984375</south>
				<east>104.0096282958984</east>
				<west>104.0089416503906</west>
				<minAltitude>0</minAltitude>
				<maxAltitude>0</maxAltitude>
			</LatLonAltBox>
			<Lod>
				<minLodPixels>128</minLodPixels>
				<maxLodPixels>-1</maxLodPixels>
				<minFadeExtent>0</minFadeExtent>
				<maxFadeExtent>0</maxFadeExtent>
			</Lod>
		</Region>
		<Link>
			<href>4M~t b~ng ~~n hi~u_modified_19_276960_413618.kml</href>
		</Link>
	</NetworkLink>
	<NetworkLink>
		<name>4M~t b~ng ~~n hi~u_modified_19_276960_413619</name>
		<Region>
			<LatLonAltBox>
				<north>10.17402648925781</north>
				<south>10.17333984375</south>
				<east>104.0103149414063</east>
				<west>104.0096282958984</west>
				<minAltitude>0</minAltitude>
				<maxAltitude>0</maxAltitude>
			</LatLonAltBox>
			<Lod>
				<minLodPixels>128</minLodPixels>
				<maxLodPixels>-1</maxLodPixels>
				<minFadeExtent>0</minFadeExtent>
				<maxFadeExtent>0</maxFadeExtent>
			</Lod>
		</Region>
		<Link>
			<href>4M~t b~ng ~~n hi~u_modified_19_276960_413619.kml</href>
		</Link>
	</NetworkLink>
	<GroundOverlay>
		<name>4M~t b~ng ~~n hi~u_modified_18_138480_206809</name>
		<drawOrder>18</drawOrder>
		<Icon>
			<href>files/4M~t b~ng ~~n hi~u_modified_18_138480_206809.png</href>
		</Icon>
		<LatLonBox>
			<north>10.17471313476563</north>
			<south>10.17333984375</south>
			<east>104.0103149414063</east>
			<west>104.0089416503906</west>
		</LatLonBox>
	</GroundOverlay>
</Folder>
</kml>
