<?xml version="1.0" encoding="UTF-8"?>
<kml xmlns="http://www.opengis.net/kml/2.2" xmlns:gx="http://www.google.com/kml/ext/2.2" xmlns:kml="http://www.opengis.net/kml/2.2" xmlns:atom="http://www.w3.org/2005/Atom">
<Folder>
	<GroundOverlay>
		<name>4M~t b~ng ~~n hi~u_modified_20_553906_827241</name>
		<drawOrder>20</drawOrder>
		<Icon>
			<href>files/4M~t b~ng ~~n hi~u_modified_20_553906_827241.png</href>
		</Icon>
		<LatLonBox>
			<north>10.16887664794922</north>
			<south>10.16853332519531</south>
			<east>104.0110015869141</east>
			<west>104.0106582641602</west>
		</LatLonBox>
	</GroundOverlay>
</Folder>
</kml>
