<?xml version="1.0" encoding="UTF-8"?>
<kml xmlns="http://www.opengis.net/kml/2.2" xmlns:gx="http://www.google.com/kml/ext/2.2" xmlns:kml="http://www.opengis.net/kml/2.2" xmlns:atom="http://www.w3.org/2005/Atom">
<Folder>
	<NetworkLink>
		<name>4M~t b~ng ~~n hi~u_modified_18_138476_206808</name>
		<Region>
			<LatLonAltBox>
				<north>10.16921997070313</north>
				<south>10.1678466796875</south>
				<east>104.0089416503906</east>
				<west>104.007568359375</west>
				<minAltitude>0</minAltitude>
				<maxAltitude>0</maxAltitude>
			</LatLonAltBox>
			<Lod>
				<minLodPixels>128</minLodPixels>
				<maxLodPixels>-1</maxLodPixels>
				<minFadeExtent>0</minFadeExtent>
				<maxFadeExtent>0</maxFadeExtent>
			</Lod>
		</Region>
		<Link>
			<href>4M~t b~ng ~~n hi~u_modified_18_138476_206808.kml</href>
		</Link>
	</NetworkLink>
	<NetworkLink>
		<name>4M~t b~ng ~~n hi~u_modified_18_138476_206809</name>
		<Region>
			<LatLonAltBox>
				<north>10.16921997070313</north>
				<south>10.1678466796875</south>
				<east>104.0103149414063</east>
				<west>104.0089416503906</west>
				<minAltitude>0</minAltitude>
				<maxAltitude>0</maxAltitude>
			</LatLonAltBox>
			<Lod>
				<minLodPixels>128</minLodPixels>
				<maxLodPixels>-1</maxLodPixels>
				<minFadeExtent>0</minFadeExtent>
				<maxFadeExtent>0</maxFadeExtent>
			</Lod>
		</Region>
		<Link>
			<href>4M~t b~ng ~~n hi~u_modified_18_138476_206809.kml</href>
		</Link>
	</NetworkLink>
	<NetworkLink>
		<name>4M~t b~ng ~~n hi~u_modified_18_138477_206808</name>
		<Region>
			<LatLonAltBox>
				<north>10.17059326171875</north>
				<south>10.16921997070313</south>
				<east>104.0089416503906</east>
				<west>104.007568359375</west>
				<minAltitude>0</minAltitude>
				<maxAltitude>0</maxAltitude>
			</LatLonAltBox>
			<Lod>
				<minLodPixels>128</minLodPixels>
				<maxLodPixels>-1</maxLodPixels>
				<minFadeExtent>0</minFadeExtent>
				<maxFadeExtent>0</maxFadeExtent>
			</Lod>
		</Region>
		<Link>
			<href>4M~t b~ng ~~n hi~u_modified_18_138477_206808.kml</href>
		</Link>
	</NetworkLink>
	<NetworkLink>
		<name>4M~t b~ng ~~n hi~u_modified_18_138477_206809</name>
		<Region>
			<LatLonAltBox>
				<north>10.17059326171875</north>
				<south>10.16921997070313</south>
				<east>104.0103149414063</east>
				<west>104.0089416503906</west>
				<minAltitude>0</minAltitude>
				<maxAltitude>0</maxAltitude>
			</LatLonAltBox>
			<Lod>
				<minLodPixels>128</minLodPixels>
				<maxLodPixels>-1</maxLodPixels>
				<minFadeExtent>0</minFadeExtent>
				<maxFadeExtent>0</maxFadeExtent>
			</Lod>
		</Region>
		<Link>
			<href>4M~t b~ng ~~n hi~u_modified_18_138477_206809.kml</href>
		</Link>
	</NetworkLink>
	<GroundOverlay>
		<name>4M~t b~ng ~~n hi~u_modified_17_69238_103404</name>
		<drawOrder>17</drawOrder>
		<Icon>
			<href>files/4M~t b~ng ~~n hi~u_modified_17_69238_103404.png</href>
		</Icon>
		<LatLonBox>
			<north>10.17059326171875</north>
			<south>10.1678466796875</south>
			<east>104.0103149414063</east>
			<west>104.007568359375</west>
		</LatLonBox>
	</GroundOverlay>
</Folder>
</kml>
