<?xml version="1.0" encoding="UTF-8"?>
<kml xmlns="http://www.opengis.net/kml/2.2" xmlns:gx="http://www.google.com/kml/ext/2.2" xmlns:kml="http://www.opengis.net/kml/2.2" xmlns:atom="http://www.w3.org/2005/Atom">
<GroundOverlay>
	<name>4M~t b~ng ~~n hi~u_modified_21_1107831_1654464</name>
	<drawOrder>21</drawOrder>
	<Icon>
		<href>files/4M~t b~ng ~~n hi~u_modified_21_1107831_1654464.png</href>
	</Icon>
	<LatLonBox>
		<north>10.17196655273438</north>
		<south>10.17179489135742</south>
		<east>104.007740020752</east>
		<west>104.007568359375</west>
	</LatLonBox>
</GroundOverlay>
</kml>
