<?xml version="1.0" encoding="UTF-8"?>
<kml xmlns="http://www.opengis.net/kml/2.2" xmlns:gx="http://www.google.com/kml/ext/2.2" xmlns:kml="http://www.opengis.net/kml/2.2" xmlns:atom="http://www.w3.org/2005/Atom">
<GroundOverlay>
	<name>4M~t b~ng ~~n hi~u_modified_21_1107819_1654458</name>
	<drawOrder>21</drawOrder>
	<Icon>
		<href>files/4M~t b~ng ~~n hi~u_modified_21_1107819_1654458.png</href>
	</Icon>
	<LatLonBox>
		<north>10.16990661621094</north>
		<south>10.16973495483398</south>
		<east>104.0067100524902</east>
		<west>104.0065383911133</west>
	</LatLonBox>
</GroundOverlay>
</kml>
