<?xml version="1.0" encoding="UTF-8"?>
<kml xmlns="http://www.opengis.net/kml/2.2" xmlns:gx="http://www.google.com/kml/ext/2.2" xmlns:kml="http://www.opengis.net/kml/2.2" xmlns:atom="http://www.w3.org/2005/Atom">
<Folder>
	<GroundOverlay>
		<name>4M~t b~ng ~~n hi~u_modified_20_553908_827224</name>
		<drawOrder>20</drawOrder>
		<Icon>
			<href>files/4M~t b~ng ~~n hi~u_modified_20_553908_827224.png</href>
		</Icon>
		<LatLonBox>
			<north>10.16956329345703</north>
			<south>10.16921997070313</south>
			<east>104.0051651000977</east>
			<west>104.0048217773438</west>
		</LatLonBox>
	</GroundOverlay>
</Folder>
</kml>
