<?xml version="1.0" encoding="UTF-8"?>
<kml xmlns="http://www.opengis.net/kml/2.2" xmlns:gx="http://www.google.com/kml/ext/2.2" xmlns:kml="http://www.opengis.net/kml/2.2" xmlns:atom="http://www.w3.org/2005/Atom">
<Folder>
	<NetworkLink>
		<name>4M~t b~ng ~~n hi~u_modified_21_1107831_1654474</name>
		<Region>
			<LatLonAltBox>
				<north>10.17196655273438</north>
				<south>10.17179489135742</south>
				<east>104.0094566345215</east>
				<west>104.0092849731445</west>
				<minAltitude>0</minAltitude>
				<maxAltitude>0</maxAltitude>
			</LatLonAltBox>
			<Lod>
				<minLodPixels>128</minLodPixels>
				<maxLodPixels>-1</maxLodPixels>
				<minFadeExtent>0</minFadeExtent>
				<maxFadeExtent>0</maxFadeExtent>
			</Lod>
		</Region>
		<Link>
			<href>4M~t b~ng ~~n hi~u_modified_21_1107831_1654474.kml</href>
		</Link>
	</NetworkLink>
	<GroundOverlay>
		<name>4M~t b~ng ~~n hi~u_modified_20_553915_827237</name>
		<drawOrder>20</drawOrder>
		<Icon>
			<href>files/4M~t b~ng ~~n hi~u_modified_20_553915_827237.png</href>
		</Icon>
		<LatLonBox>
			<north>10.17196655273438</north>
			<south>10.17162322998047</south>
			<east>104.0096282958984</east>
			<west>104.0092849731445</west>
		</LatLonBox>
	</GroundOverlay>
</Folder>
</kml>
