<?xml version="1.0" encoding="UTF-8"?>
<kml xmlns="http://www.opengis.net/kml/2.2" xmlns:gx="http://www.google.com/kml/ext/2.2" xmlns:kml="http://www.opengis.net/kml/2.2" xmlns:atom="http://www.w3.org/2005/Atom">
<GroundOverlay>
	<name>4M~t b~ng ~~n hi~u_modified_21_1107823_1654455</name>
	<drawOrder>21</drawOrder>
	<Icon>
		<href>files/4M~t b~ng ~~n hi~u_modified_21_1107823_1654455.png</href>
	</Icon>
	<LatLonBox>
		<north>10.17059326171875</north>
		<south>10.1704216003418</south>
		<east>104.0061950683594</east>
		<west>104.0060234069824</west>
	</LatLonBox>
</GroundOverlay>
</kml>
