<?xml version="1.0" encoding="UTF-8"?>
<kml xmlns="http://www.opengis.net/kml/2.2" xmlns:gx="http://www.google.com/kml/ext/2.2" xmlns:kml="http://www.opengis.net/kml/2.2" xmlns:atom="http://www.w3.org/2005/Atom">
<Folder>
	<NetworkLink>
		<name>4M~t b~ng ~~n hi~u_modified_21_1107810_1654478</name>
		<Region>
			<LatLonAltBox>
				<north>10.16836166381836</north>
				<south>10.16819000244141</south>
				<east>104.0101432800293</east>
				<west>104.0099716186523</west>
				<minAltitude>0</minAltitude>
				<maxAltitude>0</maxAltitude>
			</LatLonAltBox>
			<Lod>
				<minLodPixels>128</minLodPixels>
				<maxLodPixels>-1</maxLodPixels>
				<minFadeExtent>0</minFadeExtent>
				<maxFadeExtent>0</maxFadeExtent>
			</Lod>
		</Region>
		<Link>
			<href>4M~t b~ng ~~n hi~u_modified_21_1107810_1654478.kml</href>
		</Link>
	</NetworkLink>
	<NetworkLink>
		<name>4M~t b~ng ~~n hi~u_modified_21_1107810_1654479</name>
		<Region>
			<LatLonAltBox>
				<north>10.16836166381836</north>
				<south>10.16819000244141</south>
				<east>104.0103149414063</east>
				<west>104.0101432800293</west>
				<minAltitude>0</minAltitude>
				<maxAltitude>0</maxAltitude>
			</LatLonAltBox>
			<Lod>
				<minLodPixels>128</minLodPixels>
				<maxLodPixels>-1</maxLodPixels>
				<minFadeExtent>0</minFadeExtent>
				<maxFadeExtent>0</maxFadeExtent>
			</Lod>
		</Region>
		<Link>
			<href>4M~t b~ng ~~n hi~u_modified_21_1107810_1654479.kml</href>
		</Link>
	</NetworkLink>
	<NetworkLink>
		<name>4M~t b~ng ~~n hi~u_modified_21_1107811_1654478</name>
		<Region>
			<LatLonAltBox>
				<north>10.16853332519531</north>
				<south>10.16836166381836</south>
				<east>104.0101432800293</east>
				<west>104.0099716186523</west>
				<minAltitude>0</minAltitude>
				<maxAltitude>0</maxAltitude>
			</LatLonAltBox>
			<Lod>
				<minLodPixels>128</minLodPixels>
				<maxLodPixels>-1</maxLodPixels>
				<minFadeExtent>0</minFadeExtent>
				<maxFadeExtent>0</maxFadeExtent>
			</Lod>
		</Region>
		<Link>
			<href>4M~t b~ng ~~n hi~u_modified_21_1107811_1654478.kml</href>
		</Link>
	</NetworkLink>
	<NetworkLink>
		<name>4M~t b~ng ~~n hi~u_modified_21_1107811_1654479</name>
		<Region>
			<LatLonAltBox>
				<north>10.16853332519531</north>
				<south>10.16836166381836</south>
				<east>104.0103149414063</east>
				<west>104.0101432800293</west>
				<minAltitude>0</minAltitude>
				<maxAltitude>0</maxAltitude>
			</LatLonAltBox>
			<Lod>
				<minLodPixels>128</minLodPixels>
				<maxLodPixels>-1</maxLodPixels>
				<minFadeExtent>0</minFadeExtent>
				<maxFadeExtent>0</maxFadeExtent>
			</Lod>
		</Region>
		<Link>
			<href>4M~t b~ng ~~n hi~u_modified_21_1107811_1654479.kml</href>
		</Link>
	</NetworkLink>
	<GroundOverlay>
		<name>4M~t b~ng ~~n hi~u_modified_20_553905_827239</name>
		<drawOrder>20</drawOrder>
		<Icon>
			<href>files/4M~t b~ng ~~n hi~u_modified_20_553905_827239.png</href>
		</Icon>
		<LatLonBox>
			<north>10.16853332519531</north>
			<south>10.16819000244141</south>
			<east>104.0103149414063</east>
			<west>104.0099716186523</west>
		</LatLonBox>
	</GroundOverlay>
</Folder>
</kml>
