<?xml version="1.0" encoding="UTF-8"?>
<kml xmlns="http://www.opengis.net/kml/2.2" xmlns:gx="http://www.google.com/kml/ext/2.2" xmlns:kml="http://www.opengis.net/kml/2.2" xmlns:atom="http://www.w3.org/2005/Atom">
<Folder>
	<GroundOverlay>
		<name>4M~t b~ng ~~n hi~u_modified_20_553904_827216</name>
		<drawOrder>20</drawOrder>
		<Icon>
			<href>files/4M~t b~ng ~~n hi~u_modified_20_553904_827216.png</href>
		</Icon>
		<LatLonBox>
			<north>10.16819000244141</north>
			<south>10.1678466796875</south>
			<east>104.0024185180664</east>
			<west>104.0020751953125</west>
		</LatLonBox>
	</GroundOverlay>
</Folder>
</kml>
