<?xml version="1.0" encoding="UTF-8"?>
<kml xmlns="http://www.opengis.net/kml/2.2" xmlns:gx="http://www.google.com/kml/ext/2.2" xmlns:kml="http://www.opengis.net/kml/2.2" xmlns:atom="http://www.w3.org/2005/Atom">
<Folder>
	<NetworkLink>
		<name>4M~t b~ng ~~n hi~u_modified_20_553908_827238</name>
		<Region>
			<LatLonAltBox>
				<north>10.16956329345703</north>
				<south>10.16921997070313</south>
				<east>104.0099716186523</east>
				<west>104.0096282958984</west>
				<minAltitude>0</minAltitude>
				<maxAltitude>0</maxAltitude>
			</LatLonAltBox>
			<Lod>
				<minLodPixels>128</minLodPixels>
				<maxLodPixels>-1</maxLodPixels>
				<minFadeExtent>0</minFadeExtent>
				<maxFadeExtent>0</maxFadeExtent>
			</Lod>
		</Region>
		<Link>
			<href>4M~t b~ng ~~n hi~u_modified_20_553908_827238.kml</href>
		</Link>
	</NetworkLink>
	<NetworkLink>
		<name>4M~t b~ng ~~n hi~u_modified_20_553908_827239</name>
		<Region>
			<LatLonAltBox>
				<north>10.16956329345703</north>
				<south>10.16921997070313</south>
				<east>104.0103149414063</east>
				<west>104.0099716186523</west>
				<minAltitude>0</minAltitude>
				<maxAltitude>0</maxAltitude>
			</LatLonAltBox>
			<Lod>
				<minLodPixels>128</minLodPixels>
				<maxLodPixels>-1</maxLodPixels>
				<minFadeExtent>0</minFadeExtent>
				<maxFadeExtent>0</maxFadeExtent>
			</Lod>
		</Region>
		<Link>
			<href>4M~t b~ng ~~n hi~u_modified_20_553908_827239.kml</href>
		</Link>
	</NetworkLink>
	<NetworkLink>
		<name>4M~t b~ng ~~n hi~u_modified_20_553909_827238</name>
		<Region>
			<LatLonAltBox>
				<north>10.16990661621094</north>
				<south>10.16956329345703</south>
				<east>104.0099716186523</east>
				<west>104.0096282958984</west>
				<minAltitude>0</minAltitude>
				<maxAltitude>0</maxAltitude>
			</LatLonAltBox>
			<Lod>
				<minLodPixels>128</minLodPixels>
				<maxLodPixels>-1</maxLodPixels>
				<minFadeExtent>0</minFadeExtent>
				<maxFadeExtent>0</maxFadeExtent>
			</Lod>
		</Region>
		<Link>
			<href>4M~t b~ng ~~n hi~u_modified_20_553909_827238.kml</href>
		</Link>
	</NetworkLink>
	<NetworkLink>
		<name>4M~t b~ng ~~n hi~u_modified_20_553909_827239</name>
		<Region>
			<LatLonAltBox>
				<north>10.16990661621094</north>
				<south>10.16956329345703</south>
				<east>104.0103149414063</east>
				<west>104.0099716186523</west>
				<minAltitude>0</minAltitude>
				<maxAltitude>0</maxAltitude>
			</LatLonAltBox>
			<Lod>
				<minLodPixels>128</minLodPixels>
				<maxLodPixels>-1</maxLodPixels>
				<minFadeExtent>0</minFadeExtent>
				<maxFadeExtent>0</maxFadeExtent>
			</Lod>
		</Region>
		<Link>
			<href>4M~t b~ng ~~n hi~u_modified_20_553909_827239.kml</href>
		</Link>
	</NetworkLink>
	<GroundOverlay>
		<name>4M~t b~ng ~~n hi~u_modified_19_276954_413619</name>
		<drawOrder>19</drawOrder>
		<Icon>
			<href>files/4M~t b~ng ~~n hi~u_modified_19_276954_413619.png</href>
		</Icon>
		<LatLonBox>
			<north>10.16990661621094</north>
			<south>10.16921997070313</south>
			<east>104.0103149414063</east>
			<west>104.0096282958984</west>
		</LatLonBox>
	</GroundOverlay>
</Folder>
</kml>
