<?xml version="1.0" encoding="UTF-8"?>
<kml xmlns="http://www.opengis.net/kml/2.2" xmlns:gx="http://www.google.com/kml/ext/2.2" xmlns:kml="http://www.opengis.net/kml/2.2" xmlns:atom="http://www.w3.org/2005/Atom">
<Folder>
	<NetworkLink>
		<name>4M~t b~ng ~~n hi~u_modified_21_1107838_1654460</name>
		<Region>
			<LatLonAltBox>
				<north>10.17316818237305</north>
				<south>10.17299652099609</south>
				<east>104.0070533752441</east>
				<west>104.0068817138672</west>
				<minAltitude>0</minAltitude>
				<maxAltitude>0</maxAltitude>
			</LatLonAltBox>
			<Lod>
				<minLodPixels>128</minLodPixels>
				<maxLodPixels>-1</maxLodPixels>
				<minFadeExtent>0</minFadeExtent>
				<maxFadeExtent>0</maxFadeExtent>
			</Lod>
		</Region>
		<Link>
			<href>4M~t b~ng ~~n hi~u_modified_21_1107838_1654460.kml</href>
		</Link>
	</NetworkLink>
	<NetworkLink>
		<name>4M~t b~ng ~~n hi~u_modified_21_1107838_1654461</name>
		<Region>
			<LatLonAltBox>
				<north>10.17316818237305</north>
				<south>10.17299652099609</south>
				<east>104.0072250366211</east>
				<west>104.0070533752441</west>
				<minAltitude>0</minAltitude>
				<maxAltitude>0</maxAltitude>
			</LatLonAltBox>
			<Lod>
				<minLodPixels>128</minLodPixels>
				<maxLodPixels>-1</maxLodPixels>
				<minFadeExtent>0</minFadeExtent>
				<maxFadeExtent>0</maxFadeExtent>
			</Lod>
		</Region>
		<Link>
			<href>4M~t b~ng ~~n hi~u_modified_21_1107838_1654461.kml</href>
		</Link>
	</NetworkLink>
	<GroundOverlay>
		<name>4M~t b~ng ~~n hi~u_modified_20_553919_827230</name>
		<drawOrder>20</drawOrder>
		<Icon>
			<href>files/4M~t b~ng ~~n hi~u_modified_20_553919_827230.png</href>
		</Icon>
		<LatLonBox>
			<north>10.17333984375</north>
			<south>10.17299652099609</south>
			<east>104.0072250366211</east>
			<west>104.0068817138672</west>
		</LatLonBox>
	</GroundOverlay>
</Folder>
</kml>
