<?xml version="1.0" encoding="UTF-8"?>
<kml xmlns="http://www.opengis.net/kml/2.2" xmlns:gx="http://www.google.com/kml/ext/2.2" xmlns:kml="http://www.opengis.net/kml/2.2" xmlns:atom="http://www.w3.org/2005/Atom">
<Folder>
	<GroundOverlay>
		<name>4M~t b~ng ~~n hi~u_modified_20_553913_827231</name>
		<drawOrder>20</drawOrder>
		<Icon>
			<href>files/4M~t b~ng ~~n hi~u_modified_20_553913_827231.png</href>
		</Icon>
		<LatLonBox>
			<north>10.17127990722656</north>
			<south>10.17093658447266</south>
			<east>104.007568359375</east>
			<west>104.0072250366211</west>
		</LatLonBox>
	</GroundOverlay>
</Folder>
</kml>
