<?xml version="1.0" encoding="UTF-8"?>
<kml xmlns="http://www.opengis.net/kml/2.2" xmlns:gx="http://www.google.com/kml/ext/2.2" xmlns:kml="http://www.opengis.net/kml/2.2" xmlns:atom="http://www.w3.org/2005/Atom">
<Folder>
	<NetworkLink>
		<name>4M~t b~ng ~~n hi~u_modified_17_69240_103404</name>
		<Region>
			<LatLonAltBox>
				<north>10.17608642578125</north>
				<south>10.17333984375</south>
				<east>104.0103149414063</east>
				<west>104.007568359375</west>
				<minAltitude>0</minAltitude>
				<maxAltitude>0</maxAltitude>
			</LatLonAltBox>
			<Lod>
				<minLodPixels>128</minLodPixels>
				<maxLodPixels>-1</maxLodPixels>
				<minFadeExtent>0</minFadeExtent>
				<maxFadeExtent>0</maxFadeExtent>
			</Lod>
		</Region>
		<Link>
			<href>4M~t b~ng ~~n hi~u_modified_17_69240_103404.kml</href>
		</Link>
	</NetworkLink>
	<NetworkLink>
		<name>4M~t b~ng ~~n hi~u_modified_17_69240_103405</name>
		<Region>
			<LatLonAltBox>
				<north>10.17608642578125</north>
				<south>10.17333984375</south>
				<east>104.0130615234375</east>
				<west>104.0103149414063</west>
				<minAltitude>0</minAltitude>
				<maxAltitude>0</maxAltitude>
			</LatLonAltBox>
			<Lod>
				<minLodPixels>128</minLodPixels>
				<maxLodPixels>-1</maxLodPixels>
				<minFadeExtent>0</minFadeExtent>
				<maxFadeExtent>0</maxFadeExtent>
			</Lod>
		</Region>
		<Link>
			<href>4M~t b~ng ~~n hi~u_modified_17_69240_103405.kml</href>
		</Link>
	</NetworkLink>
	<GroundOverlay>
		<name>4M~t b~ng ~~n hi~u_modified_16_34620_51702</name>
		<drawOrder>16</drawOrder>
		<Icon>
			<href>files/4M~t b~ng ~~n hi~u_modified_16_34620_51702.png</href>
		</Icon>
		<LatLonBox>
			<north>10.1788330078125</north>
			<south>10.17333984375</south>
			<east>104.0130615234375</east>
			<west>104.007568359375</west>
		</LatLonBox>
	</GroundOverlay>
</Folder>
</kml>
