<?xml version="1.0" encoding="UTF-8"?>
<kml xmlns="http://www.opengis.net/kml/2.2" xmlns:gx="http://www.google.com/kml/ext/2.2" xmlns:kml="http://www.opengis.net/kml/2.2" xmlns:atom="http://www.w3.org/2005/Atom">
<Folder>
	<GroundOverlay>
		<name>7M~t b~ng ~~n hi~u_modified_19_276947_413594</name>
		<drawOrder>19</drawOrder>
		<Icon>
			<href>files/7M~t b~ng ~~n hi~u_modified_19_276947_413594.png</href>
		</Icon>
		<LatLonBox>
			<north>10.16510009765625</north>
			<south>10.16441345214844</south>
			<east>103.9931488037109</east>
			<west>103.9924621582031</west>
		</LatLonBox>
	</GroundOverlay>
</Folder>
</kml>
