<?xml version="1.0" encoding="UTF-8"?>
<kml xmlns="http://www.opengis.net/kml/2.2" xmlns:gx="http://www.google.com/kml/ext/2.2" xmlns:kml="http://www.opengis.net/kml/2.2" xmlns:atom="http://www.w3.org/2005/Atom">
<GroundOverlay>
	<name>7M~t b~ng ~~n hi~u_modified_20_553882_827212</name>
	<drawOrder>20</drawOrder>
	<Icon>
		<href>files/7M~t b~ng ~~n hi~u_modified_20_553882_827212.png</href>
	</Icon>
	<LatLonBox>
		<north>10.16063690185547</north>
		<south>10.16029357910156</south>
		<east>104.0010452270508</east>
		<west>104.0007019042969</west>
	</LatLonBox>
</GroundOverlay>
</kml>
