<?xml version="1.0" encoding="UTF-8"?>
<kml xmlns="http://www.opengis.net/kml/2.2" xmlns:gx="http://www.google.com/kml/ext/2.2" xmlns:kml="http://www.opengis.net/kml/2.2" xmlns:atom="http://www.w3.org/2005/Atom">
<Folder>
	<NetworkLink>
		<name>7M~t b~ng ~~n hi~u_modified_20_553907_827197</name>
		<Region>
			<LatLonAltBox>
				<north>10.16921997070313</north>
				<south>10.16887664794922</south>
				<east>103.9958953857422</east>
				<west>103.9955520629883</west>
				<minAltitude>0</minAltitude>
				<maxAltitude>0</maxAltitude>
			</LatLonAltBox>
			<Lod>
				<minLodPixels>128</minLodPixels>
				<maxLodPixels>-1</maxLodPixels>
				<minFadeExtent>0</minFadeExtent>
				<maxFadeExtent>0</maxFadeExtent>
			</Lod>
		</Region>
		<Link>
			<href>7M~t b~ng ~~n hi~u_modified_20_553907_827197.kml</href>
		</Link>
	</NetworkLink>
	<GroundOverlay>
		<name>7M~t b~ng ~~n hi~u_modified_19_276953_413598</name>
		<drawOrder>19</drawOrder>
		<Icon>
			<href>files/7M~t b~ng ~~n hi~u_modified_19_276953_413598.png</href>
		</Icon>
		<LatLonBox>
			<north>10.16921997070313</north>
			<south>10.16853332519531</south>
			<east>103.9958953857422</east>
			<west>103.9952087402344</west>
		</LatLonBox>
	</GroundOverlay>
</Folder>
</kml>
