<?xml version="1.0" encoding="UTF-8"?>
<kml xmlns="http://www.opengis.net/kml/2.2" xmlns:gx="http://www.google.com/kml/ext/2.2" xmlns:kml="http://www.opengis.net/kml/2.2" xmlns:atom="http://www.w3.org/2005/Atom">
<GroundOverlay>
	<name>7M~t b~ng ~~n hi~u_modified_20_553895_827214</name>
	<drawOrder>20</drawOrder>
	<Icon>
		<href>files/7M~t b~ng ~~n hi~u_modified_20_553895_827214.png</href>
	</Icon>
	<LatLonBox>
		<north>10.16510009765625</north>
		<south>10.16475677490234</south>
		<east>104.0017318725586</east>
		<west>104.0013885498047</west>
	</LatLonBox>
</GroundOverlay>
</kml>
