<?xml version="1.0" encoding="UTF-8"?>
<kml xmlns="http://www.opengis.net/kml/2.2" xmlns:gx="http://www.google.com/kml/ext/2.2" xmlns:kml="http://www.opengis.net/kml/2.2" xmlns:atom="http://www.w3.org/2005/Atom">
<Folder>
	<NetworkLink>
		<name>7M~t b~ng ~~n hi~u_modified_19_276942_413590</name>
		<Region>
			<LatLonAltBox>
				<north>10.16166687011719</north>
				<south>10.16098022460938</south>
				<east>103.9904022216797</east>
				<west>103.9897155761719</west>
				<minAltitude>0</minAltitude>
				<maxAltitude>0</maxAltitude>
			</LatLonAltBox>
			<Lod>
				<minLodPixels>128</minLodPixels>
				<maxLodPixels>-1</maxLodPixels>
				<minFadeExtent>0</minFadeExtent>
				<maxFadeExtent>0</maxFadeExtent>
			</Lod>
		</Region>
		<Link>
			<href>7M~t b~ng ~~n hi~u_modified_19_276942_413590.kml</href>
		</Link>
	</NetworkLink>
	<NetworkLink>
		<name>7M~t b~ng ~~n hi~u_modified_19_276942_413591</name>
		<Region>
			<LatLonAltBox>
				<north>10.16166687011719</north>
				<south>10.16098022460938</south>
				<east>103.9910888671875</east>
				<west>103.9904022216797</west>
				<minAltitude>0</minAltitude>
				<maxAltitude>0</maxAltitude>
			</LatLonAltBox>
			<Lod>
				<minLodPixels>128</minLodPixels>
				<maxLodPixels>-1</maxLodPixels>
				<minFadeExtent>0</minFadeExtent>
				<maxFadeExtent>0</maxFadeExtent>
			</Lod>
		</Region>
		<Link>
			<href>7M~t b~ng ~~n hi~u_modified_19_276942_413591.kml</href>
		</Link>
	</NetworkLink>
	<NetworkLink>
		<name>7M~t b~ng ~~n hi~u_modified_19_276943_413590</name>
		<Region>
			<LatLonAltBox>
				<north>10.162353515625</north>
				<south>10.16166687011719</south>
				<east>103.9904022216797</east>
				<west>103.9897155761719</west>
				<minAltitude>0</minAltitude>
				<maxAltitude>0</maxAltitude>
			</LatLonAltBox>
			<Lod>
				<minLodPixels>128</minLodPixels>
				<maxLodPixels>-1</maxLodPixels>
				<minFadeExtent>0</minFadeExtent>
				<maxFadeExtent>0</maxFadeExtent>
			</Lod>
		</Region>
		<Link>
			<href>7M~t b~ng ~~n hi~u_modified_19_276943_413590.kml</href>
		</Link>
	</NetworkLink>
	<NetworkLink>
		<name>7M~t b~ng ~~n hi~u_modified_19_276943_413591</name>
		<Region>
			<LatLonAltBox>
				<north>10.162353515625</north>
				<south>10.16166687011719</south>
				<east>103.9910888671875</east>
				<west>103.9904022216797</west>
				<minAltitude>0</minAltitude>
				<maxAltitude>0</maxAltitude>
			</LatLonAltBox>
			<Lod>
				<minLodPixels>128</minLodPixels>
				<maxLodPixels>-1</maxLodPixels>
				<minFadeExtent>0</minFadeExtent>
				<maxFadeExtent>0</maxFadeExtent>
			</Lod>
		</Region>
		<Link>
			<href>7M~t b~ng ~~n hi~u_modified_19_276943_413591.kml</href>
		</Link>
	</NetworkLink>
	<GroundOverlay>
		<name>7M~t b~ng ~~n hi~u_modified_18_138471_206795</name>
		<drawOrder>18</drawOrder>
		<Icon>
			<href>files/7M~t b~ng ~~n hi~u_modified_18_138471_206795.png</href>
		</Icon>
		<LatLonBox>
			<north>10.162353515625</north>
			<south>10.16098022460938</south>
			<east>103.9910888671875</east>
			<west>103.9897155761719</west>
		</LatLonBox>
	</GroundOverlay>
</Folder>
</kml>
