<?xml version="1.0" encoding="UTF-8"?>
<kml xmlns="http://www.opengis.net/kml/2.2" xmlns:gx="http://www.google.com/kml/ext/2.2" xmlns:kml="http://www.opengis.net/kml/2.2" xmlns:atom="http://www.w3.org/2005/Atom">
<GroundOverlay>
	<name>7M~t b~ng ~~n hi~u_modified_20_553893_827193</name>
	<drawOrder>20</drawOrder>
	<Icon>
		<href>files/7M~t b~ng ~~n hi~u_modified_20_553893_827193.png</href>
	</Icon>
	<LatLonBox>
		<north>10.16441345214844</north>
		<south>10.16407012939453</south>
		<east>103.9945220947266</east>
		<west>103.9941787719727</west>
	</LatLonBox>
</GroundOverlay>
</kml>
