<?xml version="1.0" encoding="UTF-8"?>
<kml xmlns="http://www.opengis.net/kml/2.2" xmlns:gx="http://www.google.com/kml/ext/2.2" xmlns:kml="http://www.opengis.net/kml/2.2" xmlns:atom="http://www.w3.org/2005/Atom">
<Folder>
	<NetworkLink>
		<name>7M~t b~ng ~~n hi~u_modified_20_553896_827198</name>
		<Region>
			<LatLonAltBox>
				<north>10.16544342041016</north>
				<south>10.16510009765625</south>
				<east>103.9962387084961</east>
				<west>103.9958953857422</west>
				<minAltitude>0</minAltitude>
				<maxAltitude>0</maxAltitude>
			</LatLonAltBox>
			<Lod>
				<minLodPixels>128</minLodPixels>
				<maxLodPixels>-1</maxLodPixels>
				<minFadeExtent>0</minFadeExtent>
				<maxFadeExtent>0</maxFadeExtent>
			</Lod>
		</Region>
		<Link>
			<href>7M~t b~ng ~~n hi~u_modified_20_553896_827198.kml</href>
		</Link>
	</NetworkLink>
	<NetworkLink>
		<name>7M~t b~ng ~~n hi~u_modified_20_553896_827199</name>
		<Region>
			<LatLonAltBox>
				<north>10.16544342041016</north>
				<south>10.16510009765625</south>
				<east>103.99658203125</east>
				<west>103.9962387084961</west>
				<minAltitude>0</minAltitude>
				<maxAltitude>0</maxAltitude>
			</LatLonAltBox>
			<Lod>
				<minLodPixels>128</minLodPixels>
				<maxLodPixels>-1</maxLodPixels>
				<minFadeExtent>0</minFadeExtent>
				<maxFadeExtent>0</maxFadeExtent>
			</Lod>
		</Region>
		<Link>
			<href>7M~t b~ng ~~n hi~u_modified_20_553896_827199.kml</href>
		</Link>
	</NetworkLink>
	<NetworkLink>
		<name>7M~t b~ng ~~n hi~u_modified_20_553897_827198</name>
		<Region>
			<LatLonAltBox>
				<north>10.16578674316406</north>
				<south>10.16544342041016</south>
				<east>103.9962387084961</east>
				<west>103.9958953857422</west>
				<minAltitude>0</minAltitude>
				<maxAltitude>0</maxAltitude>
			</LatLonAltBox>
			<Lod>
				<minLodPixels>128</minLodPixels>
				<maxLodPixels>-1</maxLodPixels>
				<minFadeExtent>0</minFadeExtent>
				<maxFadeExtent>0</maxFadeExtent>
			</Lod>
		</Region>
		<Link>
			<href>7M~t b~ng ~~n hi~u_modified_20_553897_827198.kml</href>
		</Link>
	</NetworkLink>
	<NetworkLink>
		<name>7M~t b~ng ~~n hi~u_modified_20_553897_827199</name>
		<Region>
			<LatLonAltBox>
				<north>10.16578674316406</north>
				<south>10.16544342041016</south>
				<east>103.99658203125</east>
				<west>103.9962387084961</west>
				<minAltitude>0</minAltitude>
				<maxAltitude>0</maxAltitude>
			</LatLonAltBox>
			<Lod>
				<minLodPixels>128</minLodPixels>
				<maxLodPixels>-1</maxLodPixels>
				<minFadeExtent>0</minFadeExtent>
				<maxFadeExtent>0</maxFadeExtent>
			</Lod>
		</Region>
		<Link>
			<href>7M~t b~ng ~~n hi~u_modified_20_553897_827199.kml</href>
		</Link>
	</NetworkLink>
	<GroundOverlay>
		<name>7M~t b~ng ~~n hi~u_modified_19_276948_413599</name>
		<drawOrder>19</drawOrder>
		<Icon>
			<href>files/7M~t b~ng ~~n hi~u_modified_19_276948_413599.png</href>
		</Icon>
		<LatLonBox>
			<north>10.16578674316406</north>
			<south>10.16510009765625</south>
			<east>103.99658203125</east>
			<west>103.9958953857422</west>
		</LatLonBox>
	</GroundOverlay>
</Folder>
</kml>
