<?xml version="1.0" encoding="UTF-8"?>
<kml xmlns="http://www.opengis.net/kml/2.2" xmlns:gx="http://www.google.com/kml/ext/2.2" xmlns:kml="http://www.opengis.net/kml/2.2" xmlns:atom="http://www.w3.org/2005/Atom">
<Folder>
	<NetworkLink>
		<name>7M~t b~ng ~~n hi~u_modified_20_553908_827210</name>
		<Region>
			<LatLonAltBox>
				<north>10.16956329345703</north>
				<south>10.16921997070313</south>
				<east>104.000358581543</east>
				<west>104.0000152587891</west>
				<minAltitude>0</minAltitude>
				<maxAltitude>0</maxAltitude>
			</LatLonAltBox>
			<Lod>
				<minLodPixels>128</minLodPixels>
				<maxLodPixels>-1</maxLodPixels>
				<minFadeExtent>0</minFadeExtent>
				<maxFadeExtent>0</maxFadeExtent>
			</Lod>
		</Region>
		<Link>
			<href>7M~t b~ng ~~n hi~u_modified_20_553908_827210.kml</href>
		</Link>
	</NetworkLink>
	<NetworkLink>
		<name>7M~t b~ng ~~n hi~u_modified_20_553908_827211</name>
		<Region>
			<LatLonAltBox>
				<north>10.16956329345703</north>
				<south>10.16921997070313</south>
				<east>104.0007019042969</east>
				<west>104.000358581543</west>
				<minAltitude>0</minAltitude>
				<maxAltitude>0</maxAltitude>
			</LatLonAltBox>
			<Lod>
				<minLodPixels>128</minLodPixels>
				<maxLodPixels>-1</maxLodPixels>
				<minFadeExtent>0</minFadeExtent>
				<maxFadeExtent>0</maxFadeExtent>
			</Lod>
		</Region>
		<Link>
			<href>7M~t b~ng ~~n hi~u_modified_20_553908_827211.kml</href>
		</Link>
	</NetworkLink>
	<GroundOverlay>
		<name>7M~t b~ng ~~n hi~u_modified_19_276954_413605</name>
		<drawOrder>19</drawOrder>
		<Icon>
			<href>files/7M~t b~ng ~~n hi~u_modified_19_276954_413605.png</href>
		</Icon>
		<LatLonBox>
			<north>10.16990661621094</north>
			<south>10.16921997070313</south>
			<east>104.0007019042969</east>
			<west>104.0000152587891</west>
		</LatLonBox>
	</GroundOverlay>
</Folder>
</kml>
