<?xml version="1.0" encoding="UTF-8"?>
<kml xmlns="http://www.opengis.net/kml/2.2" xmlns:gx="http://www.google.com/kml/ext/2.2" xmlns:kml="http://www.opengis.net/kml/2.2" xmlns:atom="http://www.w3.org/2005/Atom">
<Folder>
	<GroundOverlay>
		<name>7M~t b~ng ~~n hi~u_modified_19_276940_413602</name>
		<drawOrder>19</drawOrder>
		<Icon>
			<href>files/7M~t b~ng ~~n hi~u_modified_19_276940_413602.png</href>
		</Icon>
		<LatLonBox>
			<north>10.16029357910156</north>
			<south>10.15960693359375</south>
			<east>103.9986419677734</east>
			<west>103.9979553222656</west>
		</LatLonBox>
	</GroundOverlay>
</Folder>
</kml>
