<?xml version="1.0" encoding="UTF-8"?>
<kml xmlns="http://www.opengis.net/kml/2.2" xmlns:gx="http://www.google.com/kml/ext/2.2" xmlns:kml="http://www.opengis.net/kml/2.2" xmlns:atom="http://www.w3.org/2005/Atom">
<GroundOverlay>
	<name>3M~t b~ng ~~n hi~u_modified_21_1107825_1654428</name>
	<drawOrder>21</drawOrder>
	<Icon>
		<href>files/3M~t b~ng ~~n hi~u_modified_21_1107825_1654428.png</href>
	</Icon>
	<LatLonBox>
		<north>10.17093658447266</north>
		<south>10.1707649230957</south>
		<east>104.0015602111816</east>
		<west>104.0013885498047</west>
	</LatLonBox>
</GroundOverlay>
</kml>
