<?xml version="1.0" encoding="UTF-8"?>
<kml xmlns="http://www.opengis.net/kml/2.2" xmlns:gx="http://www.google.com/kml/ext/2.2" xmlns:kml="http://www.opengis.net/kml/2.2" xmlns:atom="http://www.w3.org/2005/Atom">
<GroundOverlay>
	<name>3M~t b~ng ~~n hi~u_modified_21_1107840_1654413</name>
	<drawOrder>21</drawOrder>
	<Icon>
		<href>files/3M~t b~ng ~~n hi~u_modified_21_1107840_1654413.png</href>
	</Icon>
	<LatLonBox>
		<north>10.17351150512695</north>
		<south>10.17333984375</south>
		<east>103.9989852905273</east>
		<west>103.9988136291504</west>
	</LatLonBox>
</GroundOverlay>
</kml>
