<?xml version="1.0" encoding="UTF-8"?>
<kml xmlns="http://www.opengis.net/kml/2.2" xmlns:gx="http://www.google.com/kml/ext/2.2" xmlns:kml="http://www.opengis.net/kml/2.2" xmlns:atom="http://www.w3.org/2005/Atom">
<Folder>
	<GroundOverlay>
		<name>3M~t b~ng ~~n hi~u_modified_20_553922_827212</name>
		<drawOrder>20</drawOrder>
		<Icon>
			<href>files/3M~t b~ng ~~n hi~u_modified_20_553922_827212.png</href>
		</Icon>
		<LatLonBox>
			<north>10.17436981201172</north>
			<south>10.17402648925781</south>
			<east>104.0010452270508</east>
			<west>104.0007019042969</west>
		</LatLonBox>
	</GroundOverlay>
</Folder>
</kml>
