<?xml version="1.0" encoding="UTF-8"?>
<kml xmlns="http://www.opengis.net/kml/2.2" xmlns:gx="http://www.google.com/kml/ext/2.2" xmlns:kml="http://www.opengis.net/kml/2.2" xmlns:atom="http://www.w3.org/2005/Atom">
<Folder>
	<NetworkLink>
		<name>3M~t b~ng ~~n hi~u_modified_20_553920_827192</name>
		<Region>
			<LatLonAltBox>
				<north>10.17368316650391</north>
				<south>10.17333984375</south>
				<east>103.9941787719727</east>
				<west>103.9938354492188</west>
				<minAltitude>0</minAltitude>
				<maxAltitude>0</maxAltitude>
			</LatLonAltBox>
			<Lod>
				<minLodPixels>128</minLodPixels>
				<maxLodPixels>-1</maxLodPixels>
				<minFadeExtent>0</minFadeExtent>
				<maxFadeExtent>0</maxFadeExtent>
			</Lod>
		</Region>
		<Link>
			<href>3M~t b~ng ~~n hi~u_modified_20_553920_827192.kml</href>
		</Link>
	</NetworkLink>
	<NetworkLink>
		<name>3M~t b~ng ~~n hi~u_modified_20_553920_827193</name>
		<Region>
			<LatLonAltBox>
				<north>10.17368316650391</north>
				<south>10.17333984375</south>
				<east>103.9945220947266</east>
				<west>103.9941787719727</west>
				<minAltitude>0</minAltitude>
				<maxAltitude>0</maxAltitude>
			</LatLonAltBox>
			<Lod>
				<minLodPixels>128</minLodPixels>
				<maxLodPixels>-1</maxLodPixels>
				<minFadeExtent>0</minFadeExtent>
				<maxFadeExtent>0</maxFadeExtent>
			</Lod>
		</Region>
		<Link>
			<href>3M~t b~ng ~~n hi~u_modified_20_553920_827193.kml</href>
		</Link>
	</NetworkLink>
	<NetworkLink>
		<name>3M~t b~ng ~~n hi~u_modified_20_553921_827192</name>
		<Region>
			<LatLonAltBox>
				<north>10.17402648925781</north>
				<south>10.17368316650391</south>
				<east>103.9941787719727</east>
				<west>103.9938354492188</west>
				<minAltitude>0</minAltitude>
				<maxAltitude>0</maxAltitude>
			</LatLonAltBox>
			<Lod>
				<minLodPixels>128</minLodPixels>
				<maxLodPixels>-1</maxLodPixels>
				<minFadeExtent>0</minFadeExtent>
				<maxFadeExtent>0</maxFadeExtent>
			</Lod>
		</Region>
		<Link>
			<href>3M~t b~ng ~~n hi~u_modified_20_553921_827192.kml</href>
		</Link>
	</NetworkLink>
	<NetworkLink>
		<name>3M~t b~ng ~~n hi~u_modified_20_553921_827193</name>
		<Region>
			<LatLonAltBox>
				<north>10.17402648925781</north>
				<south>10.17368316650391</south>
				<east>103.9945220947266</east>
				<west>103.9941787719727</west>
				<minAltitude>0</minAltitude>
				<maxAltitude>0</maxAltitude>
			</LatLonAltBox>
			<Lod>
				<minLodPixels>128</minLodPixels>
				<maxLodPixels>-1</maxLodPixels>
				<minFadeExtent>0</minFadeExtent>
				<maxFadeExtent>0</maxFadeExtent>
			</Lod>
		</Region>
		<Link>
			<href>3M~t b~ng ~~n hi~u_modified_20_553921_827193.kml</href>
		</Link>
	</NetworkLink>
	<GroundOverlay>
		<name>3M~t b~ng ~~n hi~u_modified_19_276960_413596</name>
		<drawOrder>19</drawOrder>
		<Icon>
			<href>files/3M~t b~ng ~~n hi~u_modified_19_276960_413596.png</href>
		</Icon>
		<LatLonBox>
			<north>10.17402648925781</north>
			<south>10.17333984375</south>
			<east>103.9945220947266</east>
			<west>103.9938354492188</west>
		</LatLonBox>
	</GroundOverlay>
</Folder>
</kml>
