<?xml version="1.0" encoding="UTF-8"?>
<kml xmlns="http://www.opengis.net/kml/2.2" xmlns:gx="http://www.google.com/kml/ext/2.2" xmlns:kml="http://www.opengis.net/kml/2.2" xmlns:atom="http://www.w3.org/2005/Atom">
<GroundOverlay>
	<name>3M~t b~ng ~~n hi~u_modified_21_1107819_1654402</name>
	<drawOrder>21</drawOrder>
	<Icon>
		<href>files/3M~t b~ng ~~n hi~u_modified_21_1107819_1654402.png</href>
	</Icon>
	<LatLonBox>
		<north>10.16990661621094</north>
		<south>10.16973495483398</south>
		<east>103.9970970153809</east>
		<west>103.9969253540039</west>
	</LatLonBox>
</GroundOverlay>
</kml>
