<?xml version="1.0" encoding="UTF-8"?>
<kml xmlns="http://www.opengis.net/kml/2.2" xmlns:gx="http://www.google.com/kml/ext/2.2" xmlns:kml="http://www.opengis.net/kml/2.2" xmlns:atom="http://www.w3.org/2005/Atom">
<Folder>
	<GroundOverlay>
		<name>3M~t b~ng ~~n hi~u_modified_20_553911_827200</name>
		<drawOrder>20</drawOrder>
		<Icon>
			<href>files/3M~t b~ng ~~n hi~u_modified_20_553911_827200.png</href>
		</Icon>
		<LatLonBox>
			<north>10.17059326171875</north>
			<south>10.17024993896484</south>
			<east>103.9969253540039</east>
			<west>103.99658203125</west>
		</LatLonBox>
	</GroundOverlay>
</Folder>
</kml>
