<?xml version="1.0" encoding="UTF-8"?>
<kml xmlns="http://www.opengis.net/kml/2.2" xmlns:gx="http://www.google.com/kml/ext/2.2" xmlns:kml="http://www.opengis.net/kml/2.2" xmlns:atom="http://www.w3.org/2005/Atom">
<GroundOverlay>
	<name>3M~t b~ng ~~n hi~u_modified_21_1107836_1654418</name>
	<drawOrder>21</drawOrder>
	<Icon>
		<href>files/3M~t b~ng ~~n hi~u_modified_21_1107836_1654418.png</href>
	</Icon>
	<LatLonBox>
		<north>10.17282485961914</north>
		<south>10.17265319824219</south>
		<east>103.9998435974121</east>
		<west>103.9996719360352</west>
	</LatLonBox>
</GroundOverlay>
</kml>
