<?xml version="1.0" encoding="UTF-8"?>
<kml xmlns="http://www.opengis.net/kml/2.2" xmlns:gx="http://www.google.com/kml/ext/2.2" xmlns:kml="http://www.opengis.net/kml/2.2" xmlns:atom="http://www.w3.org/2005/Atom">
<GroundOverlay>
	<name>3M~t b~ng ~~n hi~u_modified_21_1107827_1654426</name>
	<drawOrder>21</drawOrder>
	<Icon>
		<href>files/3M~t b~ng ~~n hi~u_modified_21_1107827_1654426.png</href>
	</Icon>
	<LatLonBox>
		<north>10.17127990722656</north>
		<south>10.17110824584961</south>
		<east>104.0012168884277</east>
		<west>104.0010452270508</west>
	</LatLonBox>
</GroundOverlay>
</kml>
