<?xml version="1.0" encoding="UTF-8"?>
<kml xmlns="http://www.opengis.net/kml/2.2" xmlns:gx="http://www.google.com/kml/ext/2.2" xmlns:kml="http://www.opengis.net/kml/2.2" xmlns:atom="http://www.w3.org/2005/Atom">
<Folder>
	<NetworkLink>
		<name>3M~t b~ng ~~n hi~u_modified_20_553910_827208</name>
		<Region>
			<LatLonAltBox>
				<north>10.17024993896484</north>
				<south>10.16990661621094</south>
				<east>103.9996719360352</east>
				<west>103.9993286132813</west>
				<minAltitude>0</minAltitude>
				<maxAltitude>0</maxAltitude>
			</LatLonAltBox>
			<Lod>
				<minLodPixels>128</minLodPixels>
				<maxLodPixels>-1</maxLodPixels>
				<minFadeExtent>0</minFadeExtent>
				<maxFadeExtent>0</maxFadeExtent>
			</Lod>
		</Region>
		<Link>
			<href>3M~t b~ng ~~n hi~u_modified_20_553910_827208.kml</href>
		</Link>
	</NetworkLink>
	<NetworkLink>
		<name>3M~t b~ng ~~n hi~u_modified_20_553910_827209</name>
		<Region>
			<LatLonAltBox>
				<north>10.17024993896484</north>
				<south>10.16990661621094</south>
				<east>104.0000152587891</east>
				<west>103.9996719360352</west>
				<minAltitude>0</minAltitude>
				<maxAltitude>0</maxAltitude>
			</LatLonAltBox>
			<Lod>
				<minLodPixels>128</minLodPixels>
				<maxLodPixels>-1</maxLodPixels>
				<minFadeExtent>0</minFadeExtent>
				<maxFadeExtent>0</maxFadeExtent>
			</Lod>
		</Region>
		<Link>
			<href>3M~t b~ng ~~n hi~u_modified_20_553910_827209.kml</href>
		</Link>
	</NetworkLink>
	<NetworkLink>
		<name>3M~t b~ng ~~n hi~u_modified_20_553911_827208</name>
		<Region>
			<LatLonAltBox>
				<north>10.17059326171875</north>
				<south>10.17024993896484</south>
				<east>103.9996719360352</east>
				<west>103.9993286132813</west>
				<minAltitude>0</minAltitude>
				<maxAltitude>0</maxAltitude>
			</LatLonAltBox>
			<Lod>
				<minLodPixels>128</minLodPixels>
				<maxLodPixels>-1</maxLodPixels>
				<minFadeExtent>0</minFadeExtent>
				<maxFadeExtent>0</maxFadeExtent>
			</Lod>
		</Region>
		<Link>
			<href>3M~t b~ng ~~n hi~u_modified_20_553911_827208.kml</href>
		</Link>
	</NetworkLink>
	<NetworkLink>
		<name>3M~t b~ng ~~n hi~u_modified_20_553911_827209</name>
		<Region>
			<LatLonAltBox>
				<north>10.17059326171875</north>
				<south>10.17024993896484</south>
				<east>104.0000152587891</east>
				<west>103.9996719360352</west>
				<minAltitude>0</minAltitude>
				<maxAltitude>0</maxAltitude>
			</LatLonAltBox>
			<Lod>
				<minLodPixels>128</minLodPixels>
				<maxLodPixels>-1</maxLodPixels>
				<minFadeExtent>0</minFadeExtent>
				<maxFadeExtent>0</maxFadeExtent>
			</Lod>
		</Region>
		<Link>
			<href>3M~t b~ng ~~n hi~u_modified_20_553911_827209.kml</href>
		</Link>
	</NetworkLink>
	<GroundOverlay>
		<name>3M~t b~ng ~~n hi~u_modified_19_276955_413604</name>
		<drawOrder>19</drawOrder>
		<Icon>
			<href>files/3M~t b~ng ~~n hi~u_modified_19_276955_413604.png</href>
		</Icon>
		<LatLonBox>
			<north>10.17059326171875</north>
			<south>10.16990661621094</south>
			<east>104.0000152587891</east>
			<west>103.9993286132813</west>
		</LatLonBox>
	</GroundOverlay>
</Folder>
</kml>
