<?xml version="1.0" encoding="UTF-8"?>
<kml xmlns="http://www.opengis.net/kml/2.2" xmlns:gx="http://www.google.com/kml/ext/2.2" xmlns:kml="http://www.opengis.net/kml/2.2" xmlns:atom="http://www.w3.org/2005/Atom">
<GroundOverlay>
	<name>3M~t b~ng ~~n hi~u_modified_21_1107839_1654387</name>
	<drawOrder>21</drawOrder>
	<Icon>
		<href>files/3M~t b~ng ~~n hi~u_modified_21_1107839_1654387.png</href>
	</Icon>
	<LatLonBox>
		<north>10.17333984375</north>
		<south>10.17316818237305</south>
		<east>103.9945220947266</east>
		<west>103.9943504333496</west>
	</LatLonBox>
</GroundOverlay>
</kml>
