<?xml version="1.0" encoding="UTF-8"?>
<kml xmlns="http://www.opengis.net/kml/2.2" xmlns:gx="http://www.google.com/kml/ext/2.2" xmlns:kml="http://www.opengis.net/kml/2.2" xmlns:atom="http://www.w3.org/2005/Atom">
<Folder>
	<NetworkLink>
		<name>3M~t b~ng ~~n hi~u_modified_21_1107838_1654426</name>
		<Region>
			<LatLonAltBox>
				<north>10.17316818237305</north>
				<south>10.17299652099609</south>
				<east>104.0012168884277</east>
				<west>104.0010452270508</west>
				<minAltitude>0</minAltitude>
				<maxAltitude>0</maxAltitude>
			</LatLonAltBox>
			<Lod>
				<minLodPixels>128</minLodPixels>
				<maxLodPixels>-1</maxLodPixels>
				<minFadeExtent>0</minFadeExtent>
				<maxFadeExtent>0</maxFadeExtent>
			</Lod>
		</Region>
		<Link>
			<href>3M~t b~ng ~~n hi~u_modified_21_1107838_1654426.kml</href>
		</Link>
	</NetworkLink>
	<NetworkLink>
		<name>3M~t b~ng ~~n hi~u_modified_21_1107838_1654427</name>
		<Region>
			<LatLonAltBox>
				<north>10.17316818237305</north>
				<south>10.17299652099609</south>
				<east>104.0013885498047</east>
				<west>104.0012168884277</west>
				<minAltitude>0</minAltitude>
				<maxAltitude>0</maxAltitude>
			</LatLonAltBox>
			<Lod>
				<minLodPixels>128</minLodPixels>
				<maxLodPixels>-1</maxLodPixels>
				<minFadeExtent>0</minFadeExtent>
				<maxFadeExtent>0</maxFadeExtent>
			</Lod>
		</Region>
		<Link>
			<href>3M~t b~ng ~~n hi~u_modified_21_1107838_1654427.kml</href>
		</Link>
	</NetworkLink>
	<NetworkLink>
		<name>3M~t b~ng ~~n hi~u_modified_21_1107839_1654426</name>
		<Region>
			<LatLonAltBox>
				<north>10.17333984375</north>
				<south>10.17316818237305</south>
				<east>104.0012168884277</east>
				<west>104.0010452270508</west>
				<minAltitude>0</minAltitude>
				<maxAltitude>0</maxAltitude>
			</LatLonAltBox>
			<Lod>
				<minLodPixels>128</minLodPixels>
				<maxLodPixels>-1</maxLodPixels>
				<minFadeExtent>0</minFadeExtent>
				<maxFadeExtent>0</maxFadeExtent>
			</Lod>
		</Region>
		<Link>
			<href>3M~t b~ng ~~n hi~u_modified_21_1107839_1654426.kml</href>
		</Link>
	</NetworkLink>
	<GroundOverlay>
		<name>3M~t b~ng ~~n hi~u_modified_20_553919_827213</name>
		<drawOrder>20</drawOrder>
		<Icon>
			<href>files/3M~t b~ng ~~n hi~u_modified_20_553919_827213.png</href>
		</Icon>
		<LatLonBox>
			<north>10.17333984375</north>
			<south>10.17299652099609</south>
			<east>104.0013885498047</east>
			<west>104.0010452270508</west>
		</LatLonBox>
	</GroundOverlay>
</Folder>
</kml>
