<?xml version="1.0" encoding="UTF-8"?>
<kml xmlns="http://www.opengis.net/kml/2.2" xmlns:gx="http://www.google.com/kml/ext/2.2" xmlns:kml="http://www.opengis.net/kml/2.2" xmlns:atom="http://www.w3.org/2005/Atom">
<GroundOverlay>
	<name>3M~t b~ng ~~n hi~u_modified_21_1107833_1654403</name>
	<drawOrder>21</drawOrder>
	<Icon>
		<href>files/3M~t b~ng ~~n hi~u_modified_21_1107833_1654403.png</href>
	</Icon>
	<LatLonBox>
		<north>10.17230987548828</north>
		<south>10.17213821411133</south>
		<east>103.9972686767578</east>
		<west>103.9970970153809</west>
	</LatLonBox>
</GroundOverlay>
</kml>
