<?xml version="1.0" encoding="UTF-8"?>
<kml xmlns="http://www.opengis.net/kml/2.2" xmlns:gx="http://www.google.com/kml/ext/2.2" xmlns:kml="http://www.opengis.net/kml/2.2" xmlns:atom="http://www.w3.org/2005/Atom">
<Folder>
	<NetworkLink>
		<name>3M~t b~ng ~~n hi~u_modified_21_1107841_1654428</name>
		<Region>
			<LatLonAltBox>
				<north>10.17368316650391</north>
				<south>10.17351150512695</south>
				<east>104.0015602111816</east>
				<west>104.0013885498047</west>
				<minAltitude>0</minAltitude>
				<maxAltitude>0</maxAltitude>
			</LatLonAltBox>
			<Lod>
				<minLodPixels>128</minLodPixels>
				<maxLodPixels>-1</maxLodPixels>
				<minFadeExtent>0</minFadeExtent>
				<maxFadeExtent>0</maxFadeExtent>
			</Lod>
		</Region>
		<Link>
			<href>3M~t b~ng ~~n hi~u_modified_21_1107841_1654428.kml</href>
		</Link>
	</NetworkLink>
	<NetworkLink>
		<name>3M~t b~ng ~~n hi~u_modified_21_1107841_1654429</name>
		<Region>
			<LatLonAltBox>
				<north>10.17368316650391</north>
				<south>10.17351150512695</south>
				<east>104.0017318725586</east>
				<west>104.0015602111816</west>
				<minAltitude>0</minAltitude>
				<maxAltitude>0</maxAltitude>
			</LatLonAltBox>
			<Lod>
				<minLodPixels>128</minLodPixels>
				<maxLodPixels>-1</maxLodPixels>
				<minFadeExtent>0</minFadeExtent>
				<maxFadeExtent>0</maxFadeExtent>
			</Lod>
		</Region>
		<Link>
			<href>3M~t b~ng ~~n hi~u_modified_21_1107841_1654429.kml</href>
		</Link>
	</NetworkLink>
	<GroundOverlay>
		<name>3M~t b~ng ~~n hi~u_modified_20_553920_827214</name>
		<drawOrder>20</drawOrder>
		<Icon>
			<href>files/3M~t b~ng ~~n hi~u_modified_20_553920_827214.png</href>
		</Icon>
		<LatLonBox>
			<north>10.17368316650391</north>
			<south>10.17333984375</south>
			<east>104.0017318725586</east>
			<west>104.0013885498047</west>
		</LatLonBox>
	</GroundOverlay>
</Folder>
</kml>
