<?xml version="1.0" encoding="UTF-8"?>
<kml xmlns="http://www.opengis.net/kml/2.2" xmlns:gx="http://www.google.com/kml/ext/2.2" xmlns:kml="http://www.opengis.net/kml/2.2" xmlns:atom="http://www.w3.org/2005/Atom">
<GroundOverlay>
	<name>3M~t b~ng ~~n hi~u_modified_21_1107818_1654431</name>
	<drawOrder>21</drawOrder>
	<Icon>
		<href>files/3M~t b~ng ~~n hi~u_modified_21_1107818_1654431.png</href>
	</Icon>
	<LatLonBox>
		<north>10.16973495483398</north>
		<south>10.16956329345703</south>
		<east>104.0020751953125</east>
		<west>104.0019035339355</west>
	</LatLonBox>
</GroundOverlay>
</kml>
