<?xml version="1.0" encoding="UTF-8"?>
<kml xmlns="http://www.opengis.net/kml/2.2" xmlns:gx="http://www.google.com/kml/ext/2.2" xmlns:kml="http://www.opengis.net/kml/2.2" xmlns:atom="http://www.w3.org/2005/Atom">
<Folder>
	<GroundOverlay>
		<name>3M~t b~ng ~~n hi~u_modified_20_553914_827196</name>
		<drawOrder>20</drawOrder>
		<Icon>
			<href>files/3M~t b~ng ~~n hi~u_modified_20_553914_827196.png</href>
		</Icon>
		<LatLonBox>
			<north>10.17162322998047</north>
			<south>10.17127990722656</south>
			<east>103.9955520629883</east>
			<west>103.9952087402344</west>
		</LatLonBox>
	</GroundOverlay>
</Folder>
</kml>
