<?xml version="1.0" encoding="UTF-8"?>
<kml xmlns="http://www.opengis.net/kml/2.2" xmlns:gx="http://www.google.com/kml/ext/2.2" xmlns:kml="http://www.opengis.net/kml/2.2" xmlns:atom="http://www.w3.org/2005/Atom">
<Folder>
	<NetworkLink>
		<name>3M~t b~ng ~~n hi~u_modified_16_34620_51700</name>
		<Region>
			<LatLonAltBox>
				<north>10.1788330078125</north>
				<south>10.17333984375</south>
				<east>104.0020751953125</east>
				<west>103.99658203125</west>
				<minAltitude>0</minAltitude>
				<maxAltitude>0</maxAltitude>
			</LatLonAltBox>
			<Lod>
				<minLodPixels>128</minLodPixels>
				<maxLodPixels>-1</maxLodPixels>
				<minFadeExtent>0</minFadeExtent>
				<maxFadeExtent>0</maxFadeExtent>
			</Lod>
		</Region>
		<Link>
			<href>3M~t b~ng ~~n hi~u_modified_16_34620_51700.kml</href>
		</Link>
	</NetworkLink>
	<NetworkLink>
		<name>3M~t b~ng ~~n hi~u_modified_16_34620_51701</name>
		<Region>
			<LatLonAltBox>
				<north>10.1788330078125</north>
				<south>10.17333984375</south>
				<east>104.007568359375</east>
				<west>104.0020751953125</west>
				<minAltitude>0</minAltitude>
				<maxAltitude>0</maxAltitude>
			</LatLonAltBox>
			<Lod>
				<minLodPixels>128</minLodPixels>
				<maxLodPixels>-1</maxLodPixels>
				<minFadeExtent>0</minFadeExtent>
				<maxFadeExtent>0</maxFadeExtent>
			</Lod>
		</Region>
		<Link>
			<href>3M~t b~ng ~~n hi~u_modified_16_34620_51701.kml</href>
		</Link>
	</NetworkLink>
	<GroundOverlay>
		<name>3M~t b~ng ~~n hi~u_modified_15_17310_25850</name>
		<drawOrder>15</drawOrder>
		<Icon>
			<href>files/3M~t b~ng ~~n hi~u_modified_15_17310_25850.png</href>
		</Icon>
		<LatLonBox>
			<north>10.184326171875</north>
			<south>10.17333984375</south>
			<east>104.007568359375</east>
			<west>103.99658203125</west>
		</LatLonBox>
	</GroundOverlay>
</Folder>
</kml>
