<?xml version="1.0" encoding="UTF-8"?>
<kml xmlns="http://www.opengis.net/kml/2.2" xmlns:gx="http://www.google.com/kml/ext/2.2" xmlns:kml="http://www.opengis.net/kml/2.2" xmlns:atom="http://www.w3.org/2005/Atom">
<GroundOverlay>
	<name>3M~t b~ng ~~n hi~u_modified_21_1107819_1654425</name>
	<drawOrder>21</drawOrder>
	<Icon>
		<href>files/3M~t b~ng ~~n hi~u_modified_21_1107819_1654425.png</href>
	</Icon>
	<LatLonBox>
		<north>10.16990661621094</north>
		<south>10.16973495483398</south>
		<east>104.0010452270508</east>
		<west>104.0008735656738</west>
	</LatLonBox>
</GroundOverlay>
</kml>
