<?xml version="1.0" encoding="UTF-8"?>
<kml xmlns="http://www.opengis.net/kml/2.2" xmlns:gx="http://www.google.com/kml/ext/2.2" xmlns:kml="http://www.opengis.net/kml/2.2" xmlns:atom="http://www.w3.org/2005/Atom">
<GroundOverlay>
	<name>2M~t b~ng ~~n hi~u_modified_21_1107821_1654379</name>
	<drawOrder>21</drawOrder>
	<Icon>
		<href>files/2M~t b~ng ~~n hi~u_modified_21_1107821_1654379.png</href>
	</Icon>
	<LatLonBox>
		<north>10.17024993896484</north>
		<south>10.17007827758789</south>
		<east>103.9931488037109</east>
		<west>103.992977142334</west>
	</LatLonBox>
</GroundOverlay>
</kml>
