<?xml version="1.0" encoding="UTF-8"?>
<kml xmlns="http://www.opengis.net/kml/2.2" xmlns:gx="http://www.google.com/kml/ext/2.2" xmlns:kml="http://www.opengis.net/kml/2.2" xmlns:atom="http://www.w3.org/2005/Atom">
<Folder>
	<GroundOverlay>
		<name>2M~t b~ng ~~n hi~u_modified_20_553924_827192</name>
		<drawOrder>20</drawOrder>
		<Icon>
			<href>files/2M~t b~ng ~~n hi~u_modified_20_553924_827192.png</href>
		</Icon>
		<LatLonBox>
			<north>10.17505645751953</north>
			<south>10.17471313476563</south>
			<east>103.9941787719727</east>
			<west>103.9938354492188</west>
		</LatLonBox>
	</GroundOverlay>
</Folder>
</kml>
