<?xml version="1.0" encoding="UTF-8"?>
<kml xmlns="http://www.opengis.net/kml/2.2" xmlns:gx="http://www.google.com/kml/ext/2.2" xmlns:kml="http://www.opengis.net/kml/2.2" xmlns:atom="http://www.w3.org/2005/Atom">
<Folder>
	<NetworkLink>
		<name>2M~t b~ng ~~n hi~u_modified_20_553916_827186</name>
		<Region>
			<LatLonAltBox>
				<north>10.17230987548828</north>
				<south>10.17196655273438</south>
				<east>103.9921188354492</east>
				<west>103.9917755126953</west>
				<minAltitude>0</minAltitude>
				<maxAltitude>0</maxAltitude>
			</LatLonAltBox>
			<Lod>
				<minLodPixels>128</minLodPixels>
				<maxLodPixels>-1</maxLodPixels>
				<minFadeExtent>0</minFadeExtent>
				<maxFadeExtent>0</maxFadeExtent>
			</Lod>
		</Region>
		<Link>
			<href>2M~t b~ng ~~n hi~u_modified_20_553916_827186.kml</href>
		</Link>
	</NetworkLink>
	<NetworkLink>
		<name>2M~t b~ng ~~n hi~u_modified_20_553916_827187</name>
		<Region>
			<LatLonAltBox>
				<north>10.17230987548828</north>
				<south>10.17196655273438</south>
				<east>103.9924621582031</east>
				<west>103.9921188354492</west>
				<minAltitude>0</minAltitude>
				<maxAltitude>0</maxAltitude>
			</LatLonAltBox>
			<Lod>
				<minLodPixels>128</minLodPixels>
				<maxLodPixels>-1</maxLodPixels>
				<minFadeExtent>0</minFadeExtent>
				<maxFadeExtent>0</maxFadeExtent>
			</Lod>
		</Region>
		<Link>
			<href>2M~t b~ng ~~n hi~u_modified_20_553916_827187.kml</href>
		</Link>
	</NetworkLink>
	<NetworkLink>
		<name>2M~t b~ng ~~n hi~u_modified_20_553917_827186</name>
		<Region>
			<LatLonAltBox>
				<north>10.17265319824219</north>
				<south>10.17230987548828</south>
				<east>103.9921188354492</east>
				<west>103.9917755126953</west>
				<minAltitude>0</minAltitude>
				<maxAltitude>0</maxAltitude>
			</LatLonAltBox>
			<Lod>
				<minLodPixels>128</minLodPixels>
				<maxLodPixels>-1</maxLodPixels>
				<minFadeExtent>0</minFadeExtent>
				<maxFadeExtent>0</maxFadeExtent>
			</Lod>
		</Region>
		<Link>
			<href>2M~t b~ng ~~n hi~u_modified_20_553917_827186.kml</href>
		</Link>
	</NetworkLink>
	<NetworkLink>
		<name>2M~t b~ng ~~n hi~u_modified_20_553917_827187</name>
		<Region>
			<LatLonAltBox>
				<north>10.17265319824219</north>
				<south>10.17230987548828</south>
				<east>103.9924621582031</east>
				<west>103.9921188354492</west>
				<minAltitude>0</minAltitude>
				<maxAltitude>0</maxAltitude>
			</LatLonAltBox>
			<Lod>
				<minLodPixels>128</minLodPixels>
				<maxLodPixels>-1</maxLodPixels>
				<minFadeExtent>0</minFadeExtent>
				<maxFadeExtent>0</maxFadeExtent>
			</Lod>
		</Region>
		<Link>
			<href>2M~t b~ng ~~n hi~u_modified_20_553917_827187.kml</href>
		</Link>
	</NetworkLink>
	<GroundOverlay>
		<name>2M~t b~ng ~~n hi~u_modified_19_276958_413593</name>
		<drawOrder>19</drawOrder>
		<Icon>
			<href>files/2M~t b~ng ~~n hi~u_modified_19_276958_413593.png</href>
		</Icon>
		<LatLonBox>
			<north>10.17265319824219</north>
			<south>10.17196655273438</south>
			<east>103.9924621582031</east>
			<west>103.9917755126953</west>
		</LatLonBox>
	</GroundOverlay>
</Folder>
</kml>
