<?xml version="1.0" encoding="UTF-8"?>
<kml xmlns="http://www.opengis.net/kml/2.2" xmlns:gx="http://www.google.com/kml/ext/2.2" xmlns:kml="http://www.opengis.net/kml/2.2" xmlns:atom="http://www.w3.org/2005/Atom">
<GroundOverlay>
	<name>2M~t b~ng ~~n hi~u_modified_21_1107822_1654368</name>
	<drawOrder>21</drawOrder>
	<Icon>
		<href>files/2M~t b~ng ~~n hi~u_modified_21_1107822_1654368.png</href>
	</Icon>
	<LatLonBox>
		<north>10.1704216003418</north>
		<south>10.17024993896484</south>
		<east>103.9912605285645</east>
		<west>103.9910888671875</west>
	</LatLonBox>
</GroundOverlay>
</kml>
