<?xml version="1.0" encoding="UTF-8"?>
<kml xmlns="http://www.opengis.net/kml/2.2" xmlns:gx="http://www.google.com/kml/ext/2.2" xmlns:kml="http://www.opengis.net/kml/2.2" xmlns:atom="http://www.w3.org/2005/Atom">
<GroundOverlay>
	<name>2M~t b~ng ~~n hi~u_modified_21_1107824_1654355</name>
	<drawOrder>21</drawOrder>
	<Icon>
		<href>files/2M~t b~ng ~~n hi~u_modified_21_1107824_1654355.png</href>
	</Icon>
	<LatLonBox>
		<north>10.1707649230957</north>
		<south>10.17059326171875</south>
		<east>103.9890289306641</east>
		<west>103.9888572692871</west>
	</LatLonBox>
</GroundOverlay>
</kml>
