<?xml version="1.0" encoding="UTF-8"?>
<kml xmlns="http://www.opengis.net/kml/2.2" xmlns:gx="http://www.google.com/kml/ext/2.2" xmlns:kml="http://www.opengis.net/kml/2.2" xmlns:atom="http://www.w3.org/2005/Atom">
<GroundOverlay>
	<name>2M~t b~ng ~~n hi~u_modified_21_1107849_1654342</name>
	<drawOrder>21</drawOrder>
	<Icon>
		<href>files/2M~t b~ng ~~n hi~u_modified_21_1107849_1654342.png</href>
	</Icon>
	<LatLonBox>
		<north>10.17505645751953</north>
		<south>10.17488479614258</south>
		<east>103.9867973327637</east>
		<west>103.9866256713867</west>
	</LatLonBox>
</GroundOverlay>
</kml>
