<?xml version="1.0" encoding="UTF-8"?>
<kml xmlns="http://www.opengis.net/kml/2.2" xmlns:gx="http://www.google.com/kml/ext/2.2" xmlns:kml="http://www.opengis.net/kml/2.2" xmlns:atom="http://www.w3.org/2005/Atom">
<Folder>
	<NetworkLink>
		<name>2M~t b~ng ~~n hi~u_modified_19_276960_413583</name>
		<Region>
			<LatLonAltBox>
				<north>10.17402648925781</north>
				<south>10.17333984375</south>
				<east>103.985595703125</east>
				<west>103.9849090576172</west>
				<minAltitude>0</minAltitude>
				<maxAltitude>0</maxAltitude>
			</LatLonAltBox>
			<Lod>
				<minLodPixels>128</minLodPixels>
				<maxLodPixels>-1</maxLodPixels>
				<minFadeExtent>0</minFadeExtent>
				<maxFadeExtent>0</maxFadeExtent>
			</Lod>
		</Region>
		<Link>
			<href>2M~t b~ng ~~n hi~u_modified_19_276960_413583.kml</href>
		</Link>
	</NetworkLink>
	<NetworkLink>
		<name>2M~t b~ng ~~n hi~u_modified_19_276961_413583</name>
		<Region>
			<LatLonAltBox>
				<north>10.17471313476563</north>
				<south>10.17402648925781</south>
				<east>103.985595703125</east>
				<west>103.9849090576172</west>
				<minAltitude>0</minAltitude>
				<maxAltitude>0</maxAltitude>
			</LatLonAltBox>
			<Lod>
				<minLodPixels>128</minLodPixels>
				<maxLodPixels>-1</maxLodPixels>
				<minFadeExtent>0</minFadeExtent>
				<maxFadeExtent>0</maxFadeExtent>
			</Lod>
		</Region>
		<Link>
			<href>2M~t b~ng ~~n hi~u_modified_19_276961_413583.kml</href>
		</Link>
	</NetworkLink>
	<GroundOverlay>
		<name>2M~t b~ng ~~n hi~u_modified_18_138480_206791</name>
		<drawOrder>18</drawOrder>
		<Icon>
			<href>files/2M~t b~ng ~~n hi~u_modified_18_138480_206791.png</href>
		</Icon>
		<LatLonBox>
			<north>10.17471313476563</north>
			<south>10.17333984375</south>
			<east>103.985595703125</east>
			<west>103.9842224121094</west>
		</LatLonBox>
	</GroundOverlay>
</Folder>
</kml>
