<?xml version="1.0" encoding="UTF-8"?>
<kml xmlns="http://www.opengis.net/kml/2.2" xmlns:gx="http://www.google.com/kml/ext/2.2" xmlns:kml="http://www.opengis.net/kml/2.2" xmlns:atom="http://www.w3.org/2005/Atom">
<Folder>
	<GroundOverlay>
		<name>2M~t b~ng ~~n hi~u_modified_20_553921_827188</name>
		<drawOrder>20</drawOrder>
		<Icon>
			<href>files/2M~t b~ng ~~n hi~u_modified_20_553921_827188.png</href>
		</Icon>
		<LatLonBox>
			<north>10.17402648925781</north>
			<south>10.17368316650391</south>
			<east>103.992805480957</east>
			<west>103.9924621582031</west>
		</LatLonBox>
	</GroundOverlay>
</Folder>
</kml>
