<?xml version="1.0" encoding="UTF-8"?>
<kml xmlns="http://www.opengis.net/kml/2.2" xmlns:gx="http://www.google.com/kml/ext/2.2" xmlns:kml="http://www.opengis.net/kml/2.2" xmlns:atom="http://www.w3.org/2005/Atom">
<Folder>
	<GroundOverlay>
		<name>2M~t b~ng ~~n hi~u_modified_20_553916_827181</name>
		<drawOrder>20</drawOrder>
		<Icon>
			<href>files/2M~t b~ng ~~n hi~u_modified_20_553916_827181.png</href>
		</Icon>
		<LatLonBox>
			<north>10.17230987548828</north>
			<south>10.17196655273438</south>
			<east>103.9904022216797</east>
			<west>103.9900588989258</west>
		</LatLonBox>
	</GroundOverlay>
</Folder>
</kml>
