<?xml version="1.0" encoding="UTF-8"?>
<kml xmlns="http://www.opengis.net/kml/2.2" xmlns:gx="http://www.google.com/kml/ext/2.2" xmlns:kml="http://www.opengis.net/kml/2.2" xmlns:atom="http://www.w3.org/2005/Atom">
<Folder>
	<NetworkLink>
		<name>2M~t b~ng ~~n hi~u_modified_19_276962_413592</name>
		<Region>
			<LatLonAltBox>
				<north>10.17539978027344</north>
				<south>10.17471313476563</south>
				<east>103.9917755126953</east>
				<west>103.9910888671875</west>
				<minAltitude>0</minAltitude>
				<maxAltitude>0</maxAltitude>
			</LatLonAltBox>
			<Lod>
				<minLodPixels>128</minLodPixels>
				<maxLodPixels>-1</maxLodPixels>
				<minFadeExtent>0</minFadeExtent>
				<maxFadeExtent>0</maxFadeExtent>
			</Lod>
		</Region>
		<Link>
			<href>2M~t b~ng ~~n hi~u_modified_19_276962_413592.kml</href>
		</Link>
	</NetworkLink>
	<NetworkLink>
		<name>2M~t b~ng ~~n hi~u_modified_19_276962_413593</name>
		<Region>
			<LatLonAltBox>
				<north>10.17539978027344</north>
				<south>10.17471313476563</south>
				<east>103.9924621582031</east>
				<west>103.9917755126953</west>
				<minAltitude>0</minAltitude>
				<maxAltitude>0</maxAltitude>
			</LatLonAltBox>
			<Lod>
				<minLodPixels>128</minLodPixels>
				<maxLodPixels>-1</maxLodPixels>
				<minFadeExtent>0</minFadeExtent>
				<maxFadeExtent>0</maxFadeExtent>
			</Lod>
		</Region>
		<Link>
			<href>2M~t b~ng ~~n hi~u_modified_19_276962_413593.kml</href>
		</Link>
	</NetworkLink>
	<GroundOverlay>
		<name>2M~t b~ng ~~n hi~u_modified_18_138481_206796</name>
		<drawOrder>18</drawOrder>
		<Icon>
			<href>files/2M~t b~ng ~~n hi~u_modified_18_138481_206796.png</href>
		</Icon>
		<LatLonBox>
			<north>10.17608642578125</north>
			<south>10.17471313476563</south>
			<east>103.9924621582031</east>
			<west>103.9910888671875</west>
		</LatLonBox>
	</GroundOverlay>
</Folder>
</kml>
