<?xml version="1.0" encoding="UTF-8"?>
<kml xmlns="http://www.opengis.net/kml/2.2" xmlns:gx="http://www.google.com/kml/ext/2.2" xmlns:kml="http://www.opengis.net/kml/2.2" xmlns:atom="http://www.w3.org/2005/Atom">
<GroundOverlay>
	<name>2M~t b~ng ~~n hi~u_modified_21_1107832_1654346</name>
	<drawOrder>21</drawOrder>
	<Icon>
		<href>files/2M~t b~ng ~~n hi~u_modified_21_1107832_1654346.png</href>
	</Icon>
	<LatLonBox>
		<north>10.17213821411133</north>
		<south>10.17196655273438</south>
		<east>103.9874839782715</east>
		<west>103.9873123168945</west>
	</LatLonBox>
</GroundOverlay>
</kml>
