<?xml version="1.0" encoding="UTF-8"?>
<kml xmlns="http://www.opengis.net/kml/2.2" xmlns:gx="http://www.google.com/kml/ext/2.2" xmlns:kml="http://www.opengis.net/kml/2.2" xmlns:atom="http://www.w3.org/2005/Atom">
<Folder>
	<NetworkLink>
		<name>2M~t b~ng ~~n hi~u_modified_21_1107840_1654381</name>
		<Region>
			<LatLonAltBox>
				<north>10.17351150512695</north>
				<south>10.17333984375</south>
				<east>103.9934921264648</east>
				<west>103.9933204650879</west>
				<minAltitude>0</minAltitude>
				<maxAltitude>0</maxAltitude>
			</LatLonAltBox>
			<Lod>
				<minLodPixels>128</minLodPixels>
				<maxLodPixels>-1</maxLodPixels>
				<minFadeExtent>0</minFadeExtent>
				<maxFadeExtent>0</maxFadeExtent>
			</Lod>
		</Region>
		<Link>
			<href>2M~t b~ng ~~n hi~u_modified_21_1107840_1654381.kml</href>
		</Link>
	</NetworkLink>
	<NetworkLink>
		<name>2M~t b~ng ~~n hi~u_modified_21_1107841_1654380</name>
		<Region>
			<LatLonAltBox>
				<north>10.17368316650391</north>
				<south>10.17351150512695</south>
				<east>103.9933204650879</east>
				<west>103.9931488037109</west>
				<minAltitude>0</minAltitude>
				<maxAltitude>0</maxAltitude>
			</LatLonAltBox>
			<Lod>
				<minLodPixels>128</minLodPixels>
				<maxLodPixels>-1</maxLodPixels>
				<minFadeExtent>0</minFadeExtent>
				<maxFadeExtent>0</maxFadeExtent>
			</Lod>
		</Region>
		<Link>
			<href>2M~t b~ng ~~n hi~u_modified_21_1107841_1654380.kml</href>
		</Link>
	</NetworkLink>
	<NetworkLink>
		<name>2M~t b~ng ~~n hi~u_modified_21_1107841_1654381</name>
		<Region>
			<LatLonAltBox>
				<north>10.17368316650391</north>
				<south>10.17351150512695</south>
				<east>103.9934921264648</east>
				<west>103.9933204650879</west>
				<minAltitude>0</minAltitude>
				<maxAltitude>0</maxAltitude>
			</LatLonAltBox>
			<Lod>
				<minLodPixels>128</minLodPixels>
				<maxLodPixels>-1</maxLodPixels>
				<minFadeExtent>0</minFadeExtent>
				<maxFadeExtent>0</maxFadeExtent>
			</Lod>
		</Region>
		<Link>
			<href>2M~t b~ng ~~n hi~u_modified_21_1107841_1654381.kml</href>
		</Link>
	</NetworkLink>
	<GroundOverlay>
		<name>2M~t b~ng ~~n hi~u_modified_20_553920_827190</name>
		<drawOrder>20</drawOrder>
		<Icon>
			<href>files/2M~t b~ng ~~n hi~u_modified_20_553920_827190.png</href>
		</Icon>
		<LatLonBox>
			<north>10.17368316650391</north>
			<south>10.17333984375</south>
			<east>103.9934921264648</east>
			<west>103.9931488037109</west>
		</LatLonBox>
	</GroundOverlay>
</Folder>
</kml>
