<?xml version="1.0" encoding="UTF-8"?>
<kml xmlns="http://www.opengis.net/kml/2.2" xmlns:gx="http://www.google.com/kml/ext/2.2" xmlns:kml="http://www.opengis.net/kml/2.2" xmlns:atom="http://www.w3.org/2005/Atom">
<Folder>
	<NetworkLink>
		<name>2M~t b~ng ~~n hi~u_modified_21_1107830_1654356</name>
		<Region>
			<LatLonAltBox>
				<north>10.17179489135742</north>
				<south>10.17162322998047</south>
				<east>103.989200592041</east>
				<west>103.9890289306641</west>
				<minAltitude>0</minAltitude>
				<maxAltitude>0</maxAltitude>
			</LatLonAltBox>
			<Lod>
				<minLodPixels>128</minLodPixels>
				<maxLodPixels>-1</maxLodPixels>
				<minFadeExtent>0</minFadeExtent>
				<maxFadeExtent>0</maxFadeExtent>
			</Lod>
		</Region>
		<Link>
			<href>2M~t b~ng ~~n hi~u_modified_21_1107830_1654356.kml</href>
		</Link>
	</NetworkLink>
	<NetworkLink>
		<name>2M~t b~ng ~~n hi~u_modified_21_1107830_1654357</name>
		<Region>
			<LatLonAltBox>
				<north>10.17179489135742</north>
				<south>10.17162322998047</south>
				<east>103.989372253418</east>
				<west>103.989200592041</west>
				<minAltitude>0</minAltitude>
				<maxAltitude>0</maxAltitude>
			</LatLonAltBox>
			<Lod>
				<minLodPixels>128</minLodPixels>
				<maxLodPixels>-1</maxLodPixels>
				<minFadeExtent>0</minFadeExtent>
				<maxFadeExtent>0</maxFadeExtent>
			</Lod>
		</Region>
		<Link>
			<href>2M~t b~ng ~~n hi~u_modified_21_1107830_1654357.kml</href>
		</Link>
	</NetworkLink>
	<GroundOverlay>
		<name>2M~t b~ng ~~n hi~u_modified_20_553915_827178</name>
		<drawOrder>20</drawOrder>
		<Icon>
			<href>files/2M~t b~ng ~~n hi~u_modified_20_553915_827178.png</href>
		</Icon>
		<LatLonBox>
			<north>10.17196655273438</north>
			<south>10.17162322998047</south>
			<east>103.989372253418</east>
			<west>103.9890289306641</west>
		</LatLonBox>
	</GroundOverlay>
</Folder>
</kml>
