<?xml version="1.0" encoding="UTF-8"?>
<kml xmlns="http://www.opengis.net/kml/2.2" xmlns:gx="http://www.google.com/kml/ext/2.2" xmlns:kml="http://www.opengis.net/kml/2.2" xmlns:atom="http://www.w3.org/2005/Atom">
<Folder>
	<NetworkLink>
		<name>2M~t b~ng ~~n hi~u_modified_20_553924_827188</name>
		<Region>
			<LatLonAltBox>
				<north>10.17505645751953</north>
				<south>10.17471313476563</south>
				<east>103.992805480957</east>
				<west>103.9924621582031</west>
				<minAltitude>0</minAltitude>
				<maxAltitude>0</maxAltitude>
			</LatLonAltBox>
			<Lod>
				<minLodPixels>128</minLodPixels>
				<maxLodPixels>-1</maxLodPixels>
				<minFadeExtent>0</minFadeExtent>
				<maxFadeExtent>0</maxFadeExtent>
			</Lod>
		</Region>
		<Link>
			<href>2M~t b~ng ~~n hi~u_modified_20_553924_827188.kml</href>
		</Link>
	</NetworkLink>
	<NetworkLink>
		<name>2M~t b~ng ~~n hi~u_modified_20_553924_827189</name>
		<Region>
			<LatLonAltBox>
				<north>10.17505645751953</north>
				<south>10.17471313476563</south>
				<east>103.9931488037109</east>
				<west>103.992805480957</west>
				<minAltitude>0</minAltitude>
				<maxAltitude>0</maxAltitude>
			</LatLonAltBox>
			<Lod>
				<minLodPixels>128</minLodPixels>
				<maxLodPixels>-1</maxLodPixels>
				<minFadeExtent>0</minFadeExtent>
				<maxFadeExtent>0</maxFadeExtent>
			</Lod>
		</Region>
		<Link>
			<href>2M~t b~ng ~~n hi~u_modified_20_553924_827189.kml</href>
		</Link>
	</NetworkLink>
	<NetworkLink>
		<name>2M~t b~ng ~~n hi~u_modified_20_553925_827188</name>
		<Region>
			<LatLonAltBox>
				<north>10.17539978027344</north>
				<south>10.17505645751953</south>
				<east>103.992805480957</east>
				<west>103.9924621582031</west>
				<minAltitude>0</minAltitude>
				<maxAltitude>0</maxAltitude>
			</LatLonAltBox>
			<Lod>
				<minLodPixels>128</minLodPixels>
				<maxLodPixels>-1</maxLodPixels>
				<minFadeExtent>0</minFadeExtent>
				<maxFadeExtent>0</maxFadeExtent>
			</Lod>
		</Region>
		<Link>
			<href>2M~t b~ng ~~n hi~u_modified_20_553925_827188.kml</href>
		</Link>
	</NetworkLink>
	<NetworkLink>
		<name>2M~t b~ng ~~n hi~u_modified_20_553925_827189</name>
		<Region>
			<LatLonAltBox>
				<north>10.17539978027344</north>
				<south>10.17505645751953</south>
				<east>103.9931488037109</east>
				<west>103.992805480957</west>
				<minAltitude>0</minAltitude>
				<maxAltitude>0</maxAltitude>
			</LatLonAltBox>
			<Lod>
				<minLodPixels>128</minLodPixels>
				<maxLodPixels>-1</maxLodPixels>
				<minFadeExtent>0</minFadeExtent>
				<maxFadeExtent>0</maxFadeExtent>
			</Lod>
		</Region>
		<Link>
			<href>2M~t b~ng ~~n hi~u_modified_20_553925_827189.kml</href>
		</Link>
	</NetworkLink>
	<GroundOverlay>
		<name>2M~t b~ng ~~n hi~u_modified_19_276962_413594</name>
		<drawOrder>19</drawOrder>
		<Icon>
			<href>files/2M~t b~ng ~~n hi~u_modified_19_276962_413594.png</href>
		</Icon>
		<LatLonBox>
			<north>10.17539978027344</north>
			<south>10.17471313476563</south>
			<east>103.9931488037109</east>
			<west>103.9924621582031</west>
		</LatLonBox>
	</GroundOverlay>
</Folder>
</kml>
