<?xml version="1.0" encoding="UTF-8"?>
<kml xmlns="http://www.opengis.net/kml/2.2" xmlns:gx="http://www.google.com/kml/ext/2.2" xmlns:kml="http://www.opengis.net/kml/2.2" xmlns:atom="http://www.w3.org/2005/Atom">
<Folder>
	<NetworkLink>
		<name>6M~t b~ng ~~n hi~u_modified_20_553905_827178</name>
		<Region>
			<LatLonAltBox>
				<north>10.16853332519531</north>
				<south>10.16819000244141</south>
				<east>103.989372253418</east>
				<west>103.9890289306641</west>
				<minAltitude>0</minAltitude>
				<maxAltitude>0</maxAltitude>
			</LatLonAltBox>
			<Lod>
				<minLodPixels>128</minLodPixels>
				<maxLodPixels>-1</maxLodPixels>
				<minFadeExtent>0</minFadeExtent>
				<maxFadeExtent>0</maxFadeExtent>
			</Lod>
		</Region>
		<Link>
			<href>6M~t b~ng ~~n hi~u_modified_20_553905_827178.kml</href>
		</Link>
	</NetworkLink>
	<NetworkLink>
		<name>6M~t b~ng ~~n hi~u_modified_20_553905_827179</name>
		<Region>
			<LatLonAltBox>
				<north>10.16853332519531</north>
				<south>10.16819000244141</south>
				<east>103.9897155761719</east>
				<west>103.989372253418</west>
				<minAltitude>0</minAltitude>
				<maxAltitude>0</maxAltitude>
			</LatLonAltBox>
			<Lod>
				<minLodPixels>128</minLodPixels>
				<maxLodPixels>-1</maxLodPixels>
				<minFadeExtent>0</minFadeExtent>
				<maxFadeExtent>0</maxFadeExtent>
			</Lod>
		</Region>
		<Link>
			<href>6M~t b~ng ~~n hi~u_modified_20_553905_827179.kml</href>
		</Link>
	</NetworkLink>
	<GroundOverlay>
		<name>6M~t b~ng ~~n hi~u_modified_19_276952_413589</name>
		<drawOrder>19</drawOrder>
		<Icon>
			<href>files/6M~t b~ng ~~n hi~u_modified_19_276952_413589.png</href>
		</Icon>
		<LatLonBox>
			<north>10.16853332519531</north>
			<south>10.1678466796875</south>
			<east>103.9897155761719</east>
			<west>103.9890289306641</west>
		</LatLonBox>
	</GroundOverlay>
</Folder>
</kml>
