<?xml version="1.0" encoding="UTF-8"?>
<kml xmlns="http://www.opengis.net/kml/2.2" xmlns:gx="http://www.google.com/kml/ext/2.2" xmlns:kml="http://www.opengis.net/kml/2.2" xmlns:atom="http://www.w3.org/2005/Atom">
<Folder>
	<NetworkLink>
		<name>6M~t b~ng ~~n hi~u_modified_19_276952_413594</name>
		<Region>
			<LatLonAltBox>
				<north>10.16853332519531</north>
				<south>10.1678466796875</south>
				<east>103.9931488037109</east>
				<west>103.9924621582031</west>
				<minAltitude>0</minAltitude>
				<maxAltitude>0</maxAltitude>
			</LatLonAltBox>
			<Lod>
				<minLodPixels>128</minLodPixels>
				<maxLodPixels>-1</maxLodPixels>
				<minFadeExtent>0</minFadeExtent>
				<maxFadeExtent>0</maxFadeExtent>
			</Lod>
		</Region>
		<Link>
			<href>6M~t b~ng ~~n hi~u_modified_19_276952_413594.kml</href>
		</Link>
	</NetworkLink>
	<NetworkLink>
		<name>6M~t b~ng ~~n hi~u_modified_19_276952_413595</name>
		<Region>
			<LatLonAltBox>
				<north>10.16853332519531</north>
				<south>10.1678466796875</south>
				<east>103.9938354492188</east>
				<west>103.9931488037109</west>
				<minAltitude>0</minAltitude>
				<maxAltitude>0</maxAltitude>
			</LatLonAltBox>
			<Lod>
				<minLodPixels>128</minLodPixels>
				<maxLodPixels>-1</maxLodPixels>
				<minFadeExtent>0</minFadeExtent>
				<maxFadeExtent>0</maxFadeExtent>
			</Lod>
		</Region>
		<Link>
			<href>6M~t b~ng ~~n hi~u_modified_19_276952_413595.kml</href>
		</Link>
	</NetworkLink>
	<NetworkLink>
		<name>6M~t b~ng ~~n hi~u_modified_19_276953_413594</name>
		<Region>
			<LatLonAltBox>
				<north>10.16921997070313</north>
				<south>10.16853332519531</south>
				<east>103.9931488037109</east>
				<west>103.9924621582031</west>
				<minAltitude>0</minAltitude>
				<maxAltitude>0</maxAltitude>
			</LatLonAltBox>
			<Lod>
				<minLodPixels>128</minLodPixels>
				<maxLodPixels>-1</maxLodPixels>
				<minFadeExtent>0</minFadeExtent>
				<maxFadeExtent>0</maxFadeExtent>
			</Lod>
		</Region>
		<Link>
			<href>6M~t b~ng ~~n hi~u_modified_19_276953_413594.kml</href>
		</Link>
	</NetworkLink>
	<NetworkLink>
		<name>6M~t b~ng ~~n hi~u_modified_19_276953_413595</name>
		<Region>
			<LatLonAltBox>
				<north>10.16921997070313</north>
				<south>10.16853332519531</south>
				<east>103.9938354492188</east>
				<west>103.9931488037109</west>
				<minAltitude>0</minAltitude>
				<maxAltitude>0</maxAltitude>
			</LatLonAltBox>
			<Lod>
				<minLodPixels>128</minLodPixels>
				<maxLodPixels>-1</maxLodPixels>
				<minFadeExtent>0</minFadeExtent>
				<maxFadeExtent>0</maxFadeExtent>
			</Lod>
		</Region>
		<Link>
			<href>6M~t b~ng ~~n hi~u_modified_19_276953_413595.kml</href>
		</Link>
	</NetworkLink>
	<GroundOverlay>
		<name>6M~t b~ng ~~n hi~u_modified_18_138476_206797</name>
		<drawOrder>18</drawOrder>
		<Icon>
			<href>files/6M~t b~ng ~~n hi~u_modified_18_138476_206797.png</href>
		</Icon>
		<LatLonBox>
			<north>10.16921997070313</north>
			<south>10.1678466796875</south>
			<east>103.9938354492188</east>
			<west>103.9924621582031</west>
		</LatLonBox>
	</GroundOverlay>
</Folder>
</kml>
