<?xml version="1.0" encoding="UTF-8"?>
<kml xmlns="http://www.opengis.net/kml/2.2" xmlns:gx="http://www.google.com/kml/ext/2.2" xmlns:kml="http://www.opengis.net/kml/2.2" xmlns:atom="http://www.w3.org/2005/Atom">
<Folder>
	<NetworkLink>
		<name>6M~t b~ng ~~n hi~u_modified_19_276950_413578</name>
		<Region>
			<LatLonAltBox>
				<north>10.16716003417969</north>
				<south>10.16647338867188</south>
				<east>103.9821624755859</east>
				<west>103.9814758300781</west>
				<minAltitude>0</minAltitude>
				<maxAltitude>0</maxAltitude>
			</LatLonAltBox>
			<Lod>
				<minLodPixels>128</minLodPixels>
				<maxLodPixels>-1</maxLodPixels>
				<minFadeExtent>0</minFadeExtent>
				<maxFadeExtent>0</maxFadeExtent>
			</Lod>
		</Region>
		<Link>
			<href>6M~t b~ng ~~n hi~u_modified_19_276950_413578.kml</href>
		</Link>
	</NetworkLink>
	<NetworkLink>
		<name>6M~t b~ng ~~n hi~u_modified_19_276950_413579</name>
		<Region>
			<LatLonAltBox>
				<north>10.16716003417969</north>
				<south>10.16647338867188</south>
				<east>103.9828491210938</east>
				<west>103.9821624755859</west>
				<minAltitude>0</minAltitude>
				<maxAltitude>0</maxAltitude>
			</LatLonAltBox>
			<Lod>
				<minLodPixels>128</minLodPixels>
				<maxLodPixels>-1</maxLodPixels>
				<minFadeExtent>0</minFadeExtent>
				<maxFadeExtent>0</maxFadeExtent>
			</Lod>
		</Region>
		<Link>
			<href>6M~t b~ng ~~n hi~u_modified_19_276950_413579.kml</href>
		</Link>
	</NetworkLink>
	<NetworkLink>
		<name>6M~t b~ng ~~n hi~u_modified_19_276951_413578</name>
		<Region>
			<LatLonAltBox>
				<north>10.1678466796875</north>
				<south>10.16716003417969</south>
				<east>103.9821624755859</east>
				<west>103.9814758300781</west>
				<minAltitude>0</minAltitude>
				<maxAltitude>0</maxAltitude>
			</LatLonAltBox>
			<Lod>
				<minLodPixels>128</minLodPixels>
				<maxLodPixels>-1</maxLodPixels>
				<minFadeExtent>0</minFadeExtent>
				<maxFadeExtent>0</maxFadeExtent>
			</Lod>
		</Region>
		<Link>
			<href>6M~t b~ng ~~n hi~u_modified_19_276951_413578.kml</href>
		</Link>
	</NetworkLink>
	<NetworkLink>
		<name>6M~t b~ng ~~n hi~u_modified_19_276951_413579</name>
		<Region>
			<LatLonAltBox>
				<north>10.1678466796875</north>
				<south>10.16716003417969</south>
				<east>103.9828491210938</east>
				<west>103.9821624755859</west>
				<minAltitude>0</minAltitude>
				<maxAltitude>0</maxAltitude>
			</LatLonAltBox>
			<Lod>
				<minLodPixels>128</minLodPixels>
				<maxLodPixels>-1</maxLodPixels>
				<minFadeExtent>0</minFadeExtent>
				<maxFadeExtent>0</maxFadeExtent>
			</Lod>
		</Region>
		<Link>
			<href>6M~t b~ng ~~n hi~u_modified_19_276951_413579.kml</href>
		</Link>
	</NetworkLink>
	<GroundOverlay>
		<name>6M~t b~ng ~~n hi~u_modified_18_138475_206789</name>
		<drawOrder>18</drawOrder>
		<Icon>
			<href>files/6M~t b~ng ~~n hi~u_modified_18_138475_206789.png</href>
		</Icon>
		<LatLonBox>
			<north>10.1678466796875</north>
			<south>10.16647338867188</south>
			<east>103.9828491210938</east>
			<west>103.9814758300781</west>
		</LatLonBox>
	</GroundOverlay>
</Folder>
</kml>
