<?xml version="1.0" encoding="UTF-8"?>
<kml xmlns="http://www.opengis.net/kml/2.2" xmlns:gx="http://www.google.com/kml/ext/2.2" xmlns:kml="http://www.opengis.net/kml/2.2" xmlns:atom="http://www.w3.org/2005/Atom">
<Folder>
	<GroundOverlay>
		<name>6M~t b~ng ~~n hi~u_modified_19_276953_413600</name>
		<drawOrder>19</drawOrder>
		<Icon>
			<href>files/6M~t b~ng ~~n hi~u_modified_19_276953_413600.png</href>
		</Icon>
		<LatLonBox>
			<north>10.16921997070313</north>
			<south>10.16853332519531</south>
			<east>103.9972686767578</east>
			<west>103.99658203125</west>
		</LatLonBox>
	</GroundOverlay>
</Folder>
</kml>
