<?xml version="1.0" encoding="UTF-8"?>
<kml xmlns="http://www.opengis.net/kml/2.2" xmlns:gx="http://www.google.com/kml/ext/2.2" xmlns:kml="http://www.opengis.net/kml/2.2" xmlns:atom="http://www.w3.org/2005/Atom">
<Folder>
	<NetworkLink>
		<name>6M~t b~ng ~~n hi~u_modified_18_138470_206796</name>
		<Region>
			<LatLonAltBox>
				<north>10.16098022460938</north>
				<south>10.15960693359375</south>
				<east>103.9924621582031</east>
				<west>103.9910888671875</west>
				<minAltitude>0</minAltitude>
				<maxAltitude>0</maxAltitude>
			</LatLonAltBox>
			<Lod>
				<minLodPixels>128</minLodPixels>
				<maxLodPixels>-1</maxLodPixels>
				<minFadeExtent>0</minFadeExtent>
				<maxFadeExtent>0</maxFadeExtent>
			</Lod>
		</Region>
		<Link>
			<href>6M~t b~ng ~~n hi~u_modified_18_138470_206796.kml</href>
		</Link>
	</NetworkLink>
	<NetworkLink>
		<name>6M~t b~ng ~~n hi~u_modified_18_138470_206797</name>
		<Region>
			<LatLonAltBox>
				<north>10.16098022460938</north>
				<south>10.15960693359375</south>
				<east>103.9938354492188</east>
				<west>103.9924621582031</west>
				<minAltitude>0</minAltitude>
				<maxAltitude>0</maxAltitude>
			</LatLonAltBox>
			<Lod>
				<minLodPixels>128</minLodPixels>
				<maxLodPixels>-1</maxLodPixels>
				<minFadeExtent>0</minFadeExtent>
				<maxFadeExtent>0</maxFadeExtent>
			</Lod>
		</Region>
		<Link>
			<href>6M~t b~ng ~~n hi~u_modified_18_138470_206797.kml</href>
		</Link>
	</NetworkLink>
	<NetworkLink>
		<name>6M~t b~ng ~~n hi~u_modified_18_138471_206796</name>
		<Region>
			<LatLonAltBox>
				<north>10.162353515625</north>
				<south>10.16098022460938</south>
				<east>103.9924621582031</east>
				<west>103.9910888671875</west>
				<minAltitude>0</minAltitude>
				<maxAltitude>0</maxAltitude>
			</LatLonAltBox>
			<Lod>
				<minLodPixels>128</minLodPixels>
				<maxLodPixels>-1</maxLodPixels>
				<minFadeExtent>0</minFadeExtent>
				<maxFadeExtent>0</maxFadeExtent>
			</Lod>
		</Region>
		<Link>
			<href>6M~t b~ng ~~n hi~u_modified_18_138471_206796.kml</href>
		</Link>
	</NetworkLink>
	<NetworkLink>
		<name>6M~t b~ng ~~n hi~u_modified_18_138471_206797</name>
		<Region>
			<LatLonAltBox>
				<north>10.162353515625</north>
				<south>10.16098022460938</south>
				<east>103.9938354492188</east>
				<west>103.9924621582031</west>
				<minAltitude>0</minAltitude>
				<maxAltitude>0</maxAltitude>
			</LatLonAltBox>
			<Lod>
				<minLodPixels>128</minLodPixels>
				<maxLodPixels>-1</maxLodPixels>
				<minFadeExtent>0</minFadeExtent>
				<maxFadeExtent>0</maxFadeExtent>
			</Lod>
		</Region>
		<Link>
			<href>6M~t b~ng ~~n hi~u_modified_18_138471_206797.kml</href>
		</Link>
	</NetworkLink>
	<GroundOverlay>
		<name>6M~t b~ng ~~n hi~u_modified_17_69235_103398</name>
		<drawOrder>17</drawOrder>
		<Icon>
			<href>files/6M~t b~ng ~~n hi~u_modified_17_69235_103398.png</href>
		</Icon>
		<LatLonBox>
			<north>10.162353515625</north>
			<south>10.15960693359375</south>
			<east>103.9938354492188</east>
			<west>103.9910888671875</west>
		</LatLonBox>
	</GroundOverlay>
</Folder>
</kml>
