<?xml version="1.0" encoding="UTF-8"?>
<kml xmlns="http://www.opengis.net/kml/2.2" xmlns:gx="http://www.google.com/kml/ext/2.2" xmlns:kml="http://www.opengis.net/kml/2.2" xmlns:atom="http://www.w3.org/2005/Atom">
<GroundOverlay>
	<name>6M~t b~ng ~~n hi~u_modified_20_553901_827167</name>
	<drawOrder>20</drawOrder>
	<Icon>
		<href>files/6M~t b~ng ~~n hi~u_modified_20_553901_827167.png</href>
	</Icon>
	<LatLonBox>
		<north>10.16716003417969</north>
		<south>10.16681671142578</south>
		<east>103.985595703125</east>
		<west>103.9852523803711</west>
	</LatLonBox>
</GroundOverlay>
</kml>
