<?xml version="1.0" encoding="UTF-8"?>
<kml xmlns="http://www.opengis.net/kml/2.2" xmlns:gx="http://www.google.com/kml/ext/2.2" xmlns:kml="http://www.opengis.net/kml/2.2" xmlns:atom="http://www.w3.org/2005/Atom">
<Folder>
	<GroundOverlay>
		<name>6M~t b~ng ~~n hi~u_modified_19_276956_413599</name>
		<drawOrder>19</drawOrder>
		<Icon>
			<href>files/6M~t b~ng ~~n hi~u_modified_19_276956_413599.png</href>
		</Icon>
		<LatLonBox>
			<north>10.17127990722656</north>
			<south>10.17059326171875</south>
			<east>103.99658203125</east>
			<west>103.9958953857422</west>
		</LatLonBox>
	</GroundOverlay>
</Folder>
</kml>
