<?xml version="1.0" encoding="UTF-8"?>
<kml xmlns="http://www.opengis.net/kml/2.2" xmlns:gx="http://www.google.com/kml/ext/2.2" xmlns:kml="http://www.opengis.net/kml/2.2" xmlns:atom="http://www.w3.org/2005/Atom">
<Folder>
	<NetworkLink>
		<name>5M~t b~ng ~~n hi~u_modified_20_553908_827154</name>
		<Region>
			<LatLonAltBox>
				<north>10.16956329345703</north>
				<south>10.16921997070313</south>
				<east>103.9811325073242</east>
				<west>103.9807891845703</west>
				<minAltitude>0</minAltitude>
				<maxAltitude>0</maxAltitude>
			</LatLonAltBox>
			<Lod>
				<minLodPixels>128</minLodPixels>
				<maxLodPixels>-1</maxLodPixels>
				<minFadeExtent>0</minFadeExtent>
				<maxFadeExtent>0</maxFadeExtent>
			</Lod>
		</Region>
		<Link>
			<href>5M~t b~ng ~~n hi~u_modified_20_553908_827154.kml</href>
		</Link>
	</NetworkLink>
	<NetworkLink>
		<name>5M~t b~ng ~~n hi~u_modified_20_553908_827155</name>
		<Region>
			<LatLonAltBox>
				<north>10.16956329345703</north>
				<south>10.16921997070313</south>
				<east>103.9814758300781</east>
				<west>103.9811325073242</west>
				<minAltitude>0</minAltitude>
				<maxAltitude>0</maxAltitude>
			</LatLonAltBox>
			<Lod>
				<minLodPixels>128</minLodPixels>
				<maxLodPixels>-1</maxLodPixels>
				<minFadeExtent>0</minFadeExtent>
				<maxFadeExtent>0</maxFadeExtent>
			</Lod>
		</Region>
		<Link>
			<href>5M~t b~ng ~~n hi~u_modified_20_553908_827155.kml</href>
		</Link>
	</NetworkLink>
	<GroundOverlay>
		<name>5M~t b~ng ~~n hi~u_modified_19_276954_413577</name>
		<drawOrder>19</drawOrder>
		<Icon>
			<href>files/5M~t b~ng ~~n hi~u_modified_19_276954_413577.png</href>
		</Icon>
		<LatLonBox>
			<north>10.16990661621094</north>
			<south>10.16921997070313</south>
			<east>103.9814758300781</east>
			<west>103.9807891845703</west>
		</LatLonBox>
	</GroundOverlay>
</Folder>
</kml>
