<?xml version="1.0" encoding="UTF-8"?>
<kml xmlns="http://www.opengis.net/kml/2.2" xmlns:gx="http://www.google.com/kml/ext/2.2" xmlns:kml="http://www.opengis.net/kml/2.2" xmlns:atom="http://www.w3.org/2005/Atom">
<Folder>
	<NetworkLink>
		<name>5M~t b~ng ~~n hi~u_modified_18_138476_206782</name>
		<Region>
			<LatLonAltBox>
				<north>10.16921997070313</north>
				<south>10.1678466796875</south>
				<east>103.9732360839844</east>
				<west>103.9718627929688</west>
				<minAltitude>0</minAltitude>
				<maxAltitude>0</maxAltitude>
			</LatLonAltBox>
			<Lod>
				<minLodPixels>128</minLodPixels>
				<maxLodPixels>-1</maxLodPixels>
				<minFadeExtent>0</minFadeExtent>
				<maxFadeExtent>0</maxFadeExtent>
			</Lod>
		</Region>
		<Link>
			<href>5M~t b~ng ~~n hi~u_modified_18_138476_206782.kml</href>
		</Link>
	</NetworkLink>
	<NetworkLink>
		<name>5M~t b~ng ~~n hi~u_modified_18_138476_206783</name>
		<Region>
			<LatLonAltBox>
				<north>10.16921997070313</north>
				<south>10.1678466796875</south>
				<east>103.974609375</east>
				<west>103.9732360839844</west>
				<minAltitude>0</minAltitude>
				<maxAltitude>0</maxAltitude>
			</LatLonAltBox>
			<Lod>
				<minLodPixels>128</minLodPixels>
				<maxLodPixels>-1</maxLodPixels>
				<minFadeExtent>0</minFadeExtent>
				<maxFadeExtent>0</maxFadeExtent>
			</Lod>
		</Region>
		<Link>
			<href>5M~t b~ng ~~n hi~u_modified_18_138476_206783.kml</href>
		</Link>
	</NetworkLink>
	<NetworkLink>
		<name>5M~t b~ng ~~n hi~u_modified_18_138477_206782</name>
		<Region>
			<LatLonAltBox>
				<north>10.17059326171875</north>
				<south>10.16921997070313</south>
				<east>103.9732360839844</east>
				<west>103.9718627929688</west>
				<minAltitude>0</minAltitude>
				<maxAltitude>0</maxAltitude>
			</LatLonAltBox>
			<Lod>
				<minLodPixels>128</minLodPixels>
				<maxLodPixels>-1</maxLodPixels>
				<minFadeExtent>0</minFadeExtent>
				<maxFadeExtent>0</maxFadeExtent>
			</Lod>
		</Region>
		<Link>
			<href>5M~t b~ng ~~n hi~u_modified_18_138477_206782.kml</href>
		</Link>
	</NetworkLink>
	<NetworkLink>
		<name>5M~t b~ng ~~n hi~u_modified_18_138477_206783</name>
		<Region>
			<LatLonAltBox>
				<north>10.17059326171875</north>
				<south>10.16921997070313</south>
				<east>103.974609375</east>
				<west>103.9732360839844</west>
				<minAltitude>0</minAltitude>
				<maxAltitude>0</maxAltitude>
			</LatLonAltBox>
			<Lod>
				<minLodPixels>128</minLodPixels>
				<maxLodPixels>-1</maxLodPixels>
				<minFadeExtent>0</minFadeExtent>
				<maxFadeExtent>0</maxFadeExtent>
			</Lod>
		</Region>
		<Link>
			<href>5M~t b~ng ~~n hi~u_modified_18_138477_206783.kml</href>
		</Link>
	</NetworkLink>
	<GroundOverlay>
		<name>5M~t b~ng ~~n hi~u_modified_17_69238_103391</name>
		<drawOrder>17</drawOrder>
		<Icon>
			<href>files/5M~t b~ng ~~n hi~u_modified_17_69238_103391.png</href>
		</Icon>
		<LatLonBox>
			<north>10.17059326171875</north>
			<south>10.1678466796875</south>
			<east>103.974609375</east>
			<west>103.9718627929688</west>
		</LatLonBox>
	</GroundOverlay>
</Folder>
</kml>
