<?xml version="1.0" encoding="UTF-8"?>
<kml xmlns="http://www.opengis.net/kml/2.2" xmlns:gx="http://www.google.com/kml/ext/2.2" xmlns:kml="http://www.opengis.net/kml/2.2" xmlns:atom="http://www.w3.org/2005/Atom">
<Folder>
	<NetworkLink>
		<name>5M~t b~ng ~~n hi~u_modified_20_553912_827166</name>
		<Region>
			<LatLonAltBox>
				<north>10.17093658447266</north>
				<south>10.17059326171875</south>
				<east>103.9852523803711</east>
				<west>103.9849090576172</west>
				<minAltitude>0</minAltitude>
				<maxAltitude>0</maxAltitude>
			</LatLonAltBox>
			<Lod>
				<minLodPixels>128</minLodPixels>
				<maxLodPixels>-1</maxLodPixels>
				<minFadeExtent>0</minFadeExtent>
				<maxFadeExtent>0</maxFadeExtent>
			</Lod>
		</Region>
		<Link>
			<href>5M~t b~ng ~~n hi~u_modified_20_553912_827166.kml</href>
		</Link>
	</NetworkLink>
	<NetworkLink>
		<name>5M~t b~ng ~~n hi~u_modified_20_553912_827167</name>
		<Region>
			<LatLonAltBox>
				<north>10.17093658447266</north>
				<south>10.17059326171875</south>
				<east>103.985595703125</east>
				<west>103.9852523803711</west>
				<minAltitude>0</minAltitude>
				<maxAltitude>0</maxAltitude>
			</LatLonAltBox>
			<Lod>
				<minLodPixels>128</minLodPixels>
				<maxLodPixels>-1</maxLodPixels>
				<minFadeExtent>0</minFadeExtent>
				<maxFadeExtent>0</maxFadeExtent>
			</Lod>
		</Region>
		<Link>
			<href>5M~t b~ng ~~n hi~u_modified_20_553912_827167.kml</href>
		</Link>
	</NetworkLink>
	<GroundOverlay>
		<name>5M~t b~ng ~~n hi~u_modified_19_276956_413583</name>
		<drawOrder>19</drawOrder>
		<Icon>
			<href>files/5M~t b~ng ~~n hi~u_modified_19_276956_413583.png</href>
		</Icon>
		<LatLonBox>
			<north>10.17127990722656</north>
			<south>10.17059326171875</south>
			<east>103.985595703125</east>
			<west>103.9849090576172</west>
		</LatLonBox>
	</GroundOverlay>
</Folder>
</kml>
