<?xml version="1.0" encoding="UTF-8"?>
<kml xmlns="http://www.opengis.net/kml/2.2" xmlns:gx="http://www.google.com/kml/ext/2.2" xmlns:kml="http://www.opengis.net/kml/2.2" xmlns:atom="http://www.w3.org/2005/Atom">
<GroundOverlay>
	<name>5M~t b~ng ~~n hi~u_modified_20_553897_827142</name>
	<drawOrder>20</drawOrder>
	<Icon>
		<href>files/5M~t b~ng ~~n hi~u_modified_20_553897_827142.png</href>
	</Icon>
	<LatLonBox>
		<north>10.16578674316406</north>
		<south>10.16544342041016</south>
		<east>103.9770126342773</east>
		<west>103.9766693115234</west>
	</LatLonBox>
</GroundOverlay>
</kml>
