<?xml version="1.0" encoding="UTF-8"?>
<kml xmlns="http://www.opengis.net/kml/2.2" xmlns:gx="http://www.google.com/kml/ext/2.2" xmlns:kml="http://www.opengis.net/kml/2.2" xmlns:atom="http://www.w3.org/2005/Atom">
<GroundOverlay>
	<name>5M~t b~ng ~~n hi~u_modified_20_553908_827149</name>
	<drawOrder>20</drawOrder>
	<Icon>
		<href>files/5M~t b~ng ~~n hi~u_modified_20_553908_827149.png</href>
	</Icon>
	<LatLonBox>
		<north>10.16956329345703</north>
		<south>10.16921997070313</south>
		<east>103.9794158935547</east>
		<west>103.9790725708008</west>
	</LatLonBox>
</GroundOverlay>
</kml>
