<?xml version="1.0" encoding="UTF-8"?>
<kml xmlns="http://www.opengis.net/kml/2.2" xmlns:gx="http://www.google.com/kml/ext/2.2" xmlns:kml="http://www.opengis.net/kml/2.2" xmlns:atom="http://www.w3.org/2005/Atom">
<Folder>
	<NetworkLink>
		<name>5M~t b~ng ~~n hi~u_modified_20_553903_827146</name>
		<Region>
			<LatLonAltBox>
				<north>10.1678466796875</north>
				<south>10.16750335693359</south>
				<east>103.978385925293</east>
				<west>103.9780426025391</west>
				<minAltitude>0</minAltitude>
				<maxAltitude>0</maxAltitude>
			</LatLonAltBox>
			<Lod>
				<minLodPixels>128</minLodPixels>
				<maxLodPixels>-1</maxLodPixels>
				<minFadeExtent>0</minFadeExtent>
				<maxFadeExtent>0</maxFadeExtent>
			</Lod>
		</Region>
		<Link>
			<href>5M~t b~ng ~~n hi~u_modified_20_553903_827146.kml</href>
		</Link>
	</NetworkLink>
	<NetworkLink>
		<name>5M~t b~ng ~~n hi~u_modified_20_553903_827147</name>
		<Region>
			<LatLonAltBox>
				<north>10.1678466796875</north>
				<south>10.16750335693359</south>
				<east>103.9787292480469</east>
				<west>103.978385925293</west>
				<minAltitude>0</minAltitude>
				<maxAltitude>0</maxAltitude>
			</LatLonAltBox>
			<Lod>
				<minLodPixels>128</minLodPixels>
				<maxLodPixels>-1</maxLodPixels>
				<minFadeExtent>0</minFadeExtent>
				<maxFadeExtent>0</maxFadeExtent>
			</Lod>
		</Region>
		<Link>
			<href>5M~t b~ng ~~n hi~u_modified_20_553903_827147.kml</href>
		</Link>
	</NetworkLink>
	<GroundOverlay>
		<name>5M~t b~ng ~~n hi~u_modified_19_276951_413573</name>
		<drawOrder>19</drawOrder>
		<Icon>
			<href>files/5M~t b~ng ~~n hi~u_modified_19_276951_413573.png</href>
		</Icon>
		<LatLonBox>
			<north>10.1678466796875</north>
			<south>10.16716003417969</south>
			<east>103.9787292480469</east>
			<west>103.9780426025391</west>
		</LatLonBox>
	</GroundOverlay>
</Folder>
</kml>
