<?xml version="1.0" encoding="UTF-8"?>
<kml xmlns="http://www.opengis.net/kml/2.2" xmlns:gx="http://www.google.com/kml/ext/2.2" xmlns:kml="http://www.opengis.net/kml/2.2" xmlns:atom="http://www.w3.org/2005/Atom">
<Folder>
	<GroundOverlay>
		<name>5M~t b~ng ~~n hi~u_modified_19_276958_413586</name>
		<drawOrder>19</drawOrder>
		<Icon>
			<href>files/5M~t b~ng ~~n hi~u_modified_19_276958_413586.png</href>
		</Icon>
		<LatLonBox>
			<north>10.17265319824219</north>
			<south>10.17196655273438</south>
			<east>103.9876556396484</east>
			<west>103.9869689941406</west>
		</LatLonBox>
	</GroundOverlay>
</Folder>
</kml>
