<?xml version="1.0" encoding="UTF-8"?>
<kml xmlns="http://www.opengis.net/kml/2.2" xmlns:gx="http://www.google.com/kml/ext/2.2" xmlns:kml="http://www.opengis.net/kml/2.2" xmlns:atom="http://www.w3.org/2005/Atom">
<GroundOverlay>
	<name>5M~t b~ng ~~n hi~u_modified_20_553905_827155</name>
	<drawOrder>20</drawOrder>
	<Icon>
		<href>files/5M~t b~ng ~~n hi~u_modified_20_553905_827155.png</href>
	</Icon>
	<LatLonBox>
		<north>10.16853332519531</north>
		<south>10.16819000244141</south>
		<east>103.9814758300781</east>
		<west>103.9811325073242</west>
	</LatLonBox>
</GroundOverlay>
</kml>
