<?xml version="1.0" encoding="UTF-8"?>
<kml xmlns="http://www.opengis.net/kml/2.2" xmlns:gx="http://www.google.com/kml/ext/2.2" xmlns:kml="http://www.opengis.net/kml/2.2" xmlns:atom="http://www.w3.org/2005/Atom">
<Folder>
	<NetworkLink>
		<name>5M~t b~ng ~~n hi~u_modified_19_276948_413588</name>
		<Region>
			<LatLonAltBox>
				<north>10.16578674316406</north>
				<south>10.16510009765625</south>
				<east>103.9890289306641</east>
				<west>103.9883422851563</west>
				<minAltitude>0</minAltitude>
				<maxAltitude>0</maxAltitude>
			</LatLonAltBox>
			<Lod>
				<minLodPixels>128</minLodPixels>
				<maxLodPixels>-1</maxLodPixels>
				<minFadeExtent>0</minFadeExtent>
				<maxFadeExtent>0</maxFadeExtent>
			</Lod>
		</Region>
		<Link>
			<href>5M~t b~ng ~~n hi~u_modified_19_276948_413588.kml</href>
		</Link>
	</NetworkLink>
	<NetworkLink>
		<name>5M~t b~ng ~~n hi~u_modified_19_276948_413589</name>
		<Region>
			<LatLonAltBox>
				<north>10.16578674316406</north>
				<south>10.16510009765625</south>
				<east>103.9897155761719</east>
				<west>103.9890289306641</west>
				<minAltitude>0</minAltitude>
				<maxAltitude>0</maxAltitude>
			</LatLonAltBox>
			<Lod>
				<minLodPixels>128</minLodPixels>
				<maxLodPixels>-1</maxLodPixels>
				<minFadeExtent>0</minFadeExtent>
				<maxFadeExtent>0</maxFadeExtent>
			</Lod>
		</Region>
		<Link>
			<href>5M~t b~ng ~~n hi~u_modified_19_276948_413589.kml</href>
		</Link>
	</NetworkLink>
	<NetworkLink>
		<name>5M~t b~ng ~~n hi~u_modified_19_276949_413588</name>
		<Region>
			<LatLonAltBox>
				<north>10.16647338867188</north>
				<south>10.16578674316406</south>
				<east>103.9890289306641</east>
				<west>103.9883422851563</west>
				<minAltitude>0</minAltitude>
				<maxAltitude>0</maxAltitude>
			</LatLonAltBox>
			<Lod>
				<minLodPixels>128</minLodPixels>
				<maxLodPixels>-1</maxLodPixels>
				<minFadeExtent>0</minFadeExtent>
				<maxFadeExtent>0</maxFadeExtent>
			</Lod>
		</Region>
		<Link>
			<href>5M~t b~ng ~~n hi~u_modified_19_276949_413588.kml</href>
		</Link>
	</NetworkLink>
	<NetworkLink>
		<name>5M~t b~ng ~~n hi~u_modified_19_276949_413589</name>
		<Region>
			<LatLonAltBox>
				<north>10.16647338867188</north>
				<south>10.16578674316406</south>
				<east>103.9897155761719</east>
				<west>103.9890289306641</west>
				<minAltitude>0</minAltitude>
				<maxAltitude>0</maxAltitude>
			</LatLonAltBox>
			<Lod>
				<minLodPixels>128</minLodPixels>
				<maxLodPixels>-1</maxLodPixels>
				<minFadeExtent>0</minFadeExtent>
				<maxFadeExtent>0</maxFadeExtent>
			</Lod>
		</Region>
		<Link>
			<href>5M~t b~ng ~~n hi~u_modified_19_276949_413589.kml</href>
		</Link>
	</NetworkLink>
	<GroundOverlay>
		<name>5M~t b~ng ~~n hi~u_modified_18_138474_206794</name>
		<drawOrder>18</drawOrder>
		<Icon>
			<href>files/5M~t b~ng ~~n hi~u_modified_18_138474_206794.png</href>
		</Icon>
		<LatLonBox>
			<north>10.16647338867188</north>
			<south>10.16510009765625</south>
			<east>103.9897155761719</east>
			<west>103.9883422851563</west>
		</LatLonBox>
	</GroundOverlay>
</Folder>
</kml>
