<?xml version="1.0" encoding="UTF-8"?>
<kml xmlns="http://www.opengis.net/kml/2.2" xmlns:gx="http://www.google.com/kml/ext/2.2" xmlns:kml="http://www.opengis.net/kml/2.2" xmlns:atom="http://www.w3.org/2005/Atom">
<Folder>
	<NetworkLink>
		<name>5M~t b~ng ~~n hi~u_modified_19_276946_413584</name>
		<Region>
			<LatLonAltBox>
				<north>10.16441345214844</north>
				<south>10.16372680664063</south>
				<east>103.9862823486328</east>
				<west>103.985595703125</west>
				<minAltitude>0</minAltitude>
				<maxAltitude>0</maxAltitude>
			</LatLonAltBox>
			<Lod>
				<minLodPixels>128</minLodPixels>
				<maxLodPixels>-1</maxLodPixels>
				<minFadeExtent>0</minFadeExtent>
				<maxFadeExtent>0</maxFadeExtent>
			</Lod>
		</Region>
		<Link>
			<href>5M~t b~ng ~~n hi~u_modified_19_276946_413584.kml</href>
		</Link>
	</NetworkLink>
	<NetworkLink>
		<name>5M~t b~ng ~~n hi~u_modified_19_276946_413585</name>
		<Region>
			<LatLonAltBox>
				<north>10.16441345214844</north>
				<south>10.16372680664063</south>
				<east>103.9869689941406</east>
				<west>103.9862823486328</west>
				<minAltitude>0</minAltitude>
				<maxAltitude>0</maxAltitude>
			</LatLonAltBox>
			<Lod>
				<minLodPixels>128</minLodPixels>
				<maxLodPixels>-1</maxLodPixels>
				<minFadeExtent>0</minFadeExtent>
				<maxFadeExtent>0</maxFadeExtent>
			</Lod>
		</Region>
		<Link>
			<href>5M~t b~ng ~~n hi~u_modified_19_276946_413585.kml</href>
		</Link>
	</NetworkLink>
	<NetworkLink>
		<name>5M~t b~ng ~~n hi~u_modified_19_276947_413584</name>
		<Region>
			<LatLonAltBox>
				<north>10.16510009765625</north>
				<south>10.16441345214844</south>
				<east>103.9862823486328</east>
				<west>103.985595703125</west>
				<minAltitude>0</minAltitude>
				<maxAltitude>0</maxAltitude>
			</LatLonAltBox>
			<Lod>
				<minLodPixels>128</minLodPixels>
				<maxLodPixels>-1</maxLodPixels>
				<minFadeExtent>0</minFadeExtent>
				<maxFadeExtent>0</maxFadeExtent>
			</Lod>
		</Region>
		<Link>
			<href>5M~t b~ng ~~n hi~u_modified_19_276947_413584.kml</href>
		</Link>
	</NetworkLink>
	<NetworkLink>
		<name>5M~t b~ng ~~n hi~u_modified_19_276947_413585</name>
		<Region>
			<LatLonAltBox>
				<north>10.16510009765625</north>
				<south>10.16441345214844</south>
				<east>103.9869689941406</east>
				<west>103.9862823486328</west>
				<minAltitude>0</minAltitude>
				<maxAltitude>0</maxAltitude>
			</LatLonAltBox>
			<Lod>
				<minLodPixels>128</minLodPixels>
				<maxLodPixels>-1</maxLodPixels>
				<minFadeExtent>0</minFadeExtent>
				<maxFadeExtent>0</maxFadeExtent>
			</Lod>
		</Region>
		<Link>
			<href>5M~t b~ng ~~n hi~u_modified_19_276947_413585.kml</href>
		</Link>
	</NetworkLink>
	<GroundOverlay>
		<name>5M~t b~ng ~~n hi~u_modified_18_138473_206792</name>
		<drawOrder>18</drawOrder>
		<Icon>
			<href>files/5M~t b~ng ~~n hi~u_modified_18_138473_206792.png</href>
		</Icon>
		<LatLonBox>
			<north>10.16510009765625</north>
			<south>10.16372680664063</south>
			<east>103.9869689941406</east>
			<west>103.985595703125</west>
		</LatLonBox>
	</GroundOverlay>
</Folder>
</kml>
