<?xml version="1.0" encoding="UTF-8"?>
<kml xmlns="http://www.opengis.net/kml/2.2" xmlns:gx="http://www.google.com/kml/ext/2.2" xmlns:kml="http://www.opengis.net/kml/2.2" xmlns:atom="http://www.w3.org/2005/Atom">
<GroundOverlay>
	<name>5M~t b~ng ~~n hi~u_modified_20_553913_827148</name>
	<drawOrder>20</drawOrder>
	<Icon>
		<href>files/5M~t b~ng ~~n hi~u_modified_20_553913_827148.png</href>
	</Icon>
	<LatLonBox>
		<north>10.17127990722656</north>
		<south>10.17093658447266</south>
		<east>103.9790725708008</east>
		<west>103.9787292480469</west>
	</LatLonBox>
</GroundOverlay>
</kml>
