<?xml version="1.0" encoding="UTF-8"?>
<kml xmlns="http://www.opengis.net/kml/2.2" xmlns:gx="http://www.google.com/kml/ext/2.2" xmlns:kml="http://www.opengis.net/kml/2.2" xmlns:atom="http://www.w3.org/2005/Atom">
<Folder>
	<NetworkLink>
		<name>5M~t b~ng ~~n hi~u_modified_19_276954_413576</name>
		<Region>
			<LatLonAltBox>
				<north>10.16990661621094</north>
				<south>10.16921997070313</south>
				<east>103.9807891845703</east>
				<west>103.9801025390625</west>
				<minAltitude>0</minAltitude>
				<maxAltitude>0</maxAltitude>
			</LatLonAltBox>
			<Lod>
				<minLodPixels>128</minLodPixels>
				<maxLodPixels>-1</maxLodPixels>
				<minFadeExtent>0</minFadeExtent>
				<maxFadeExtent>0</maxFadeExtent>
			</Lod>
		</Region>
		<Link>
			<href>5M~t b~ng ~~n hi~u_modified_19_276954_413576.kml</href>
		</Link>
	</NetworkLink>
	<NetworkLink>
		<name>5M~t b~ng ~~n hi~u_modified_19_276954_413577</name>
		<Region>
			<LatLonAltBox>
				<north>10.16990661621094</north>
				<south>10.16921997070313</south>
				<east>103.9814758300781</east>
				<west>103.9807891845703</west>
				<minAltitude>0</minAltitude>
				<maxAltitude>0</maxAltitude>
			</LatLonAltBox>
			<Lod>
				<minLodPixels>128</minLodPixels>
				<maxLodPixels>-1</maxLodPixels>
				<minFadeExtent>0</minFadeExtent>
				<maxFadeExtent>0</maxFadeExtent>
			</Lod>
		</Region>
		<Link>
			<href>5M~t b~ng ~~n hi~u_modified_19_276954_413577.kml</href>
		</Link>
	</NetworkLink>
	<NetworkLink>
		<name>5M~t b~ng ~~n hi~u_modified_19_276955_413576</name>
		<Region>
			<LatLonAltBox>
				<north>10.17059326171875</north>
				<south>10.16990661621094</south>
				<east>103.9807891845703</east>
				<west>103.9801025390625</west>
				<minAltitude>0</minAltitude>
				<maxAltitude>0</maxAltitude>
			</LatLonAltBox>
			<Lod>
				<minLodPixels>128</minLodPixels>
				<maxLodPixels>-1</maxLodPixels>
				<minFadeExtent>0</minFadeExtent>
				<maxFadeExtent>0</maxFadeExtent>
			</Lod>
		</Region>
		<Link>
			<href>5M~t b~ng ~~n hi~u_modified_19_276955_413576.kml</href>
		</Link>
	</NetworkLink>
	<NetworkLink>
		<name>5M~t b~ng ~~n hi~u_modified_19_276955_413577</name>
		<Region>
			<LatLonAltBox>
				<north>10.17059326171875</north>
				<south>10.16990661621094</south>
				<east>103.9814758300781</east>
				<west>103.9807891845703</west>
				<minAltitude>0</minAltitude>
				<maxAltitude>0</maxAltitude>
			</LatLonAltBox>
			<Lod>
				<minLodPixels>128</minLodPixels>
				<maxLodPixels>-1</maxLodPixels>
				<minFadeExtent>0</minFadeExtent>
				<maxFadeExtent>0</maxFadeExtent>
			</Lod>
		</Region>
		<Link>
			<href>5M~t b~ng ~~n hi~u_modified_19_276955_413577.kml</href>
		</Link>
	</NetworkLink>
	<GroundOverlay>
		<name>5M~t b~ng ~~n hi~u_modified_18_138477_206788</name>
		<drawOrder>18</drawOrder>
		<Icon>
			<href>files/5M~t b~ng ~~n hi~u_modified_18_138477_206788.png</href>
		</Icon>
		<LatLonBox>
			<north>10.17059326171875</north>
			<south>10.16921997070313</south>
			<east>103.9814758300781</east>
			<west>103.9801025390625</west>
		</LatLonBox>
	</GroundOverlay>
</Folder>
</kml>
