<?xml version="1.0" encoding="UTF-8"?>
<kml xmlns="http://www.opengis.net/kml/2.2" xmlns:gx="http://www.google.com/kml/ext/2.2" xmlns:kml="http://www.opengis.net/kml/2.2" xmlns:atom="http://www.w3.org/2005/Atom">
<Folder>
	<NetworkLink>
		<name>5M~t b~ng ~~n hi~u_modified_16_34617_51696</name>
		<Region>
			<LatLonAltBox>
				<north>10.162353515625</north>
				<south>10.1568603515625</south>
				<east>103.9801025390625</east>
				<west>103.974609375</west>
				<minAltitude>0</minAltitude>
				<maxAltitude>0</maxAltitude>
			</LatLonAltBox>
			<Lod>
				<minLodPixels>128</minLodPixels>
				<maxLodPixels>-1</maxLodPixels>
				<minFadeExtent>0</minFadeExtent>
				<maxFadeExtent>0</maxFadeExtent>
			</Lod>
		</Region>
		<Link>
			<href>5M~t b~ng ~~n hi~u_modified_16_34617_51696.kml</href>
		</Link>
	</NetworkLink>
	<NetworkLink>
		<name>5M~t b~ng ~~n hi~u_modified_16_34617_51697</name>
		<Region>
			<LatLonAltBox>
				<north>10.162353515625</north>
				<south>10.1568603515625</south>
				<east>103.985595703125</east>
				<west>103.9801025390625</west>
				<minAltitude>0</minAltitude>
				<maxAltitude>0</maxAltitude>
			</LatLonAltBox>
			<Lod>
				<minLodPixels>128</minLodPixels>
				<maxLodPixels>-1</maxLodPixels>
				<minFadeExtent>0</minFadeExtent>
				<maxFadeExtent>0</maxFadeExtent>
			</Lod>
		</Region>
		<Link>
			<href>5M~t b~ng ~~n hi~u_modified_16_34617_51697.kml</href>
		</Link>
	</NetworkLink>
	<GroundOverlay>
		<name>5M~t b~ng ~~n hi~u_modified_15_17308_25848</name>
		<drawOrder>15</drawOrder>
		<Icon>
			<href>files/5M~t b~ng ~~n hi~u_modified_15_17308_25848.png</href>
		</Icon>
		<LatLonBox>
			<north>10.162353515625</north>
			<south>10.1513671875</south>
			<east>103.985595703125</east>
			<west>103.974609375</west>
		</LatLonBox>
	</GroundOverlay>
</Folder>
</kml>
