<?xml version="1.0" encoding="UTF-8"?>
<kml xmlns="http://www.opengis.net/kml/2.2" xmlns:gx="http://www.google.com/kml/ext/2.2" xmlns:kml="http://www.opengis.net/kml/2.2" xmlns:atom="http://www.w3.org/2005/Atom">
<NetworkLink>
	<name>8Mặt bằng đèn hiệu_modified Root</name>
	<LookAt>
		<longitude>104.0057997154677</longitude>
		<latitude>10.16431652852094</latitude>
		<altitude>0</altitude>
		<heading>0</heading>
		<tilt>0</tilt>
		<range>1769.243151486308</range>
	</LookAt>
	<Style id="inline">
		<ListStyle>
			<listItemType>checkHideChildren</listItemType>
			<bgColor>00ffffff</bgColor>
			<maxSnippetLines>2</maxSnippetLines>
		</ListStyle>
	</Style>
	<Link>
		<href>8M~t b~ng ~~n hi~u_modified_14_8654_12925.kml</href>
	</Link>
	<atom:link rel="app" href="https://www.google.com/earth/about/versions/#earth-pro" title="Google Earth Pro 7.3.7.1327"></atom:link>
</NetworkLink>
</kml>
