<?xml version="1.0" encoding="UTF-8"?>
<kml xmlns="http://www.opengis.net/kml/2.2" xmlns:gx="http://www.google.com/kml/ext/2.2" xmlns:kml="http://www.opengis.net/kml/2.2" xmlns:atom="http://www.w3.org/2005/Atom">
<Folder>
	<GroundOverlay>
		<name>8M~t b~ng ~~n hi~u_modified_19_276954_413607</name>
		<drawOrder>19</drawOrder>
		<Icon>
			<href>files/8M~t b~ng ~~n hi~u_modified_19_276954_413607.png</href>
		</Icon>
		<LatLonBox>
			<north>10.16990661621094</north>
			<south>10.16921997070313</south>
			<east>104.0020751953125</east>
			<west>104.0013885498047</west>
		</LatLonBox>
	</GroundOverlay>
</Folder>
</kml>
