<?xml version="1.0" encoding="UTF-8"?>
<kml xmlns="http://www.opengis.net/kml/2.2" xmlns:gx="http://www.google.com/kml/ext/2.2" xmlns:kml="http://www.opengis.net/kml/2.2" xmlns:atom="http://www.w3.org/2005/Atom">
<Folder>
	<GroundOverlay>
		<name>8M~t b~ng ~~n hi~u_modified_19_276942_413603</name>
		<drawOrder>19</drawOrder>
		<Icon>
			<href>files/8M~t b~ng ~~n hi~u_modified_19_276942_413603.png</href>
		</Icon>
		<LatLonBox>
			<north>10.16166687011719</north>
			<south>10.16098022460938</south>
			<east>103.9993286132813</east>
			<west>103.9986419677734</west>
		</LatLonBox>
	</GroundOverlay>
</Folder>
</kml>
