<?xml version="1.0" encoding="UTF-8"?>
<kml xmlns="http://www.opengis.net/kml/2.2" xmlns:gx="http://www.google.com/kml/ext/2.2" xmlns:kml="http://www.opengis.net/kml/2.2" xmlns:atom="http://www.w3.org/2005/Atom">
<GroundOverlay>
	<name>8M~t b~ng ~~n hi~u_modified_20_553886_827213</name>
	<drawOrder>20</drawOrder>
	<Icon>
		<href>files/8M~t b~ng ~~n hi~u_modified_20_553886_827213.png</href>
	</Icon>
	<LatLonBox>
		<north>10.16201019287109</north>
		<south>10.16166687011719</south>
		<east>104.0013885498047</east>
		<west>104.0010452270508</west>
	</LatLonBox>
</GroundOverlay>
</kml>
