<?xml version="1.0" encoding="UTF-8"?>
<kml xmlns="http://www.opengis.net/kml/2.2" xmlns:gx="http://www.google.com/kml/ext/2.2" xmlns:kml="http://www.opengis.net/kml/2.2" xmlns:atom="http://www.w3.org/2005/Atom">
<GroundOverlay>
	<name>8M~t b~ng ~~n hi~u_modified_20_553900_827232</name>
	<drawOrder>20</drawOrder>
	<Icon>
		<href>files/8M~t b~ng ~~n hi~u_modified_20_553900_827232.png</href>
	</Icon>
	<LatLonBox>
		<north>10.16681671142578</north>
		<south>10.16647338867188</south>
		<east>104.0079116821289</east>
		<west>104.007568359375</west>
	</LatLonBox>
</GroundOverlay>
</kml>
