<?xml version="1.0" encoding="UTF-8"?>
<kml xmlns="http://www.opengis.net/kml/2.2" xmlns:gx="http://www.google.com/kml/ext/2.2" xmlns:kml="http://www.opengis.net/kml/2.2" xmlns:atom="http://www.w3.org/2005/Atom">
<Folder>
	<NetworkLink>
		<name>8M~t b~ng ~~n hi~u_modified_18_138472_206800</name>
		<Region>
			<LatLonAltBox>
				<north>10.16372680664063</north>
				<south>10.162353515625</south>
				<east>103.9979553222656</east>
				<west>103.99658203125</west>
				<minAltitude>0</minAltitude>
				<maxAltitude>0</maxAltitude>
			</LatLonAltBox>
			<Lod>
				<minLodPixels>128</minLodPixels>
				<maxLodPixels>-1</maxLodPixels>
				<minFadeExtent>0</minFadeExtent>
				<maxFadeExtent>0</maxFadeExtent>
			</Lod>
		</Region>
		<Link>
			<href>8M~t b~ng ~~n hi~u_modified_18_138472_206800.kml</href>
		</Link>
	</NetworkLink>
	<NetworkLink>
		<name>8M~t b~ng ~~n hi~u_modified_18_138472_206801</name>
		<Region>
			<LatLonAltBox>
				<north>10.16372680664063</north>
				<south>10.162353515625</south>
				<east>103.9993286132813</east>
				<west>103.9979553222656</west>
				<minAltitude>0</minAltitude>
				<maxAltitude>0</maxAltitude>
			</LatLonAltBox>
			<Lod>
				<minLodPixels>128</minLodPixels>
				<maxLodPixels>-1</maxLodPixels>
				<minFadeExtent>0</minFadeExtent>
				<maxFadeExtent>0</maxFadeExtent>
			</Lod>
		</Region>
		<Link>
			<href>8M~t b~ng ~~n hi~u_modified_18_138472_206801.kml</href>
		</Link>
	</NetworkLink>
	<NetworkLink>
		<name>8M~t b~ng ~~n hi~u_modified_18_138473_206800</name>
		<Region>
			<LatLonAltBox>
				<north>10.16510009765625</north>
				<south>10.16372680664063</south>
				<east>103.9979553222656</east>
				<west>103.99658203125</west>
				<minAltitude>0</minAltitude>
				<maxAltitude>0</maxAltitude>
			</LatLonAltBox>
			<Lod>
				<minLodPixels>128</minLodPixels>
				<maxLodPixels>-1</maxLodPixels>
				<minFadeExtent>0</minFadeExtent>
				<maxFadeExtent>0</maxFadeExtent>
			</Lod>
		</Region>
		<Link>
			<href>8M~t b~ng ~~n hi~u_modified_18_138473_206800.kml</href>
		</Link>
	</NetworkLink>
	<NetworkLink>
		<name>8M~t b~ng ~~n hi~u_modified_18_138473_206801</name>
		<Region>
			<LatLonAltBox>
				<north>10.16510009765625</north>
				<south>10.16372680664063</south>
				<east>103.9993286132813</east>
				<west>103.9979553222656</west>
				<minAltitude>0</minAltitude>
				<maxAltitude>0</maxAltitude>
			</LatLonAltBox>
			<Lod>
				<minLodPixels>128</minLodPixels>
				<maxLodPixels>-1</maxLodPixels>
				<minFadeExtent>0</minFadeExtent>
				<maxFadeExtent>0</maxFadeExtent>
			</Lod>
		</Region>
		<Link>
			<href>8M~t b~ng ~~n hi~u_modified_18_138473_206801.kml</href>
		</Link>
	</NetworkLink>
	<GroundOverlay>
		<name>8M~t b~ng ~~n hi~u_modified_17_69236_103400</name>
		<drawOrder>17</drawOrder>
		<Icon>
			<href>files/8M~t b~ng ~~n hi~u_modified_17_69236_103400.png</href>
		</Icon>
		<LatLonBox>
			<north>10.16510009765625</north>
			<south>10.162353515625</south>
			<east>103.9993286132813</east>
			<west>103.99658203125</west>
		</LatLonBox>
	</GroundOverlay>
</Folder>
</kml>
