<?xml version="1.0" encoding="UTF-8"?>
<kml xmlns="http://www.opengis.net/kml/2.2" xmlns:gx="http://www.google.com/kml/ext/2.2" xmlns:kml="http://www.opengis.net/kml/2.2" xmlns:atom="http://www.w3.org/2005/Atom">
<Folder>
	<GroundOverlay>
		<name>8M~t b~ng ~~n hi~u_modified_19_276948_413622</name>
		<drawOrder>19</drawOrder>
		<Icon>
			<href>files/8M~t b~ng ~~n hi~u_modified_19_276948_413622.png</href>
		</Icon>
		<LatLonBox>
			<north>10.16578674316406</north>
			<south>10.16510009765625</south>
			<east>104.0123748779297</east>
			<west>104.0116882324219</west>
		</LatLonBox>
	</GroundOverlay>
</Folder>
</kml>
