<?xml version="1.0" encoding="UTF-8"?>
<kml xmlns="http://www.opengis.net/kml/2.2" xmlns:gx="http://www.google.com/kml/ext/2.2" xmlns:kml="http://www.opengis.net/kml/2.2" xmlns:atom="http://www.w3.org/2005/Atom">
<Folder>
	<GroundOverlay>
		<name>8M~t b~ng ~~n hi~u_modified_19_276949_413606</name>
		<drawOrder>19</drawOrder>
		<Icon>
			<href>files/8M~t b~ng ~~n hi~u_modified_19_276949_413606.png</href>
		</Icon>
		<LatLonBox>
			<north>10.16647338867188</north>
			<south>10.16578674316406</south>
			<east>104.0013885498047</east>
			<west>104.0007019042969</west>
		</LatLonBox>
	</GroundOverlay>
</Folder>
</kml>
