<?xml version="1.0" encoding="UTF-8"?>
<kml xmlns="http://www.opengis.net/kml/2.2" xmlns:gx="http://www.google.com/kml/ext/2.2" xmlns:kml="http://www.opengis.net/kml/2.2" xmlns:atom="http://www.w3.org/2005/Atom">
<GroundOverlay>
	<name>8M~t b~ng ~~n hi~u_modified_20_553904_827231</name>
	<drawOrder>20</drawOrder>
	<Icon>
		<href>files/8M~t b~ng ~~n hi~u_modified_20_553904_827231.png</href>
	</Icon>
	<LatLonBox>
		<north>10.16819000244141</north>
		<south>10.1678466796875</south>
		<east>104.007568359375</east>
		<west>104.0072250366211</west>
	</LatLonBox>
</GroundOverlay>
</kml>
