<?xml version="1.0" encoding="UTF-8"?>
<kml xmlns="http://www.opengis.net/kml/2.2" xmlns:gx="http://www.google.com/kml/ext/2.2" xmlns:kml="http://www.opengis.net/kml/2.2" xmlns:atom="http://www.w3.org/2005/Atom">
<Folder>
	<GroundOverlay>
		<name>8M~t b~ng ~~n hi~u_modified_19_276939_413617</name>
		<drawOrder>19</drawOrder>
		<Icon>
			<href>files/8M~t b~ng ~~n hi~u_modified_19_276939_413617.png</href>
		</Icon>
		<LatLonBox>
			<north>10.15960693359375</north>
			<south>10.15892028808594</south>
			<east>104.0089416503906</east>
			<west>104.0082550048828</west>
		</LatLonBox>
	</GroundOverlay>
</Folder>
</kml>
