<?xml version="1.0" encoding="UTF-8"?>
<kml xmlns="http://www.opengis.net/kml/2.2" xmlns:gx="http://www.google.com/kml/ext/2.2" xmlns:kml="http://www.opengis.net/kml/2.2" xmlns:atom="http://www.w3.org/2005/Atom">
<Folder>
	<NetworkLink>
		<name>8M~t b~ng ~~n hi~u_modified_20_553902_827226</name>
		<Region>
			<LatLonAltBox>
				<north>10.16750335693359</north>
				<south>10.16716003417969</south>
				<east>104.0058517456055</east>
				<west>104.0055084228516</west>
				<minAltitude>0</minAltitude>
				<maxAltitude>0</maxAltitude>
			</LatLonAltBox>
			<Lod>
				<minLodPixels>128</minLodPixels>
				<maxLodPixels>-1</maxLodPixels>
				<minFadeExtent>0</minFadeExtent>
				<maxFadeExtent>0</maxFadeExtent>
			</Lod>
		</Region>
		<Link>
			<href>8M~t b~ng ~~n hi~u_modified_20_553902_827226.kml</href>
		</Link>
	</NetworkLink>
	<NetworkLink>
		<name>8M~t b~ng ~~n hi~u_modified_20_553902_827227</name>
		<Region>
			<LatLonAltBox>
				<north>10.16750335693359</north>
				<south>10.16716003417969</south>
				<east>104.0061950683594</east>
				<west>104.0058517456055</west>
				<minAltitude>0</minAltitude>
				<maxAltitude>0</maxAltitude>
			</LatLonAltBox>
			<Lod>
				<minLodPixels>128</minLodPixels>
				<maxLodPixels>-1</maxLodPixels>
				<minFadeExtent>0</minFadeExtent>
				<maxFadeExtent>0</maxFadeExtent>
			</Lod>
		</Region>
		<Link>
			<href>8M~t b~ng ~~n hi~u_modified_20_553902_827227.kml</href>
		</Link>
	</NetworkLink>
	<NetworkLink>
		<name>8M~t b~ng ~~n hi~u_modified_20_553903_827226</name>
		<Region>
			<LatLonAltBox>
				<north>10.1678466796875</north>
				<south>10.16750335693359</south>
				<east>104.0058517456055</east>
				<west>104.0055084228516</west>
				<minAltitude>0</minAltitude>
				<maxAltitude>0</maxAltitude>
			</LatLonAltBox>
			<Lod>
				<minLodPixels>128</minLodPixels>
				<maxLodPixels>-1</maxLodPixels>
				<minFadeExtent>0</minFadeExtent>
				<maxFadeExtent>0</maxFadeExtent>
			</Lod>
		</Region>
		<Link>
			<href>8M~t b~ng ~~n hi~u_modified_20_553903_827226.kml</href>
		</Link>
	</NetworkLink>
	<NetworkLink>
		<name>8M~t b~ng ~~n hi~u_modified_20_553903_827227</name>
		<Region>
			<LatLonAltBox>
				<north>10.1678466796875</north>
				<south>10.16750335693359</south>
				<east>104.0061950683594</east>
				<west>104.0058517456055</west>
				<minAltitude>0</minAltitude>
				<maxAltitude>0</maxAltitude>
			</LatLonAltBox>
			<Lod>
				<minLodPixels>128</minLodPixels>
				<maxLodPixels>-1</maxLodPixels>
				<minFadeExtent>0</minFadeExtent>
				<maxFadeExtent>0</maxFadeExtent>
			</Lod>
		</Region>
		<Link>
			<href>8M~t b~ng ~~n hi~u_modified_20_553903_827227.kml</href>
		</Link>
	</NetworkLink>
	<GroundOverlay>
		<name>8M~t b~ng ~~n hi~u_modified_19_276951_413613</name>
		<drawOrder>19</drawOrder>
		<Icon>
			<href>files/8M~t b~ng ~~n hi~u_modified_19_276951_413613.png</href>
		</Icon>
		<LatLonBox>
			<north>10.1678466796875</north>
			<south>10.16716003417969</south>
			<east>104.0061950683594</east>
			<west>104.0055084228516</west>
		</LatLonBox>
	</GroundOverlay>
</Folder>
</kml>
