<?xml version="1.0" encoding="UTF-8"?>
<kml xmlns="http://www.opengis.net/kml/2.2" xmlns:gx="http://www.google.com/kml/ext/2.2" xmlns:kml="http://www.opengis.net/kml/2.2" xmlns:atom="http://www.w3.org/2005/Atom">
<Folder>
	<NetworkLink>
		<name>8M~t b~ng ~~n hi~u_modified_19_276946_413620</name>
		<Region>
			<LatLonAltBox>
				<north>10.16441345214844</north>
				<south>10.16372680664063</south>
				<east>104.0110015869141</east>
				<west>104.0103149414063</west>
				<minAltitude>0</minAltitude>
				<maxAltitude>0</maxAltitude>
			</LatLonAltBox>
			<Lod>
				<minLodPixels>128</minLodPixels>
				<maxLodPixels>-1</maxLodPixels>
				<minFadeExtent>0</minFadeExtent>
				<maxFadeExtent>0</maxFadeExtent>
			</Lod>
		</Region>
		<Link>
			<href>8M~t b~ng ~~n hi~u_modified_19_276946_413620.kml</href>
		</Link>
	</NetworkLink>
	<NetworkLink>
		<name>8M~t b~ng ~~n hi~u_modified_19_276946_413621</name>
		<Region>
			<LatLonAltBox>
				<north>10.16441345214844</north>
				<south>10.16372680664063</south>
				<east>104.0116882324219</east>
				<west>104.0110015869141</west>
				<minAltitude>0</minAltitude>
				<maxAltitude>0</maxAltitude>
			</LatLonAltBox>
			<Lod>
				<minLodPixels>128</minLodPixels>
				<maxLodPixels>-1</maxLodPixels>
				<minFadeExtent>0</minFadeExtent>
				<maxFadeExtent>0</maxFadeExtent>
			</Lod>
		</Region>
		<Link>
			<href>8M~t b~ng ~~n hi~u_modified_19_276946_413621.kml</href>
		</Link>
	</NetworkLink>
	<NetworkLink>
		<name>8M~t b~ng ~~n hi~u_modified_19_276947_413620</name>
		<Region>
			<LatLonAltBox>
				<north>10.16510009765625</north>
				<south>10.16441345214844</south>
				<east>104.0110015869141</east>
				<west>104.0103149414063</west>
				<minAltitude>0</minAltitude>
				<maxAltitude>0</maxAltitude>
			</LatLonAltBox>
			<Lod>
				<minLodPixels>128</minLodPixels>
				<maxLodPixels>-1</maxLodPixels>
				<minFadeExtent>0</minFadeExtent>
				<maxFadeExtent>0</maxFadeExtent>
			</Lod>
		</Region>
		<Link>
			<href>8M~t b~ng ~~n hi~u_modified_19_276947_413620.kml</href>
		</Link>
	</NetworkLink>
	<NetworkLink>
		<name>8M~t b~ng ~~n hi~u_modified_19_276947_413621</name>
		<Region>
			<LatLonAltBox>
				<north>10.16510009765625</north>
				<south>10.16441345214844</south>
				<east>104.0116882324219</east>
				<west>104.0110015869141</west>
				<minAltitude>0</minAltitude>
				<maxAltitude>0</maxAltitude>
			</LatLonAltBox>
			<Lod>
				<minLodPixels>128</minLodPixels>
				<maxLodPixels>-1</maxLodPixels>
				<minFadeExtent>0</minFadeExtent>
				<maxFadeExtent>0</maxFadeExtent>
			</Lod>
		</Region>
		<Link>
			<href>8M~t b~ng ~~n hi~u_modified_19_276947_413621.kml</href>
		</Link>
	</NetworkLink>
	<GroundOverlay>
		<name>8M~t b~ng ~~n hi~u_modified_18_138473_206810</name>
		<drawOrder>18</drawOrder>
		<Icon>
			<href>files/8M~t b~ng ~~n hi~u_modified_18_138473_206810.png</href>
		</Icon>
		<LatLonBox>
			<north>10.16510009765625</north>
			<south>10.16372680664063</south>
			<east>104.0116882324219</east>
			<west>104.0103149414063</west>
		</LatLonBox>
	</GroundOverlay>
</Folder>
</kml>
