<?xml version="1.0" encoding="UTF-8"?>
<kml xmlns="http://www.opengis.net/kml/2.2" xmlns:gx="http://www.google.com/kml/ext/2.2" xmlns:kml="http://www.opengis.net/kml/2.2" xmlns:atom="http://www.w3.org/2005/Atom">
<Folder>
	<NetworkLink>
		<name>8M~t b~ng ~~n hi~u_modified_19_276939_413622</name>
		<Region>
			<LatLonAltBox>
				<north>10.15960693359375</north>
				<south>10.15892028808594</south>
				<east>104.0123748779297</east>
				<west>104.0116882324219</west>
				<minAltitude>0</minAltitude>
				<maxAltitude>0</maxAltitude>
			</LatLonAltBox>
			<Lod>
				<minLodPixels>128</minLodPixels>
				<maxLodPixels>-1</maxLodPixels>
				<minFadeExtent>0</minFadeExtent>
				<maxFadeExtent>0</maxFadeExtent>
			</Lod>
		</Region>
		<Link>
			<href>8M~t b~ng ~~n hi~u_modified_19_276939_413622.kml</href>
		</Link>
	</NetworkLink>
	<NetworkLink>
		<name>8M~t b~ng ~~n hi~u_modified_19_276939_413623</name>
		<Region>
			<LatLonAltBox>
				<north>10.15960693359375</north>
				<south>10.15892028808594</south>
				<east>104.0130615234375</east>
				<west>104.0123748779297</west>
				<minAltitude>0</minAltitude>
				<maxAltitude>0</maxAltitude>
			</LatLonAltBox>
			<Lod>
				<minLodPixels>128</minLodPixels>
				<maxLodPixels>-1</maxLodPixels>
				<minFadeExtent>0</minFadeExtent>
				<maxFadeExtent>0</maxFadeExtent>
			</Lod>
		</Region>
		<Link>
			<href>8M~t b~ng ~~n hi~u_modified_19_276939_413623.kml</href>
		</Link>
	</NetworkLink>
	<GroundOverlay>
		<name>8M~t b~ng ~~n hi~u_modified_18_138469_206811</name>
		<drawOrder>18</drawOrder>
		<Icon>
			<href>files/8M~t b~ng ~~n hi~u_modified_18_138469_206811.png</href>
		</Icon>
		<LatLonBox>
			<north>10.15960693359375</north>
			<south>10.15823364257813</south>
			<east>104.0130615234375</east>
			<west>104.0116882324219</west>
		</LatLonBox>
	</GroundOverlay>
</Folder>
</kml>
