<?xml version="1.0" encoding="UTF-8"?>
<kml xmlns="http://www.opengis.net/kml/2.2" xmlns:gx="http://www.google.com/kml/ext/2.2" xmlns:kml="http://www.opengis.net/kml/2.2" xmlns:atom="http://www.w3.org/2005/Atom">
<Folder>
	<GroundOverlay>
		<name>8M~t b~ng ~~n hi~u_modified_19_276946_413621</name>
		<drawOrder>19</drawOrder>
		<Icon>
			<href>files/8M~t b~ng ~~n hi~u_modified_19_276946_413621.png</href>
		</Icon>
		<LatLonBox>
			<north>10.16441345214844</north>
			<south>10.16372680664063</south>
			<east>104.0116882324219</east>
			<west>104.0110015869141</west>
		</LatLonBox>
	</GroundOverlay>
</Folder>
</kml>
