<?xml version="1.0" encoding="UTF-8"?>
<kml xmlns="http://www.opengis.net/kml/2.2" xmlns:gx="http://www.google.com/kml/ext/2.2" xmlns:kml="http://www.opengis.net/kml/2.2" xmlns:atom="http://www.w3.org/2005/Atom">
<Folder>
	<NetworkLink>
		<name>8M~t b~ng ~~n hi~u_modified_20_553897_827229</name>
		<Region>
			<LatLonAltBox>
				<north>10.16578674316406</north>
				<south>10.16544342041016</south>
				<east>104.0068817138672</east>
				<west>104.0065383911133</west>
				<minAltitude>0</minAltitude>
				<maxAltitude>0</maxAltitude>
			</LatLonAltBox>
			<Lod>
				<minLodPixels>128</minLodPixels>
				<maxLodPixels>-1</maxLodPixels>
				<minFadeExtent>0</minFadeExtent>
				<maxFadeExtent>0</maxFadeExtent>
			</Lod>
		</Region>
		<Link>
			<href>8M~t b~ng ~~n hi~u_modified_20_553897_827229.kml</href>
		</Link>
	</NetworkLink>
	<GroundOverlay>
		<name>8M~t b~ng ~~n hi~u_modified_19_276948_413614</name>
		<drawOrder>19</drawOrder>
		<Icon>
			<href>files/8M~t b~ng ~~n hi~u_modified_19_276948_413614.png</href>
		</Icon>
		<LatLonBox>
			<north>10.16578674316406</north>
			<south>10.16510009765625</south>
			<east>104.0068817138672</east>
			<west>104.0061950683594</west>
		</LatLonBox>
	</GroundOverlay>
</Folder>
</kml>
