<?xml version="1.0" encoding="UTF-8"?>
<kml xmlns="http://www.opengis.net/kml/2.2" xmlns:gx="http://www.google.com/kml/ext/2.2" xmlns:kml="http://www.opengis.net/kml/2.2" xmlns:atom="http://www.w3.org/2005/Atom">
<Folder>
	<NetworkLink>
		<name>8M~t b~ng ~~n hi~u_modified_19_276954_413616</name>
		<Region>
			<LatLonAltBox>
				<north>10.16990661621094</north>
				<south>10.16921997070313</south>
				<east>104.0082550048828</east>
				<west>104.007568359375</west>
				<minAltitude>0</minAltitude>
				<maxAltitude>0</maxAltitude>
			</LatLonAltBox>
			<Lod>
				<minLodPixels>128</minLodPixels>
				<maxLodPixels>-1</maxLodPixels>
				<minFadeExtent>0</minFadeExtent>
				<maxFadeExtent>0</maxFadeExtent>
			</Lod>
		</Region>
		<Link>
			<href>8M~t b~ng ~~n hi~u_modified_19_276954_413616.kml</href>
		</Link>
	</NetworkLink>
	<NetworkLink>
		<name>8M~t b~ng ~~n hi~u_modified_19_276954_413617</name>
		<Region>
			<LatLonAltBox>
				<north>10.16990661621094</north>
				<south>10.16921997070313</south>
				<east>104.0089416503906</east>
				<west>104.0082550048828</west>
				<minAltitude>0</minAltitude>
				<maxAltitude>0</maxAltitude>
			</LatLonAltBox>
			<Lod>
				<minLodPixels>128</minLodPixels>
				<maxLodPixels>-1</maxLodPixels>
				<minFadeExtent>0</minFadeExtent>
				<maxFadeExtent>0</maxFadeExtent>
			</Lod>
		</Region>
		<Link>
			<href>8M~t b~ng ~~n hi~u_modified_19_276954_413617.kml</href>
		</Link>
	</NetworkLink>
	<GroundOverlay>
		<name>8M~t b~ng ~~n hi~u_modified_18_138477_206808</name>
		<drawOrder>18</drawOrder>
		<Icon>
			<href>files/8M~t b~ng ~~n hi~u_modified_18_138477_206808.png</href>
		</Icon>
		<LatLonBox>
			<north>10.17059326171875</north>
			<south>10.16921997070313</south>
			<east>104.0089416503906</east>
			<west>104.007568359375</west>
		</LatLonBox>
	</GroundOverlay>
</Folder>
</kml>
