<?xml version="1.0" encoding="UTF-8"?>
<kml xmlns="http://www.opengis.net/kml/2.2" xmlns:gx="http://www.google.com/kml/ext/2.2" xmlns:kml="http://www.opengis.net/kml/2.2" xmlns:atom="http://www.w3.org/2005/Atom">
<Folder>
	<NetworkLink>
		<name>8M~t b~ng ~~n hi~u_modified_20_553884_827213</name>
		<Region>
			<LatLonAltBox>
				<north>10.16132354736328</north>
				<south>10.16098022460938</south>
				<east>104.0013885498047</east>
				<west>104.0010452270508</west>
				<minAltitude>0</minAltitude>
				<maxAltitude>0</maxAltitude>
			</LatLonAltBox>
			<Lod>
				<minLodPixels>128</minLodPixels>
				<maxLodPixels>-1</maxLodPixels>
				<minFadeExtent>0</minFadeExtent>
				<maxFadeExtent>0</maxFadeExtent>
			</Lod>
		</Region>
		<Link>
			<href>8M~t b~ng ~~n hi~u_modified_20_553884_827213.kml</href>
		</Link>
	</NetworkLink>
	<NetworkLink>
		<name>8M~t b~ng ~~n hi~u_modified_20_553885_827213</name>
		<Region>
			<LatLonAltBox>
				<north>10.16166687011719</north>
				<south>10.16132354736328</south>
				<east>104.0013885498047</east>
				<west>104.0010452270508</west>
				<minAltitude>0</minAltitude>
				<maxAltitude>0</maxAltitude>
			</LatLonAltBox>
			<Lod>
				<minLodPixels>128</minLodPixels>
				<maxLodPixels>-1</maxLodPixels>
				<minFadeExtent>0</minFadeExtent>
				<maxFadeExtent>0</maxFadeExtent>
			</Lod>
		</Region>
		<Link>
			<href>8M~t b~ng ~~n hi~u_modified_20_553885_827213.kml</href>
		</Link>
	</NetworkLink>
	<GroundOverlay>
		<name>8M~t b~ng ~~n hi~u_modified_19_276942_413606</name>
		<drawOrder>19</drawOrder>
		<Icon>
			<href>files/8M~t b~ng ~~n hi~u_modified_19_276942_413606.png</href>
		</Icon>
		<LatLonBox>
			<north>10.16166687011719</north>
			<south>10.16098022460938</south>
			<east>104.0013885498047</east>
			<west>104.0007019042969</west>
		</LatLonBox>
	</GroundOverlay>
</Folder>
</kml>
