<?xml version="1.0" encoding="UTF-8"?>
<kml xmlns="http://www.opengis.net/kml/2.2" xmlns:gx="http://www.google.com/kml/ext/2.2" xmlns:kml="http://www.opengis.net/kml/2.2" xmlns:atom="http://www.w3.org/2005/Atom">
<Folder>
	<NetworkLink>
		<name>8M~t b~ng ~~n hi~u_modified_17_69236_103402</name>
		<Region>
			<LatLonAltBox>
				<north>10.16510009765625</north>
				<south>10.162353515625</south>
				<east>104.0048217773438</east>
				<west>104.0020751953125</west>
				<minAltitude>0</minAltitude>
				<maxAltitude>0</maxAltitude>
			</LatLonAltBox>
			<Lod>
				<minLodPixels>128</minLodPixels>
				<maxLodPixels>-1</maxLodPixels>
				<minFadeExtent>0</minFadeExtent>
				<maxFadeExtent>0</maxFadeExtent>
			</Lod>
		</Region>
		<Link>
			<href>8M~t b~ng ~~n hi~u_modified_17_69236_103402.kml</href>
		</Link>
	</NetworkLink>
	<NetworkLink>
		<name>8M~t b~ng ~~n hi~u_modified_17_69236_103403</name>
		<Region>
			<LatLonAltBox>
				<north>10.16510009765625</north>
				<south>10.162353515625</south>
				<east>104.007568359375</east>
				<west>104.0048217773438</west>
				<minAltitude>0</minAltitude>
				<maxAltitude>0</maxAltitude>
			</LatLonAltBox>
			<Lod>
				<minLodPixels>128</minLodPixels>
				<maxLodPixels>-1</maxLodPixels>
				<minFadeExtent>0</minFadeExtent>
				<maxFadeExtent>0</maxFadeExtent>
			</Lod>
		</Region>
		<Link>
			<href>8M~t b~ng ~~n hi~u_modified_17_69236_103403.kml</href>
		</Link>
	</NetworkLink>
	<NetworkLink>
		<name>8M~t b~ng ~~n hi~u_modified_17_69237_103402</name>
		<Region>
			<LatLonAltBox>
				<north>10.1678466796875</north>
				<south>10.16510009765625</south>
				<east>104.0048217773438</east>
				<west>104.0020751953125</west>
				<minAltitude>0</minAltitude>
				<maxAltitude>0</maxAltitude>
			</LatLonAltBox>
			<Lod>
				<minLodPixels>128</minLodPixels>
				<maxLodPixels>-1</maxLodPixels>
				<minFadeExtent>0</minFadeExtent>
				<maxFadeExtent>0</maxFadeExtent>
			</Lod>
		</Region>
		<Link>
			<href>8M~t b~ng ~~n hi~u_modified_17_69237_103402.kml</href>
		</Link>
	</NetworkLink>
	<NetworkLink>
		<name>8M~t b~ng ~~n hi~u_modified_17_69237_103403</name>
		<Region>
			<LatLonAltBox>
				<north>10.1678466796875</north>
				<south>10.16510009765625</south>
				<east>104.007568359375</east>
				<west>104.0048217773438</west>
				<minAltitude>0</minAltitude>
				<maxAltitude>0</maxAltitude>
			</LatLonAltBox>
			<Lod>
				<minLodPixels>128</minLodPixels>
				<maxLodPixels>-1</maxLodPixels>
				<minFadeExtent>0</minFadeExtent>
				<maxFadeExtent>0</maxFadeExtent>
			</Lod>
		</Region>
		<Link>
			<href>8M~t b~ng ~~n hi~u_modified_17_69237_103403.kml</href>
		</Link>
	</NetworkLink>
	<GroundOverlay>
		<name>8M~t b~ng ~~n hi~u_modified_16_34618_51701</name>
		<drawOrder>16</drawOrder>
		<Icon>
			<href>files/8M~t b~ng ~~n hi~u_modified_16_34618_51701.png</href>
		</Icon>
		<LatLonBox>
			<north>10.1678466796875</north>
			<south>10.162353515625</south>
			<east>104.007568359375</east>
			<west>104.0020751953125</west>
		</LatLonBox>
	</GroundOverlay>
</Folder>
</kml>
